<?xml version="1.0" encoding="UTF-8"?>
<gpx xmlns:xsi="http://www.w3.org/2001/XMLSchema-instance" xmlns="http://www.topografix.com/GPX/1/1" xsi:schemaLocation="http://www.topografix.com/GPX/1/1 http://www.topografix.com/GPX/1/1/gpx.xsd" version="1.1" creator="FootMark for iOS">
	<metadata>
		<link href="https://itunes.apple.com/us/app/footmark-route-recorder/id1451393033">
			<text>Download link</text>
		</link>
		<time>2026-05-01T23:08:59Z</time>
	</metadata>
	<wpt lat="59.84294474685096" lon="17.626765266091176">
		<ele>42.90763854980469</ele>
		<time>2026-04-16T10:32:37Z</time>
	</wpt>
	<wpt lat="59.842684050619475" lon="17.62674114696387">
		<ele>45.89757487922907</ele>
		<time>2026-04-16T10:33:01Z</time>
	</wpt>
	<wpt lat="59.84260684285548" lon="17.627182358721804">
		<ele>44.90606463048607</ele>
		<time>2026-04-16T10:33:22Z</time>
	</wpt>
	<wpt lat="59.842380399199065" lon="17.627217437524834">
		<ele>45.03658676985651</ele>
		<time>2026-04-16T10:33:44Z</time>
	</wpt>
	<wpt lat="59.84217857366819" lon="17.626974584490657">
		<ele>50.66882035508752</ele>
		<time>2026-04-16T10:34:06Z</time>
	</wpt>
	<wpt lat="59.84193648267435" lon="17.62698285262949">
		<ele>53.04352595284581</ele>
		<time>2026-04-16T10:34:31Z</time>
	</wpt>
	<wpt lat="59.84172813446717" lon="17.62715859050653">
		<ele>52.06739193201065</ele>
		<time>2026-04-16T10:34:52Z</time>
	</wpt>
	<wpt lat="59.84150948387175" lon="17.627272995196336">
		<ele>51.637258551083505</ele>
		<time>2026-04-16T10:35:13Z</time>
	</wpt>
	<wpt lat="59.841317225458106" lon="17.62751415436059">
		<ele>52.76430412940681</ele>
		<time>2026-04-16T10:35:29Z</time>
	</wpt>
	<wpt lat="59.84110700844724" lon="17.627766714138797">
		<ele>53.15314820408821</ele>
		<time>2026-04-16T10:35:50Z</time>
	</wpt>
	<wpt lat="59.84092854523635" lon="17.628062741922868">
		<ele>52.63256007805467</ele>
		<time>2026-04-16T10:36:09Z</time>
	</wpt>
	<wpt lat="59.84072549496939" lon="17.62831419072491">
		<ele>54.378513551317155</ele>
		<time>2026-04-16T10:36:29Z</time>
	</wpt>
	<wpt lat="59.840564005363305" lon="17.628635139958234">
		<ele>53.77838471997529</ele>
		<time>2026-04-16T10:36:47Z</time>
	</wpt>
	<wpt lat="59.840380305039346" lon="17.628915108136148">
		<ele>53.53302325773984</ele>
		<time>2026-04-16T10:37:06Z</time>
	</wpt>
	<wpt lat="59.84017182827381" lon="17.628731802317972">
		<ele>56.06683475803584</ele>
		<time>2026-04-16T10:37:22Z</time>
	</wpt>
	<wpt lat="59.83997490338001" lon="17.628517233464514">
		<ele>56.226353329606354</ele>
		<time>2026-04-16T10:37:40Z</time>
	</wpt>
	<wpt lat="59.8397518998508" lon="17.628660479975714">
		<ele>55.43349892273545</ele>
		<time>2026-04-16T10:38:04Z</time>
	</wpt>
	<wpt lat="59.83953041641447" lon="17.62877791239131">
		<ele>55.98263901937753</ele>
		<time>2026-04-16T10:38:22Z</time>
	</wpt>
	<wpt lat="59.839367632681046" lon="17.629100637396963">
		<ele>53.46631099656224</ele>
		<time>2026-04-16T10:39:18Z</time>
	</wpt>
	<wpt lat="59.839220128000925" lon="17.629444389710468">
		<ele>53.7302417634055</ele>
		<time>2026-04-16T10:39:34Z</time>
	</wpt>
	<wpt lat="59.83907224008936" lon="17.62979953824423">
		<ele>53.61087047122419</ele>
		<time>2026-04-16T10:39:54Z</time>
	</wpt>
	<wpt lat="59.838864493451815" lon="17.630007564128903">
		<ele>51.89672389347106</ele>
		<time>2026-04-16T10:40:17Z</time>
	</wpt>
	<wpt lat="59.838633303611175" lon="17.63009992637349">
		<ele>54.192363393493</ele>
		<time>2026-04-16T10:40:40Z</time>
	</wpt>
	<wpt lat="59.83858146052827" lon="17.629659982939984">
		<ele>52.610286890529096</ele>
		<time>2026-04-16T10:41:06Z</time>
	</wpt>
	<wpt lat="59.8386901640927" lon="17.629250879767042">
		<ele>54.41214431915432</ele>
		<time>2026-04-16T10:41:41Z</time>
	</wpt>
	<wpt lat="59.83880751159368" lon="17.628843078579326">
		<ele>54.72196158673614</ele>
		<time>2026-04-16T10:42:11Z</time>
	</wpt>
	<wpt lat="59.838887938237455" lon="17.62840133831211">
		<ele>56.88693433161825</ele>
		<time>2026-04-16T10:42:30Z</time>
	</wpt>
	<wpt lat="59.838821083459294" lon="17.627959017762745">
		<ele>56.447747628204525</ele>
		<time>2026-04-16T10:42:54Z</time>
	</wpt>
	<wpt lat="59.838801597648384" lon="17.627504468594495">
		<ele>54.413246497511864</ele>
		<time>2026-04-16T10:43:14Z</time>
	</wpt>
	<wpt lat="59.838887097208165" lon="17.627091585424594">
		<ele>54.04287588223815</ele>
		<time>2026-04-16T10:43:31Z</time>
	</wpt>
	<wpt lat="59.839095944076035" lon="17.62691674041919">
		<ele>55.471133581362665</ele>
		<time>2026-04-16T10:43:52Z</time>
	</wpt>
	<wpt lat="59.83931248952081" lon="17.6270675480017">
		<ele>55.52495757397264</ele>
		<time>2026-04-16T10:44:10Z</time>
	</wpt>
	<wpt lat="59.83952472542429" lon="17.626889529024787">
		<ele>55.06583686731756</ele>
		<time>2026-04-16T10:44:32Z</time>
	</wpt>
	<wpt lat="59.83972992096387" lon="17.62708904036161">
		<ele>54.85349313728511</ele>
		<time>2026-04-16T10:44:59Z</time>
	</wpt>
	<wpt lat="59.83994677128408" lon="17.627268608099296">
		<ele>55.9301474057138</ele>
		<time>2026-04-16T10:45:21Z</time>
	</wpt>
	<wpt lat="59.840110406868575" lon="17.626932606659466">
		<ele>54.931834764778614</ele>
		<time>2026-04-16T10:46:10Z</time>
	</wpt>
	<wpt lat="59.84027908593837" lon="17.626632489109667">
		<ele>53.475128644146025</ele>
		<time>2026-04-16T10:46:32Z</time>
	</wpt>
	<wpt lat="59.8404787976364" lon="17.626395076751848">
		<ele>52.888415426015854</ele>
		<time>2026-04-16T10:46:55Z</time>
	</wpt>
	<wpt lat="59.84070342712656" lon="17.626294351802535">
		<ele>53.846326565369964</ele>
		<time>2026-04-16T10:47:16Z</time>
	</wpt>
	<wpt lat="59.84092260933788" lon="17.626146108947236">
		<ele>54.55937854479998</ele>
		<time>2026-04-16T10:47:39Z</time>
	</wpt>
	<wpt lat="59.84112805549625" lon="17.626358659628487">
		<ele>57.06298366189003</ele>
		<time>2026-04-16T10:47:57Z</time>
	</wpt>
	<wpt lat="59.841349378811906" lon="17.626443719432164">
		<ele>55.451042040251195</ele>
		<time>2026-04-16T10:48:16Z</time>
	</wpt>
	<wpt lat="59.84157765806778" lon="17.62646605806891">
		<ele>53.69337599910796</ele>
		<time>2026-04-16T10:48:37Z</time>
	</wpt>
	<wpt lat="59.84179387492056" lon="17.626343412996224">
		<ele>52.52938046399504</ele>
		<time>2026-04-16T10:48:55Z</time>
	</wpt>
	<wpt lat="59.84202021329552" lon="17.62626310272941">
		<ele>52.90490242559463</ele>
		<time>2026-04-16T10:49:16Z</time>
	</wpt>
	<wpt lat="59.842246562339795" lon="17.626256414424084">
		<ele>52.27157688327134</ele>
		<time>2026-04-16T10:49:37Z</time>
	</wpt>
	<wpt lat="59.842469933600455" lon="17.626384710670752">
		<ele>51.491395585238934</ele>
		<time>2026-04-16T10:49:59Z</time>
	</wpt>
	<wpt lat="59.842620438960445" lon="17.62672857008758">
		<ele>48.47180439066142</ele>
		<time>2026-04-16T10:50:20Z</time>
	</wpt>
	<wpt lat="59.84278239398135" lon="17.627057030134253">
		<ele>43.80789372045547</ele>
		<time>2026-04-16T10:50:44Z</time>
	</wpt>
	<wpt lat="59.8429912810518" lon="17.626852388037328">
		<ele>41.33260249439627</ele>
		<time>2026-04-16T10:51:07Z</time>
	</wpt>
	<wpt lat="59.84314021681277" lon="17.62718624007782">
		<ele>40.21786099858582</ele>
		<time>2026-04-16T10:51:29Z</time>
	</wpt>
	<wpt lat="59.84336268535179" lon="17.627087040501856">
		<ele>35.26735187321901</ele>
		<time>2026-04-16T10:52:02Z</time>
	</wpt>
	<wpt lat="59.84319079835483" lon="17.62678858581116">
		<ele>40.32835277635604</ele>
		<time>2026-04-16T10:54:32Z</time>
	</wpt>
	<wpt lat="59.84340611527495" lon="17.626931488730225">
		<ele>37.07045655325055</ele>
		<time>2026-04-16T11:08:06Z</time>
	</wpt>
	<wpt lat="59.84357648093915" lon="17.627239000107657">
		<ele>35.292873905040324</ele>
		<time>2026-04-16T11:08:23Z</time>
	</wpt>
	<wpt lat="59.84379681098339" lon="17.62707960563296">
		<ele>32.01104907412082</ele>
		<time>2026-04-16T11:08:58Z</time>
	</wpt>
	<wpt lat="59.84394433850905" lon="17.62674257737138">
		<ele>31.647703665308654</ele>
		<time>2026-04-16T11:09:15Z</time>
	</wpt>
	<wpt lat="59.844112294913806" lon="17.626404784824757">
		<ele>32.202776058577</ele>
		<time>2026-04-16T11:09:32Z</time>
	</wpt>
	<wpt lat="59.84434485744519" lon="17.626393578288102">
		<ele>31.735416187904775</ele>
		<time>2026-04-16T11:09:52Z</time>
	</wpt>
	<wpt lat="59.84448104948256" lon="17.626758407537263">
		<ele>30.044831689447165</ele>
		<time>2026-04-16T11:10:10Z</time>
	</wpt>
	<wpt lat="59.84470193014337" lon="17.626876336804774">
		<ele>29.083440515212715</ele>
		<time>2026-04-16T11:10:30Z</time>
	</wpt>
	<wpt lat="59.844884808538126" lon="17.626577481802535">
		<ele>28.70693598408252</ele>
		<time>2026-04-16T11:10:47Z</time>
	</wpt>
	<wpt lat="59.84508478240155" lon="17.62634914890104">
		<ele>28.106246944516897</ele>
		<time>2026-04-16T11:11:05Z</time>
	</wpt>
	<wpt lat="59.845315505871554" lon="17.626406216031363">
		<ele>29.13067151978612</ele>
		<time>2026-04-16T11:11:23Z</time>
	</wpt>
	<wpt lat="59.84554435215738" lon="17.626460488218672">
		<ele>27.416440526023507</ele>
		<time>2026-04-16T11:11:41Z</time>
	</wpt>
	<wpt lat="59.845749648928816" lon="17.62626653593113">
		<ele>25.9030508575961</ele>
		<time>2026-04-16T11:11:59Z</time>
	</wpt>
	<wpt lat="59.84597269521627" lon="17.626368207664633">
		<ele>27.98605177551508</ele>
		<time>2026-04-16T11:12:15Z</time>
	</wpt>
	<wpt lat="59.84620125888118" lon="17.626285775375955">
		<ele>28.13303904235363</ele>
		<time>2026-04-16T11:12:33Z</time>
	</wpt>
	<wpt lat="59.84641732749122" lon="17.626427207534903">
		<ele>28.573550491593778</ele>
		<time>2026-04-16T11:12:53Z</time>
	</wpt>
	<wpt lat="59.84658568279972" lon="17.626735605777405">
		<ele>27.14106303360313</ele>
		<time>2026-04-16T11:13:11Z</time>
	</wpt>
	<wpt lat="59.846766394181856" lon="17.627024550373093">
		<ele>26.663525745272636</ele>
		<time>2026-04-16T11:13:27Z</time>
	</wpt>
	<wpt lat="59.84695373051535" lon="17.627285337266464">
		<ele>28.189776997081935</ele>
		<time>2026-04-16T11:13:44Z</time>
	</wpt>
	<wpt lat="59.84713176121614" lon="17.627597126633464">
		<ele>26.513180227018893</ele>
		<time>2026-04-16T11:14:02Z</time>
	</wpt>
	<wpt lat="59.84730095755381" lon="17.627920699789303">
		<ele>25.80297592189163</ele>
		<time>2026-04-16T11:14:21Z</time>
	</wpt>
	<wpt lat="59.847473940309875" lon="17.62823164284872">
		<ele>25.285840707831085</ele>
		<time>2026-04-16T11:14:38Z</time>
	</wpt>
	<wpt lat="59.84764279956582" lon="17.62853188373854">
		<ele>25.13086672965437</ele>
		<time>2026-04-16T11:14:55Z</time>
	</wpt>
	<wpt lat="59.847817955726924" lon="17.628844315015396">
		<ele>25.316092788241804</ele>
		<time>2026-04-16T11:15:12Z</time>
	</wpt>
	<wpt lat="59.84802065790235" lon="17.629052684418514">
		<ele>25.86085904482752</ele>
		<time>2026-04-16T11:15:28Z</time>
	</wpt>
	<wpt lat="59.848222867243635" lon="17.628856176124245">
		<ele>24.289907773956656</ele>
		<time>2026-04-16T11:15:43Z</time>
	</wpt>
	<wpt lat="59.84842063512386" lon="17.629071446918434">
		<ele>24.370015795342624</ele>
		<time>2026-04-16T11:16:03Z</time>
	</wpt>
	<wpt lat="59.84848695898367" lon="17.62950697528542">
		<ele>25.800630087032914</ele>
		<time>2026-04-16T11:16:29Z</time>
	</wpt>
	<wpt lat="59.84862670912406" lon="17.62905317254443">
		<ele>25.758784156292677</ele>
		<time>2026-04-16T11:17:08Z</time>
	</wpt>
	<wpt lat="59.84852742085745" lon="17.62950719969412">
		<ele>25.82156677544117</ele>
		<time>2026-04-16T11:54:55Z</time>
	</wpt>
	<wpt lat="59.848268620800546" lon="17.6296891852017">
		<ele>26.11414756346494</ele>
		<time>2026-04-16T11:56:30Z</time>
	</wpt>
	<wpt lat="59.84820758230568" lon="17.62973587344612">
		<ele>25.840048232115805</ele>
		<time>2026-04-16T11:59:05Z</time>
	</wpt>
	<wpt lat="59.84837515539744" lon="17.629340201536827">
		<ele>25.62088650930673</ele>
		<time>2026-04-16T12:01:48Z</time>
	</wpt>
	<wpt lat="59.84856637017744" lon="17.629170944157927">
		<ele>26.613761433400214</ele>
		<time>2026-04-16T12:09:43Z</time>
	</wpt>
	<wpt lat="59.8483295659599" lon="17.629099412797057">
		<ele>25.876143063418567</ele>
		<time>2026-04-16T12:56:44Z</time>
	</wpt>
	<wpt lat="59.84818959160682" lon="17.628745183692807">
		<ele>24.416940523311496</ele>
		<time>2026-04-16T12:57:31Z</time>
	</wpt>
	<wpt lat="59.847977299322274" lon="17.628931296612645">
		<ele>24.951702192425728</ele>
		<time>2026-04-16T12:57:51Z</time>
	</wpt>
	<wpt lat="59.84777130075379" lon="17.628751547841954">
		<ele>25.655701893381774</ele>
		<time>2026-04-16T12:58:11Z</time>
	</wpt>
	<wpt lat="59.847605125387965" lon="17.628413427273266">
		<ele>25.15572516154498</ele>
		<time>2026-04-16T12:58:32Z</time>
	</wpt>
	<wpt lat="59.84742727831167" lon="17.628105547804854">
		<ele>26.900172197259963</ele>
		<time>2026-04-16T12:58:51Z</time>
	</wpt>
	<wpt lat="59.84725630815564" lon="17.627781196768073">
		<ele>27.394888049922884</ele>
		<time>2026-04-16T12:59:09Z</time>
	</wpt>
	<wpt lat="59.84708762464102" lon="17.627454413939013">
		<ele>28.980523622594774</ele>
		<time>2026-04-16T12:59:29Z</time>
	</wpt>
	<wpt lat="59.846901594571214" lon="17.627158126850247">
		<ele>27.670959496870637</ele>
		<time>2026-04-16T12:59:48Z</time>
	</wpt>
	<wpt lat="59.846730199666894" lon="17.626864165888367">
		<ele>28.49183106981218</ele>
		<time>2026-04-16T13:00:08Z</time>
	</wpt>
	<wpt lat="59.84653907087923" lon="17.62662011651903">
		<ele>28.78274155780673</ele>
		<time>2026-04-16T13:00:27Z</time>
	</wpt>
	<wpt lat="59.8463742027725" lon="17.62629645783872">
		<ele>28.769026753492653</ele>
		<time>2026-04-16T13:00:50Z</time>
	</wpt>
	<wpt lat="59.84614708227859" lon="17.626267207602698">
		<ele>28.134899613447487</ele>
		<time>2026-04-16T13:01:06Z</time>
	</wpt>
	<wpt lat="59.84591522415726" lon="17.62629753324799">
		<ele>28.35477274749428</ele>
		<time>2026-04-16T13:01:27Z</time>
	</wpt>
	<wpt lat="59.84568430514101" lon="17.62625054190991">
		<ele>28.000088394619524</ele>
		<time>2026-04-16T13:01:47Z</time>
	</wpt>
	<wpt lat="59.84548791923871" lon="17.6264714860134">
		<ele>29.70637876074761</ele>
		<time>2026-04-16T13:02:15Z</time>
	</wpt>
	<wpt lat="59.84526600041853" lon="17.626369047147556">
		<ele>30.071725625544786</ele>
		<time>2026-04-16T13:02:41Z</time>
	</wpt>
	<wpt lat="59.845035718559416" lon="17.626320359938344">
		<ele>28.84022765327245</ele>
		<time>2026-04-16T13:03:07Z</time>
	</wpt>
	<wpt lat="59.84484134158524" lon="17.626565626433493">
		<ele>29.053619250655174</ele>
		<time>2026-04-16T13:03:34Z</time>
	</wpt>
	<wpt lat="59.844656647703125" lon="17.62683299006204">
		<ele>28.919666751287878</ele>
		<time>2026-04-16T13:03:55Z</time>
	</wpt>
	<wpt lat="59.84444353916485" lon="17.626688480325562">
		<ele>30.9884663624689</ele>
		<time>2026-04-16T13:04:21Z</time>
	</wpt>
	<wpt lat="59.84429494531682" lon="17.626336389965235">
		<ele>30.765811557881534</ele>
		<time>2026-04-16T13:04:40Z</time>
	</wpt>
	<wpt lat="59.84410210086743" lon="17.62609672970352">
		<ele>31.981034296564758</ele>
		<time>2026-04-16T13:05:05Z</time>
	</wpt>
	<wpt lat="59.84397897591343" lon="17.626481044180057">
		<ele>35.13528511952609</ele>
		<time>2026-04-16T13:05:27Z</time>
	</wpt>
	<wpt lat="59.8438201434986" lon="17.62679943405429">
		<ele>35.00056100357324</ele>
		<time>2026-04-16T13:06:01Z</time>
	</wpt>
	<wpt lat="59.843672134406" lon="17.627137343397315">
		<ele>34.51743120700121</ele>
		<time>2026-04-16T13:06:23Z</time>
	</wpt>
	<wpt lat="59.843457093246165" lon="17.626997884503027">
		<ele>34.235670999623835</ele>
		<time>2026-04-16T13:06:47Z</time>
	</wpt>
	<wpt lat="59.843248883230515" lon="17.626830807940994">
		<ele>37.50580196361989</ele>
		<time>2026-04-16T13:07:09Z</time>
	</wpt>
	<wpt lat="59.84345092704991" lon="17.627031117657406">
		<ele>37.633998590521514</ele>
		<time>2026-04-16T13:11:23Z</time>
	</wpt>
	<wpt lat="59.843640616182824" lon="17.6273075520528">
		<ele>34.21831726934761</ele>
		<time>2026-04-16T13:11:39Z</time>
	</wpt>
	<wpt lat="59.84382980885738" lon="17.626940305287736">
		<ele>33.91535141412169</ele>
		<time>2026-04-16T13:11:44Z</time>
	</wpt>
	<wpt lat="59.84399247047397" lon="17.626583403935115">
		<ele>33.91087489295751</ele>
		<time>2026-04-16T13:11:48Z</time>
	</wpt>
	<wpt lat="59.84417412486247" lon="17.626200740321583">
		<ele>33.896354323253036</ele>
		<time>2026-04-16T13:11:53Z</time>
	</wpt>
	<wpt lat="59.844333464326645" lon="17.625882484481135">
		<ele>33.2888112263754</ele>
		<time>2026-04-16T13:11:57Z</time>
	</wpt>
	<wpt lat="59.844507876471994" lon="17.625547324010512">
		<ele>32.56391587480903</ele>
		<time>2026-04-16T13:12:01Z</time>
	</wpt>
	<wpt lat="59.844671680616074" lon="17.62522915033958">
		<ele>31.897304909303784</ele>
		<time>2026-04-16T13:12:05Z</time>
	</wpt>
	<wpt lat="59.844907084320795" lon="17.624963237242575">
		<ele>31.52654012851417</ele>
		<time>2026-04-16T13:12:10Z</time>
	</wpt>
	<wpt lat="59.84515445471819" lon="17.62483160761663">
		<ele>31.097047111019492</ele>
		<time>2026-04-16T13:12:14Z</time>
	</wpt>
	<wpt lat="59.845432367254254" lon="17.624704398264633">
		<ele>30.85526577848941</ele>
		<time>2026-04-16T13:12:18Z</time>
	</wpt>
	<wpt lat="59.84572373726306" lon="17.624583448468513">
		<ele>30.712002445943654</ele>
		<time>2026-04-16T13:12:22Z</time>
	</wpt>
	<wpt lat="59.84599628212055" lon="17.62446658234834">
		<ele>30.870781854726374</ele>
		<time>2026-04-16T13:12:26Z</time>
	</wpt>
	<wpt lat="59.84623740787205" lon="17.624363799623044">
		<ele>30.53585677780211</ele>
		<time>2026-04-16T13:12:30Z</time>
	</wpt>
	<wpt lat="59.8464670550799" lon="17.6243144864873">
		<ele>30.18538193963468</ele>
		<time>2026-04-16T13:12:36Z</time>
	</wpt>
	<wpt lat="59.846663428897116" lon="17.62455446067644">
		<ele>29.473056274466217</ele>
		<time>2026-04-16T13:12:46Z</time>
	</wpt>
	<wpt lat="59.84690492160651" lon="17.62481371085763">
		<ele>28.412540582939982</ele>
		<time>2026-04-16T13:12:51Z</time>
	</wpt>
	<wpt lat="59.84711336575879" lon="17.625035658181538">
		<ele>27.83500073477626</ele>
		<time>2026-04-16T13:12:55Z</time>
	</wpt>
	<wpt lat="59.84725836279857" lon="17.625424897205406">
		<ele>27.262894588522613</ele>
		<time>2026-04-16T13:12:59Z</time>
	</wpt>
	<wpt lat="59.84743032629267" lon="17.62584643013733">
		<ele>26.654308675788343</ele>
		<time>2026-04-16T13:13:03Z</time>
	</wpt>
	<wpt lat="59.847630626494606" lon="17.6262428765919">
		<ele>26.351309038698673</ele>
		<time>2026-04-16T13:13:07Z</time>
	</wpt>
	<wpt lat="59.8478452575412" lon="17.62655115194896">
		<ele>25.753244878724217</ele>
		<time>2026-04-16T13:13:11Z</time>
	</wpt>
	<wpt lat="59.8480775059023" lon="17.62680039362999">
		<ele>25.473002827726305</ele>
		<time>2026-04-16T13:13:15Z</time>
	</wpt>
	<wpt lat="59.848319045676135" lon="17.626999165478022">
		<ele>25.390257203951478</ele>
		<time>2026-04-16T13:13:19Z</time>
	</wpt>
	<wpt lat="59.84857896819529" lon="17.627109440129978">
		<ele>25.092239236459136</ele>
		<time>2026-04-16T13:13:24Z</time>
	</wpt>
	<wpt lat="59.84875950393565" lon="17.627487595097186">
		<ele>26.018099755980074</ele>
		<time>2026-04-16T13:13:30Z</time>
	</wpt>
	<wpt lat="59.848918989355845" lon="17.627894674611497">
		<ele>26.41466768924147</ele>
		<time>2026-04-16T13:13:36Z</time>
	</wpt>
	<wpt lat="59.849197362797305" lon="17.627917865199674">
		<ele>27.260272880084813</ele>
		<time>2026-04-16T13:13:45Z</time>
	</wpt>
	<wpt lat="59.84945321684965" lon="17.627673593178493">
		<ele>26.489020694978535</ele>
		<time>2026-04-16T13:13:49Z</time>
	</wpt>
	<wpt lat="59.84966620408508" lon="17.627485458604266">
		<ele>26.3452507276088</ele>
		<time>2026-04-16T13:13:52Z</time>
	</wpt>
	<wpt lat="59.84989520202158" lon="17.62728077393835">
		<ele>26.417953627184033</ele>
		<time>2026-04-16T13:13:55Z</time>
	</wpt>
	<wpt lat="59.85011714089329" lon="17.627086234999762">
		<ele>26.70387847069651</ele>
		<time>2026-04-16T13:13:58Z</time>
	</wpt>
	<wpt lat="59.85032841123683" lon="17.626902616318297">
		<ele>26.553171610459685</ele>
		<time>2026-04-16T13:14:01Z</time>
	</wpt>
	<wpt lat="59.850554434139625" lon="17.6267054581448">
		<ele>26.48692051321268</ele>
		<time>2026-04-16T13:14:05Z</time>
	</wpt>
	<wpt lat="59.85076504329276" lon="17.626513558571204">
		<ele>26.055686028674245</ele>
		<time>2026-04-16T13:14:11Z</time>
	</wpt>
	<wpt lat="59.850999560265535" lon="17.626617577926744">
		<ele>25.695085272192955</ele>
		<time>2026-04-16T13:14:22Z</time>
	</wpt>
	<wpt lat="59.85110008093419" lon="17.627099221706878">
		<ele>25.57506168819964</ele>
		<time>2026-04-16T13:14:26Z</time>
	</wpt>
	<wpt lat="59.851211671391845" lon="17.62765374908692">
		<ele>25.126427699811757</ele>
		<time>2026-04-16T13:14:30Z</time>
	</wpt>
	<wpt lat="59.851300543253046" lon="17.62807295934474">
		<ele>24.8012256314978</ele>
		<time>2026-04-16T13:14:33Z</time>
	</wpt>
	<wpt lat="59.85138891307795" lon="17.628485951451356">
		<ele>24.760863796807826</ele>
		<time>2026-04-16T13:14:36Z</time>
	</wpt>
	<wpt lat="59.8514971722812" lon="17.629006194217077">
		<ele>24.829975482076406</ele>
		<time>2026-04-16T13:14:40Z</time>
	</wpt>
	<wpt lat="59.85159171712695" lon="17.629468029166873">
		<ele>24.9838130986318</ele>
		<time>2026-04-16T13:14:44Z</time>
	</wpt>
	<wpt lat="59.851680841270436" lon="17.629891897622">
		<ele>25.350082021206617</ele>
		<time>2026-04-16T13:14:50Z</time>
	</wpt>
	<wpt lat="59.851774756765494" lon="17.63035297587793">
		<ele>26.44504413474351</ele>
		<time>2026-04-16T13:15:17Z</time>
	</wpt>
	<wpt lat="59.85187841833252" lon="17.630872744250052">
		<ele>27.05022018402815</ele>
		<time>2026-04-16T13:15:22Z</time>
	</wpt>
	<wpt lat="59.851987487044575" lon="17.631368781134835">
		<ele>27.208770497702062</ele>
		<time>2026-04-16T13:15:26Z</time>
	</wpt>
	<wpt lat="59.852092050446075" lon="17.631852714401557">
		<ele>27.378570349887013</ele>
		<time>2026-04-16T13:15:30Z</time>
	</wpt>
	<wpt lat="59.852190853012345" lon="17.632337275170045">
		<ele>27.64266342576593</ele>
		<time>2026-04-16T13:15:35Z</time>
	</wpt>
	<wpt lat="59.85227022812952" lon="17.63279857937157">
		<ele>28.61502965260297</ele>
		<time>2026-04-16T13:15:42Z</time>
	</wpt>
	<wpt lat="59.8523403063769" lon="17.633280799252997">
		<ele>31.436030698940158</ele>
		<time>2026-04-16T13:15:54Z</time>
	</wpt>
	<wpt lat="59.85248811654704" lon="17.633675341631815">
		<ele>32.08252887800336</ele>
		<time>2026-04-16T13:16:00Z</time>
	</wpt>
	<wpt lat="59.85271569426164" lon="17.63353294394672">
		<ele>32.203690198250115</ele>
		<time>2026-04-16T13:16:04Z</time>
	</wpt>
	<wpt lat="59.852975447020256" lon="17.63332434302737">
		<ele>32.03850601520389</ele>
		<time>2026-04-16T13:16:08Z</time>
	</wpt>
	<wpt lat="59.85324463471314" lon="17.633122054626437">
		<ele>31.89755111373961</ele>
		<time>2026-04-16T13:16:12Z</time>
	</wpt>
	<wpt lat="59.85351209471366" lon="17.63290767022477">
		<ele>31.703037790954113</ele>
		<time>2026-04-16T13:16:16Z</time>
	</wpt>
	<wpt lat="59.85379052787236" lon="17.63270809172354">
		<ele>31.276983249001205</ele>
		<time>2026-04-16T13:16:20Z</time>
	</wpt>
	<wpt lat="59.854071623882525" lon="17.632612903414724">
		<ele>30.59647788759321</ele>
		<time>2026-04-16T13:16:24Z</time>
	</wpt>
	<wpt lat="59.85433977139775" lon="17.632560118796512">
		<ele>29.40975365228951</ele>
		<time>2026-04-16T13:16:28Z</time>
	</wpt>
	<wpt lat="59.854571517346216" lon="17.632487902272043">
		<ele>28.49332537408918</ele>
		<time>2026-04-16T13:16:33Z</time>
	</wpt>
	<wpt lat="59.854800334245006" lon="17.63238518062757">
		<ele>28.195113046094775</ele>
		<time>2026-04-16T13:16:49Z</time>
	</wpt>
	<wpt lat="59.855021141438385" lon="17.632296767157406">
		<ele>27.897056163288653</ele>
		<time>2026-04-16T13:17:02Z</time>
	</wpt>
	<wpt lat="59.8552737005128" lon="17.632198110676214">
		<ele>27.058902212418616</ele>
		<time>2026-04-16T13:17:28Z</time>
	</wpt>
	<wpt lat="59.855484178554605" lon="17.631983123697424">
		<ele>26.316690742969513</ele>
		<time>2026-04-16T13:17:34Z</time>
	</wpt>
	<wpt lat="59.85567570854774" lon="17.63167347645767">
		<ele>26.846026711165905</ele>
		<time>2026-04-16T13:17:41Z</time>
	</wpt>
	<wpt lat="59.85586956978965" lon="17.63132443761606">
		<ele>27.4758743904531</ele>
		<time>2026-04-16T13:17:47Z</time>
	</wpt>
	<wpt lat="59.856068821550956" lon="17.63097632377853">
		<ele>27.7008013734594</ele>
		<time>2026-04-16T13:17:52Z</time>
	</wpt>
	<wpt lat="59.85625329401767" lon="17.63065824493051">
		<ele>27.48007245734334</ele>
		<time>2026-04-16T13:17:57Z</time>
	</wpt>
	<wpt lat="59.85645013408969" lon="17.63030623503011">
		<ele>26.85640133358538</ele>
		<time>2026-04-16T13:18:03Z</time>
	</wpt>
	<wpt lat="59.85663480149907" lon="17.62994245920231">
		<ele>26.920947804115713</ele>
		<time>2026-04-16T13:18:08Z</time>
	</wpt>
	<wpt lat="59.85682181906057" lon="17.629650437949405">
		<ele>26.97324958909303</ele>
		<time>2026-04-16T13:18:16Z</time>
	</wpt>
	<wpt lat="59.85700267668928" lon="17.629330198196598">
		<ele>26.4150477591902</ele>
		<time>2026-04-16T13:18:22Z</time>
	</wpt>
	<wpt lat="59.85721615022326" lon="17.62896696555891">
		<ele>26.496392336674035</ele>
		<time>2026-04-16T13:18:27Z</time>
	</wpt>
	<wpt lat="59.85740743605637" lon="17.628629394988906">
		<ele>25.98694039322436</ele>
		<time>2026-04-16T13:18:32Z</time>
	</wpt>
	<wpt lat="59.857585266275294" lon="17.62834520987796">
		<ele>25.257003038190305</ele>
		<time>2026-04-16T13:18:43Z</time>
	</wpt>
	<wpt lat="59.857797302699375" lon="17.628540456208768">
		<ele>24.88510490115732</ele>
		<time>2026-04-16T13:18:51Z</time>
	</wpt>
	<wpt lat="59.85797589791916" lon="17.62890098548029">
		<ele>24.602229702286422</ele>
		<time>2026-04-16T13:18:56Z</time>
	</wpt>
	<wpt lat="59.85813657118849" lon="17.62923342465709">
		<ele>24.108522536233068</ele>
		<time>2026-04-16T13:19:01Z</time>
	</wpt>
	<wpt lat="59.8583151732894" lon="17.629594656049026">
		<ele>22.521855991333723</ele>
		<time>2026-04-16T13:19:07Z</time>
	</wpt>
	<wpt lat="59.85847078904377" lon="17.629924800206524">
		<ele>20.28700514882803</ele>
		<time>2026-04-16T13:19:12Z</time>
	</wpt>
	<wpt lat="59.85862905651543" lon="17.63028103377207">
		<ele>18.326427939347923</ele>
		<time>2026-04-16T13:19:17Z</time>
	</wpt>
	<wpt lat="59.85880213267502" lon="17.630662091500394">
		<ele>16.14670669287443</ele>
		<time>2026-04-16T13:19:22Z</time>
	</wpt>
	<wpt lat="59.85897074489706" lon="17.631021360098494">
		<ele>14.96620328631252</ele>
		<time>2026-04-16T13:19:27Z</time>
	</wpt>
	<wpt lat="59.859101645010306" lon="17.631398084763052">
		<ele>15.261359645053744</ele>
		<time>2026-04-16T13:19:43Z</time>
	</wpt>
	<wpt lat="59.85927477121877" lon="17.631783459372276">
		<ele>14.226545885205269</ele>
		<time>2026-04-16T13:20:20Z</time>
	</wpt>
	<wpt lat="59.85943278950892" lon="17.632183323689492">
		<ele>13.751141290180385</ele>
		<time>2026-04-16T13:20:25Z</time>
	</wpt>
	<wpt lat="59.859624171611415" lon="17.6325638455162">
		<ele>13.128964745439589</ele>
		<time>2026-04-16T13:20:30Z</time>
	</wpt>
	<wpt lat="59.85980593225326" lon="17.632936369629203">
		<ele>13.905528640374541</ele>
		<time>2026-04-16T13:20:36Z</time>
	</wpt>
	<wpt lat="59.859976761464075" lon="17.63329010793729">
		<ele>13.816907921805978</ele>
		<time>2026-04-16T13:20:41Z</time>
	</wpt>
	<wpt lat="59.860128705534166" lon="17.63362805790407">
		<ele>12.936994739808142</ele>
		<time>2026-04-16T13:20:47Z</time>
	</wpt>
	<wpt lat="59.86029661660754" lon="17.63403722258571">
		<ele>13.160108803771436</ele>
		<time>2026-04-16T13:20:55Z</time>
	</wpt>
	<wpt lat="59.86047345413244" lon="17.63441365068277">
		<ele>14.627021653577685</ele>
		<time>2026-04-16T13:21:00Z</time>
	</wpt>
	<wpt lat="59.860627477251164" lon="17.63475777889018">
		<ele>16.005774757824838</ele>
		<time>2026-04-16T13:21:05Z</time>
	</wpt>
	<wpt lat="59.8607822228798" lon="17.63511087190428">
		<ele>13.737311527132988</ele>
		<time>2026-04-16T13:21:28Z</time>
	</wpt>
	<wpt lat="59.8609492570226" lon="17.63552046823807">
		<ele>13.937968250364065</ele>
		<time>2026-04-16T13:21:34Z</time>
	</wpt>
	<wpt lat="59.861099322180955" lon="17.635857723206673">
		<ele>14.024994997307658</ele>
		<time>2026-04-16T13:21:38Z</time>
	</wpt>
	<wpt lat="59.86125939494901" lon="17.636214259614356">
		<ele>14.149579172953963</ele>
		<time>2026-04-16T13:21:43Z</time>
	</wpt>
	<wpt lat="59.8614228100513" lon="17.63659726172392">
		<ele>14.435927394777536</ele>
		<time>2026-04-16T13:21:49Z</time>
	</wpt>
	<wpt lat="59.86159585231493" lon="17.636953393014643">
		<ele>14.257566169835627</ele>
		<time>2026-04-16T13:21:55Z</time>
	</wpt>
	<wpt lat="59.861748222211254" lon="17.63730458333624">
		<ele>15.059937107376754</ele>
		<time>2026-04-16T13:22:30Z</time>
	</wpt>
	<wpt lat="59.861929392523" lon="17.637610841395688">
		<ele>14.477632923983037</ele>
		<time>2026-04-16T13:22:40Z</time>
	</wpt>
	<wpt lat="59.86175381462411" lon="17.638040397649334">
		<ele>13.408818270079792</ele>
		<time>2026-04-16T13:22:46Z</time>
	</wpt>
	<wpt lat="59.86152796537669" lon="17.638419847919753">
		<ele>12.724285249598324</ele>
		<time>2026-04-16T13:22:50Z</time>
	</wpt>
	<wpt lat="59.86134784568846" lon="17.63873114292554">
		<ele>12.341946815140545</ele>
		<time>2026-04-16T13:22:53Z</time>
	</wpt>
	<wpt lat="59.86118243809813" lon="17.639036259852173">
		<ele>12.33096147980541</ele>
		<time>2026-04-16T13:22:56Z</time>
	</wpt>
	<wpt lat="59.86098517664271" lon="17.63937990854107">
		<ele>11.898038349114358</ele>
		<time>2026-04-16T13:23:00Z</time>
	</wpt>
	<wpt lat="59.86079528324116" lon="17.639700259232846">
		<ele>13.130180574953556</ele>
		<time>2026-04-16T13:23:28Z</time>
	</wpt>
	<wpt lat="59.860606785343165" lon="17.640017880291495">
		<ele>13.49255208671093</ele>
		<time>2026-04-16T13:23:33Z</time>
	</wpt>
	<wpt lat="59.860431148951704" lon="17.6403587426138">
		<ele>13.550384291447699</ele>
		<time>2026-04-16T13:23:37Z</time>
	</wpt>
	<wpt lat="59.86022780934852" lon="17.640776026921685">
		<ele>13.496409638784826</ele>
		<time>2026-04-16T13:23:41Z</time>
	</wpt>
	<wpt lat="59.86006283075712" lon="17.641126706949102">
		<ele>13.011999856680632</ele>
		<time>2026-04-16T13:23:46Z</time>
	</wpt>
	<wpt lat="59.859893993826574" lon="17.641487335099193">
		<ele>13.803446165286005</ele>
		<time>2026-04-16T13:24:49Z</time>
	</wpt>
	<wpt lat="59.859859906285436" lon="17.641935779398747">
		<ele>13.176169550046325</ele>
		<time>2026-04-16T13:24:54Z</time>
	</wpt>
	<wpt lat="59.86005679630716" lon="17.642396374926296">
		<ele>11.707482384517789</ele>
		<time>2026-04-16T13:24:58Z</time>
	</wpt>
	<wpt lat="59.860249354165205" lon="17.642797324056385">
		<ele>10.054102226160467</ele>
		<time>2026-04-16T13:25:01Z</time>
	</wpt>
	<wpt lat="59.86045872666116" lon="17.643214066053275">
		<ele>8.348439523018897</ele>
		<time>2026-04-16T13:25:04Z</time>
	</wpt>
	<wpt lat="59.86065063518942" lon="17.643647131275735">
		<ele>8.897872166708112</ele>
		<time>2026-04-16T13:25:07Z</time>
	</wpt>
	<wpt lat="59.86083184341497" lon="17.644028815651513">
		<ele>10.688261376693845</ele>
		<time>2026-04-16T13:25:10Z</time>
	</wpt>
	<wpt lat="59.86100706275501" lon="17.644383254145158">
		<ele>12.441540454514325</ele>
		<time>2026-04-16T13:25:56Z</time>
	</wpt>
	<wpt lat="59.861177509031876" lon="17.644778199275972">
		<ele>11.703573320060968</ele>
		<time>2026-04-16T13:26:02Z</time>
	</wpt>
	<wpt lat="59.861360191701664" lon="17.64521229346934">
		<ele>11.953526463359594</ele>
		<time>2026-04-16T13:26:06Z</time>
	</wpt>
	<wpt lat="59.86151855245604" lon="17.64555703544466">
		<ele>12.497437696903944</ele>
		<time>2026-04-16T13:26:11Z</time>
	</wpt>
	<wpt lat="59.86168223831293" lon="17.64601682222051">
		<ele>12.905729751102626</ele>
		<time>2026-04-16T13:26:38Z</time>
	</wpt>
	<wpt lat="59.86186909821076" lon="17.646404497684404">
		<ele>13.689146919175982</ele>
		<time>2026-04-16T13:26:42Z</time>
	</wpt>
	<wpt lat="59.86206304950643" lon="17.646824173370643">
		<ele>14.231868166476488</ele>
		<time>2026-04-16T13:26:46Z</time>
	</wpt>
	<wpt lat="59.86222603587729" lon="17.64715052198206">
		<ele>14.38462738133967</ele>
		<time>2026-04-16T13:26:49Z</time>
	</wpt>
	<wpt lat="59.862414888416666" lon="17.647426808815275">
		<ele>14.26778247114271</ele>
		<time>2026-04-16T13:26:52Z</time>
	</wpt>
	<wpt lat="59.86259541889435" lon="17.647790478518154">
		<ele>14.639440088532865</ele>
		<time>2026-04-16T13:26:55Z</time>
	</wpt>
	<wpt lat="59.862781974877855" lon="17.64818891080388">
		<ele>14.933990738354623</ele>
		<time>2026-04-16T13:26:58Z</time>
	</wpt>
	<wpt lat="59.862961867397054" lon="17.64856987760137">
		<ele>14.930860985070467</ele>
		<time>2026-04-16T13:27:01Z</time>
	</wpt>
	<wpt lat="59.86315327599505" lon="17.64898726059618">
		<ele>15.060193030163646</ele>
		<time>2026-04-16T13:27:04Z</time>
	</wpt>
	<wpt lat="59.863342200501684" lon="17.649386750055776">
		<ele>15.168842212297022</ele>
		<time>2026-04-16T13:27:07Z</time>
	</wpt>
	<wpt lat="59.86352674325637" lon="17.649781722101405">
		<ele>15.244961437769234</ele>
		<time>2026-04-16T13:27:10Z</time>
	</wpt>
	<wpt lat="59.86370893017675" lon="17.650163461103073">
		<ele>15.364422675222158</ele>
		<time>2026-04-16T13:27:13Z</time>
	</wpt>
	<wpt lat="59.863866967779416" lon="17.650520018368425">
		<ele>15.517724526114762</ele>
		<time>2026-04-16T13:27:16Z</time>
	</wpt>
	<wpt lat="59.86402796020256" lon="17.650884741867625">
		<ele>14.921014135703444</ele>
		<time>2026-04-16T13:27:22Z</time>
	</wpt>
	<wpt lat="59.86421352003963" lon="17.651275205361696">
		<ele>14.893781605176628</ele>
		<time>2026-04-16T13:27:28Z</time>
	</wpt>
	<wpt lat="59.86439877128839" lon="17.65166749187157">
		<ele>14.738372097723186</ele>
		<time>2026-04-16T13:27:32Z</time>
	</wpt>
	<wpt lat="59.864561663826315" lon="17.652024641009465">
		<ele>14.48232330288738</ele>
		<time>2026-04-16T13:27:35Z</time>
	</wpt>
	<wpt lat="59.86473598851376" lon="17.65241921957936">
		<ele>14.26158219575882</ele>
		<time>2026-04-16T13:27:38Z</time>
	</wpt>
	<wpt lat="59.864924632262294" lon="17.652825512437722">
		<ele>14.066317942924798</ele>
		<time>2026-04-16T13:27:41Z</time>
	</wpt>
	<wpt lat="59.86511958235912" lon="17.653252961085737">
		<ele>13.98497671727091</ele>
		<time>2026-04-16T13:27:44Z</time>
	</wpt>
	<wpt lat="59.86532840470509" lon="17.653710995300205">
		<ele>14.032164538279176</ele>
		<time>2026-04-16T13:27:47Z</time>
	</wpt>
	<wpt lat="59.8655216971316" lon="17.654142329840045">
		<ele>13.72714143898338</ele>
		<time>2026-04-16T13:27:50Z</time>
	</wpt>
	<wpt lat="59.865679565682505" lon="17.654487997793503">
		<ele>13.221288583241403</ele>
		<time>2026-04-16T13:27:53Z</time>
	</wpt>
	<wpt lat="59.86583660735182" lon="17.654831947490965">
		<ele>13.153738165274262</ele>
		<time>2026-04-16T13:27:57Z</time>
	</wpt>
	<wpt lat="59.86600815151777" lon="17.65521466468781">
		<ele>13.32643555290997</ele>
		<time>2026-04-16T13:28:00Z</time>
	</wpt>
	<wpt lat="59.866186492066205" lon="17.655611088149744">
		<ele>13.413189789280295</ele>
		<time>2026-04-16T13:28:03Z</time>
	</wpt>
	<wpt lat="59.86637435220445" lon="17.656007338615773">
		<ele>12.696278213523328</ele>
		<time>2026-04-16T13:28:07Z</time>
	</wpt>
	<wpt lat="59.86657761498842" lon="17.65644839777215">
		<ele>12.494149374775589</ele>
		<time>2026-04-16T13:28:12Z</time>
	</wpt>
	<wpt lat="59.866766001782636" lon="17.656865391099966">
		<ele>12.595400598831475</ele>
		<time>2026-04-16T13:28:15Z</time>
	</wpt>
	<wpt lat="59.86695748219913" lon="17.657282120039515">
		<ele>12.585101321339607</ele>
		<time>2026-04-16T13:28:18Z</time>
	</wpt>
	<wpt lat="59.86712494305317" lon="17.657636783574397">
		<ele>12.276811165735126</ele>
		<time>2026-04-16T13:28:21Z</time>
	</wpt>
	<wpt lat="59.8672638904974" lon="17.65798919792391">
		<ele>12.259170693345368</ele>
		<time>2026-04-16T13:28:25Z</time>
	</wpt>
	<wpt lat="59.867440557716364" lon="17.658358576020703">
		<ele>12.418975102715194</ele>
		<time>2026-04-16T13:28:29Z</time>
	</wpt>
	<wpt lat="59.867607531506714" lon="17.65874777333416">
		<ele>12.611125709488988</ele>
		<time>2026-04-16T13:28:34Z</time>
	</wpt>
	<wpt lat="59.86778071915277" lon="17.659095716859422">
		<ele>12.287637097761035</ele>
		<time>2026-04-16T13:29:38Z</time>
	</wpt>
	<wpt lat="59.86793971221718" lon="17.659447458599878">
		<ele>12.549255644902587</ele>
		<time>2026-04-16T13:29:43Z</time>
	</wpt>
	<wpt lat="59.86809548813334" lon="17.659813165021045">
		<ele>12.954186738468707</ele>
		<time>2026-04-16T13:29:47Z</time>
	</wpt>
	<wpt lat="59.8682875915902" lon="17.66022991339531">
		<ele>12.793068716302514</ele>
		<time>2026-04-16T13:29:51Z</time>
	</wpt>
	<wpt lat="59.868471205170856" lon="17.660667594165645">
		<ele>12.405753344297409</ele>
		<time>2026-04-16T13:29:55Z</time>
	</wpt>
	<wpt lat="59.86863822256359" lon="17.66100702584534">
		<ele>12.219912176020443</ele>
		<time>2026-04-16T13:30:01Z</time>
	</wpt>
	<wpt lat="59.86880128960033" lon="17.661371447073453">
		<ele>12.977930488996208</ele>
		<time>2026-04-16T13:30:41Z</time>
	</wpt>
	<wpt lat="59.868693976404465" lon="17.66177864854544">
		<ele>12.643726066686213</ele>
		<time>2026-04-16T13:30:46Z</time>
	</wpt>
	<wpt lat="59.868460208895456" lon="17.66206786095235">
		<ele>12.252115978859365</ele>
		<time>2026-04-16T13:30:54Z</time>
	</wpt>
	<wpt lat="59.868563146547466" lon="17.66253020826769">
		<ele>12.49631770607084</ele>
		<time>2026-04-16T13:30:59Z</time>
	</wpt>
	<wpt lat="59.86873249578615" lon="17.66291929293825">
		<ele>12.399839702062309</ele>
		<time>2026-04-16T13:31:03Z</time>
	</wpt>
	<wpt lat="59.868913895236965" lon="17.663316283237837">
		<ele>12.867294839583337</ele>
		<time>2026-04-16T13:31:07Z</time>
	</wpt>
	<wpt lat="59.86906952476414" lon="17.663649203017457">
		<ele>13.58670829422772</ele>
		<time>2026-04-16T13:31:11Z</time>
	</wpt>
	<wpt lat="59.869247808471" lon="17.664036866547033">
		<ele>14.675520523451269</ele>
		<time>2026-04-16T13:31:15Z</time>
	</wpt>
	<wpt lat="59.86943327397999" lon="17.664448279958414">
		<ele>14.029123606160283</ele>
		<time>2026-04-16T13:31:19Z</time>
	</wpt>
	<wpt lat="59.86963107144888" lon="17.664880309035613">
		<ele>14.48812472447753</ele>
		<time>2026-04-16T13:31:23Z</time>
	</wpt>
	<wpt lat="59.869816215572975" lon="17.665273492612044">
		<ele>14.757516918703914</ele>
		<time>2026-04-16T13:31:27Z</time>
	</wpt>
	<wpt lat="59.86998386212656" lon="17.665623526220486">
		<ele>15.040457810275257</ele>
		<time>2026-04-16T13:31:31Z</time>
	</wpt>
	<wpt lat="59.87016169058244" lon="17.66595811132064">
		<ele>15.901754812337458</ele>
		<time>2026-04-16T13:31:35Z</time>
	</wpt>
	<wpt lat="59.87033573973921" lon="17.66636994090806">
		<ele>16.30171889718622</ele>
		<time>2026-04-16T13:31:39Z</time>
	</wpt>
	<wpt lat="59.870525639107" lon="17.66678987407472">
		<ele>16.831807264126837</ele>
		<time>2026-04-16T13:31:43Z</time>
	</wpt>
	<wpt lat="59.870726833940466" lon="17.6671968960343">
		<ele>18.07023610919714</ele>
		<time>2026-04-16T13:31:47Z</time>
	</wpt>
	<wpt lat="59.87087557138967" lon="17.667544181349733">
		<ele>18.429539530538023</ele>
		<time>2026-04-16T13:31:52Z</time>
	</wpt>
	<wpt lat="59.87070136065918" lon="17.667934494799194">
		<ele>18.142349074594676</ele>
		<time>2026-04-16T13:31:59Z</time>
	</wpt>
	<wpt lat="59.870526991380885" lon="17.66824459120355">
		<ele>17.99698426295072</ele>
		<time>2026-04-16T13:32:05Z</time>
	</wpt>
	<wpt lat="59.870332473888276" lon="17.66859848650845">
		<ele>17.861154533922672</ele>
		<time>2026-04-16T13:32:11Z</time>
	</wpt>
	<wpt lat="59.87011729251884" lon="17.66842007294015">
		<ele>17.875533053651452</ele>
		<time>2026-04-16T13:33:57Z</time>
	</wpt>
	<wpt lat="59.86981173652864" lon="17.669424052999922">
		<ele>17.816271820105612</ele>
		<time>2026-04-16T13:34:52Z</time>
	</wpt>
	<wpt lat="59.87012122672913" lon="17.66865099629136">
		<ele>18.3315782379359</ele>
		<time>2026-04-16T13:35:01Z</time>
	</wpt>
	<wpt lat="59.869887818856554" lon="17.668609521827833">
		<ele>17.778891496360302</ele>
		<time>2026-04-16T13:37:48Z</time>
	</wpt>
	<trk>
		<trkseg>
			<trkpt lat="59.84294474685096" lon="17.626765266091176">
				<ele>42.90763854980469</ele>
				<time>2026-04-16T10:32:37Z</time>
			</trkpt>
			<trkpt lat="59.842684050619475" lon="17.62674114696387">
				<ele>45.89757487922907</ele>
				<time>2026-04-16T10:33:01Z</time>
			</trkpt>
			<trkpt lat="59.84260684285548" lon="17.627182358721804">
				<ele>44.90606463048607</ele>
				<time>2026-04-16T10:33:22Z</time>
			</trkpt>
			<trkpt lat="59.842380399199065" lon="17.627217437524834">
				<ele>45.03658676985651</ele>
				<time>2026-04-16T10:33:44Z</time>
			</trkpt>
			<trkpt lat="59.84217857366819" lon="17.626974584490657">
				<ele>50.66882035508752</ele>
				<time>2026-04-16T10:34:06Z</time>
			</trkpt>
			<trkpt lat="59.84193648267435" lon="17.62698285262949">
				<ele>53.04352595284581</ele>
				<time>2026-04-16T10:34:31Z</time>
			</trkpt>
			<trkpt lat="59.84172813446717" lon="17.62715859050653">
				<ele>52.06739193201065</ele>
				<time>2026-04-16T10:34:52Z</time>
			</trkpt>
			<trkpt lat="59.84150948387175" lon="17.627272995196336">
				<ele>51.637258551083505</ele>
				<time>2026-04-16T10:35:13Z</time>
			</trkpt>
			<trkpt lat="59.841317225458106" lon="17.62751415436059">
				<ele>52.76430412940681</ele>
				<time>2026-04-16T10:35:29Z</time>
			</trkpt>
			<trkpt lat="59.84110700844724" lon="17.627766714138797">
				<ele>53.15314820408821</ele>
				<time>2026-04-16T10:35:50Z</time>
			</trkpt>
			<trkpt lat="59.84092854523635" lon="17.628062741922868">
				<ele>52.63256007805467</ele>
				<time>2026-04-16T10:36:09Z</time>
			</trkpt>
			<trkpt lat="59.84072549496939" lon="17.62831419072491">
				<ele>54.378513551317155</ele>
				<time>2026-04-16T10:36:29Z</time>
			</trkpt>
			<trkpt lat="59.840564005363305" lon="17.628635139958234">
				<ele>53.77838471997529</ele>
				<time>2026-04-16T10:36:47Z</time>
			</trkpt>
			<trkpt lat="59.840380305039346" lon="17.628915108136148">
				<ele>53.53302325773984</ele>
				<time>2026-04-16T10:37:06Z</time>
			</trkpt>
			<trkpt lat="59.84017182827381" lon="17.628731802317972">
				<ele>56.06683475803584</ele>
				<time>2026-04-16T10:37:22Z</time>
			</trkpt>
			<trkpt lat="59.83997490338001" lon="17.628517233464514">
				<ele>56.226353329606354</ele>
				<time>2026-04-16T10:37:40Z</time>
			</trkpt>
			<trkpt lat="59.8397518998508" lon="17.628660479975714">
				<ele>55.43349892273545</ele>
				<time>2026-04-16T10:38:04Z</time>
			</trkpt>
			<trkpt lat="59.83953041641447" lon="17.62877791239131">
				<ele>55.98263901937753</ele>
				<time>2026-04-16T10:38:22Z</time>
			</trkpt>
			<trkpt lat="59.839367632681046" lon="17.629100637396963">
				<ele>53.46631099656224</ele>
				<time>2026-04-16T10:39:18Z</time>
			</trkpt>
			<trkpt lat="59.839220128000925" lon="17.629444389710468">
				<ele>53.7302417634055</ele>
				<time>2026-04-16T10:39:34Z</time>
			</trkpt>
			<trkpt lat="59.83907224008936" lon="17.62979953824423">
				<ele>53.61087047122419</ele>
				<time>2026-04-16T10:39:54Z</time>
			</trkpt>
			<trkpt lat="59.838864493451815" lon="17.630007564128903">
				<ele>51.89672389347106</ele>
				<time>2026-04-16T10:40:17Z</time>
			</trkpt>
			<trkpt lat="59.838633303611175" lon="17.63009992637349">
				<ele>54.192363393493</ele>
				<time>2026-04-16T10:40:40Z</time>
			</trkpt>
			<trkpt lat="59.83858146052827" lon="17.629659982939984">
				<ele>52.610286890529096</ele>
				<time>2026-04-16T10:41:06Z</time>
			</trkpt>
			<trkpt lat="59.8386901640927" lon="17.629250879767042">
				<ele>54.41214431915432</ele>
				<time>2026-04-16T10:41:41Z</time>
			</trkpt>
			<trkpt lat="59.83880751159368" lon="17.628843078579326">
				<ele>54.72196158673614</ele>
				<time>2026-04-16T10:42:11Z</time>
			</trkpt>
			<trkpt lat="59.838887938237455" lon="17.62840133831211">
				<ele>56.88693433161825</ele>
				<time>2026-04-16T10:42:30Z</time>
			</trkpt>
			<trkpt lat="59.838821083459294" lon="17.627959017762745">
				<ele>56.447747628204525</ele>
				<time>2026-04-16T10:42:54Z</time>
			</trkpt>
			<trkpt lat="59.838801597648384" lon="17.627504468594495">
				<ele>54.413246497511864</ele>
				<time>2026-04-16T10:43:14Z</time>
			</trkpt>
			<trkpt lat="59.838887097208165" lon="17.627091585424594">
				<ele>54.04287588223815</ele>
				<time>2026-04-16T10:43:31Z</time>
			</trkpt>
			<trkpt lat="59.839095944076035" lon="17.62691674041919">
				<ele>55.471133581362665</ele>
				<time>2026-04-16T10:43:52Z</time>
			</trkpt>
			<trkpt lat="59.83931248952081" lon="17.6270675480017">
				<ele>55.52495757397264</ele>
				<time>2026-04-16T10:44:10Z</time>
			</trkpt>
			<trkpt lat="59.83952472542429" lon="17.626889529024787">
				<ele>55.06583686731756</ele>
				<time>2026-04-16T10:44:32Z</time>
			</trkpt>
			<trkpt lat="59.83972992096387" lon="17.62708904036161">
				<ele>54.85349313728511</ele>
				<time>2026-04-16T10:44:59Z</time>
			</trkpt>
			<trkpt lat="59.83994677128408" lon="17.627268608099296">
				<ele>55.9301474057138</ele>
				<time>2026-04-16T10:45:21Z</time>
			</trkpt>
			<trkpt lat="59.840110406868575" lon="17.626932606659466">
				<ele>54.931834764778614</ele>
				<time>2026-04-16T10:46:10Z</time>
			</trkpt>
			<trkpt lat="59.84027908593837" lon="17.626632489109667">
				<ele>53.475128644146025</ele>
				<time>2026-04-16T10:46:32Z</time>
			</trkpt>
			<trkpt lat="59.8404787976364" lon="17.626395076751848">
				<ele>52.888415426015854</ele>
				<time>2026-04-16T10:46:55Z</time>
			</trkpt>
			<trkpt lat="59.84070342712656" lon="17.626294351802535">
				<ele>53.846326565369964</ele>
				<time>2026-04-16T10:47:16Z</time>
			</trkpt>
			<trkpt lat="59.84092260933788" lon="17.626146108947236">
				<ele>54.55937854479998</ele>
				<time>2026-04-16T10:47:39Z</time>
			</trkpt>
			<trkpt lat="59.84112805549625" lon="17.626358659628487">
				<ele>57.06298366189003</ele>
				<time>2026-04-16T10:47:57Z</time>
			</trkpt>
			<trkpt lat="59.841349378811906" lon="17.626443719432164">
				<ele>55.451042040251195</ele>
				<time>2026-04-16T10:48:16Z</time>
			</trkpt>
			<trkpt lat="59.84157765806778" lon="17.62646605806891">
				<ele>53.69337599910796</ele>
				<time>2026-04-16T10:48:37Z</time>
			</trkpt>
			<trkpt lat="59.84179387492056" lon="17.626343412996224">
				<ele>52.52938046399504</ele>
				<time>2026-04-16T10:48:55Z</time>
			</trkpt>
			<trkpt lat="59.84202021329552" lon="17.62626310272941">
				<ele>52.90490242559463</ele>
				<time>2026-04-16T10:49:16Z</time>
			</trkpt>
			<trkpt lat="59.842246562339795" lon="17.626256414424084">
				<ele>52.27157688327134</ele>
				<time>2026-04-16T10:49:37Z</time>
			</trkpt>
			<trkpt lat="59.842469933600455" lon="17.626384710670752">
				<ele>51.491395585238934</ele>
				<time>2026-04-16T10:49:59Z</time>
			</trkpt>
			<trkpt lat="59.842620438960445" lon="17.62672857008758">
				<ele>48.47180439066142</ele>
				<time>2026-04-16T10:50:20Z</time>
			</trkpt>
			<trkpt lat="59.84278239398135" lon="17.627057030134253">
				<ele>43.80789372045547</ele>
				<time>2026-04-16T10:50:44Z</time>
			</trkpt>
			<trkpt lat="59.8429912810518" lon="17.626852388037328">
				<ele>41.33260249439627</ele>
				<time>2026-04-16T10:51:07Z</time>
			</trkpt>
			<trkpt lat="59.84314021681277" lon="17.62718624007782">
				<ele>40.21786099858582</ele>
				<time>2026-04-16T10:51:29Z</time>
			</trkpt>
			<trkpt lat="59.84336268535179" lon="17.627087040501856">
				<ele>35.26735187321901</ele>
				<time>2026-04-16T10:52:02Z</time>
			</trkpt>
			<trkpt lat="59.84319079835483" lon="17.62678858581116">
				<ele>40.32835277635604</ele>
				<time>2026-04-16T10:54:32Z</time>
			</trkpt>
			<trkpt lat="59.84340611527495" lon="17.626931488730225">
				<ele>37.07045655325055</ele>
				<time>2026-04-16T11:08:06Z</time>
			</trkpt>
			<trkpt lat="59.84357648093915" lon="17.627239000107657">
				<ele>35.292873905040324</ele>
				<time>2026-04-16T11:08:23Z</time>
			</trkpt>
			<trkpt lat="59.84379681098339" lon="17.62707960563296">
				<ele>32.01104907412082</ele>
				<time>2026-04-16T11:08:58Z</time>
			</trkpt>
			<trkpt lat="59.84394433850905" lon="17.62674257737138">
				<ele>31.647703665308654</ele>
				<time>2026-04-16T11:09:15Z</time>
			</trkpt>
			<trkpt lat="59.844112294913806" lon="17.626404784824757">
				<ele>32.202776058577</ele>
				<time>2026-04-16T11:09:32Z</time>
			</trkpt>
			<trkpt lat="59.84434485744519" lon="17.626393578288102">
				<ele>31.735416187904775</ele>
				<time>2026-04-16T11:09:52Z</time>
			</trkpt>
			<trkpt lat="59.84448104948256" lon="17.626758407537263">
				<ele>30.044831689447165</ele>
				<time>2026-04-16T11:10:10Z</time>
			</trkpt>
			<trkpt lat="59.84470193014337" lon="17.626876336804774">
				<ele>29.083440515212715</ele>
				<time>2026-04-16T11:10:30Z</time>
			</trkpt>
			<trkpt lat="59.844884808538126" lon="17.626577481802535">
				<ele>28.70693598408252</ele>
				<time>2026-04-16T11:10:47Z</time>
			</trkpt>
			<trkpt lat="59.84508478240155" lon="17.62634914890104">
				<ele>28.106246944516897</ele>
				<time>2026-04-16T11:11:05Z</time>
			</trkpt>
			<trkpt lat="59.845315505871554" lon="17.626406216031363">
				<ele>29.13067151978612</ele>
				<time>2026-04-16T11:11:23Z</time>
			</trkpt>
			<trkpt lat="59.84554435215738" lon="17.626460488218672">
				<ele>27.416440526023507</ele>
				<time>2026-04-16T11:11:41Z</time>
			</trkpt>
			<trkpt lat="59.845749648928816" lon="17.62626653593113">
				<ele>25.9030508575961</ele>
				<time>2026-04-16T11:11:59Z</time>
			</trkpt>
			<trkpt lat="59.84597269521627" lon="17.626368207664633">
				<ele>27.98605177551508</ele>
				<time>2026-04-16T11:12:15Z</time>
			</trkpt>
			<trkpt lat="59.84620125888118" lon="17.626285775375955">
				<ele>28.13303904235363</ele>
				<time>2026-04-16T11:12:33Z</time>
			</trkpt>
			<trkpt lat="59.84641732749122" lon="17.626427207534903">
				<ele>28.573550491593778</ele>
				<time>2026-04-16T11:12:53Z</time>
			</trkpt>
			<trkpt lat="59.84658568279972" lon="17.626735605777405">
				<ele>27.14106303360313</ele>
				<time>2026-04-16T11:13:11Z</time>
			</trkpt>
			<trkpt lat="59.846766394181856" lon="17.627024550373093">
				<ele>26.663525745272636</ele>
				<time>2026-04-16T11:13:27Z</time>
			</trkpt>
			<trkpt lat="59.84695373051535" lon="17.627285337266464">
				<ele>28.189776997081935</ele>
				<time>2026-04-16T11:13:44Z</time>
			</trkpt>
			<trkpt lat="59.84713176121614" lon="17.627597126633464">
				<ele>26.513180227018893</ele>
				<time>2026-04-16T11:14:02Z</time>
			</trkpt>
			<trkpt lat="59.84730095755381" lon="17.627920699789303">
				<ele>25.80297592189163</ele>
				<time>2026-04-16T11:14:21Z</time>
			</trkpt>
			<trkpt lat="59.847473940309875" lon="17.62823164284872">
				<ele>25.285840707831085</ele>
				<time>2026-04-16T11:14:38Z</time>
			</trkpt>
			<trkpt lat="59.84764279956582" lon="17.62853188373854">
				<ele>25.13086672965437</ele>
				<time>2026-04-16T11:14:55Z</time>
			</trkpt>
			<trkpt lat="59.847817955726924" lon="17.628844315015396">
				<ele>25.316092788241804</ele>
				<time>2026-04-16T11:15:12Z</time>
			</trkpt>
			<trkpt lat="59.84802065790235" lon="17.629052684418514">
				<ele>25.86085904482752</ele>
				<time>2026-04-16T11:15:28Z</time>
			</trkpt>
			<trkpt lat="59.848222867243635" lon="17.628856176124245">
				<ele>24.289907773956656</ele>
				<time>2026-04-16T11:15:43Z</time>
			</trkpt>
			<trkpt lat="59.84842063512386" lon="17.629071446918434">
				<ele>24.370015795342624</ele>
				<time>2026-04-16T11:16:03Z</time>
			</trkpt>
			<trkpt lat="59.84848695898367" lon="17.62950697528542">
				<ele>25.800630087032914</ele>
				<time>2026-04-16T11:16:29Z</time>
			</trkpt>
			<trkpt lat="59.84862670912406" lon="17.62905317254443">
				<ele>25.758784156292677</ele>
				<time>2026-04-16T11:17:08Z</time>
			</trkpt>
			<trkpt lat="59.84852742085745" lon="17.62950719969412">
				<ele>25.82156677544117</ele>
				<time>2026-04-16T11:54:55Z</time>
			</trkpt>
			<trkpt lat="59.848268620800546" lon="17.6296891852017">
				<ele>26.11414756346494</ele>
				<time>2026-04-16T11:56:30Z</time>
			</trkpt>
			<trkpt lat="59.84820758230568" lon="17.62973587344612">
				<ele>25.840048232115805</ele>
				<time>2026-04-16T11:59:05Z</time>
			</trkpt>
			<trkpt lat="59.84837515539744" lon="17.629340201536827">
				<ele>25.62088650930673</ele>
				<time>2026-04-16T12:01:48Z</time>
			</trkpt>
			<trkpt lat="59.84856637017744" lon="17.629170944157927">
				<ele>26.613761433400214</ele>
				<time>2026-04-16T12:09:43Z</time>
			</trkpt>
			<trkpt lat="59.8483295659599" lon="17.629099412797057">
				<ele>25.876143063418567</ele>
				<time>2026-04-16T12:56:44Z</time>
			</trkpt>
			<trkpt lat="59.84818959160682" lon="17.628745183692807">
				<ele>24.416940523311496</ele>
				<time>2026-04-16T12:57:31Z</time>
			</trkpt>
			<trkpt lat="59.847977299322274" lon="17.628931296612645">
				<ele>24.951702192425728</ele>
				<time>2026-04-16T12:57:51Z</time>
			</trkpt>
			<trkpt lat="59.84777130075379" lon="17.628751547841954">
				<ele>25.655701893381774</ele>
				<time>2026-04-16T12:58:11Z</time>
			</trkpt>
			<trkpt lat="59.847605125387965" lon="17.628413427273266">
				<ele>25.15572516154498</ele>
				<time>2026-04-16T12:58:32Z</time>
			</trkpt>
			<trkpt lat="59.84742727831167" lon="17.628105547804854">
				<ele>26.900172197259963</ele>
				<time>2026-04-16T12:58:51Z</time>
			</trkpt>
			<trkpt lat="59.84725630815564" lon="17.627781196768073">
				<ele>27.394888049922884</ele>
				<time>2026-04-16T12:59:09Z</time>
			</trkpt>
			<trkpt lat="59.84708762464102" lon="17.627454413939013">
				<ele>28.980523622594774</ele>
				<time>2026-04-16T12:59:29Z</time>
			</trkpt>
			<trkpt lat="59.846901594571214" lon="17.627158126850247">
				<ele>27.670959496870637</ele>
				<time>2026-04-16T12:59:48Z</time>
			</trkpt>
			<trkpt lat="59.846730199666894" lon="17.626864165888367">
				<ele>28.49183106981218</ele>
				<time>2026-04-16T13:00:08Z</time>
			</trkpt>
			<trkpt lat="59.84653907087923" lon="17.62662011651903">
				<ele>28.78274155780673</ele>
				<time>2026-04-16T13:00:27Z</time>
			</trkpt>
			<trkpt lat="59.8463742027725" lon="17.62629645783872">
				<ele>28.769026753492653</ele>
				<time>2026-04-16T13:00:50Z</time>
			</trkpt>
			<trkpt lat="59.84614708227859" lon="17.626267207602698">
				<ele>28.134899613447487</ele>
				<time>2026-04-16T13:01:06Z</time>
			</trkpt>
			<trkpt lat="59.84591522415726" lon="17.62629753324799">
				<ele>28.35477274749428</ele>
				<time>2026-04-16T13:01:27Z</time>
			</trkpt>
			<trkpt lat="59.84568430514101" lon="17.62625054190991">
				<ele>28.000088394619524</ele>
				<time>2026-04-16T13:01:47Z</time>
			</trkpt>
			<trkpt lat="59.84548791923871" lon="17.6264714860134">
				<ele>29.70637876074761</ele>
				<time>2026-04-16T13:02:15Z</time>
			</trkpt>
			<trkpt lat="59.84526600041853" lon="17.626369047147556">
				<ele>30.071725625544786</ele>
				<time>2026-04-16T13:02:41Z</time>
			</trkpt>
			<trkpt lat="59.845035718559416" lon="17.626320359938344">
				<ele>28.84022765327245</ele>
				<time>2026-04-16T13:03:07Z</time>
			</trkpt>
			<trkpt lat="59.84484134158524" lon="17.626565626433493">
				<ele>29.053619250655174</ele>
				<time>2026-04-16T13:03:34Z</time>
			</trkpt>
			<trkpt lat="59.844656647703125" lon="17.62683299006204">
				<ele>28.919666751287878</ele>
				<time>2026-04-16T13:03:55Z</time>
			</trkpt>
			<trkpt lat="59.84444353916485" lon="17.626688480325562">
				<ele>30.9884663624689</ele>
				<time>2026-04-16T13:04:21Z</time>
			</trkpt>
			<trkpt lat="59.84429494531682" lon="17.626336389965235">
				<ele>30.765811557881534</ele>
				<time>2026-04-16T13:04:40Z</time>
			</trkpt>
			<trkpt lat="59.84410210086743" lon="17.62609672970352">
				<ele>31.981034296564758</ele>
				<time>2026-04-16T13:05:05Z</time>
			</trkpt>
			<trkpt lat="59.84397897591343" lon="17.626481044180057">
				<ele>35.13528511952609</ele>
				<time>2026-04-16T13:05:27Z</time>
			</trkpt>
			<trkpt lat="59.8438201434986" lon="17.62679943405429">
				<ele>35.00056100357324</ele>
				<time>2026-04-16T13:06:01Z</time>
			</trkpt>
			<trkpt lat="59.843672134406" lon="17.627137343397315">
				<ele>34.51743120700121</ele>
				<time>2026-04-16T13:06:23Z</time>
			</trkpt>
			<trkpt lat="59.843457093246165" lon="17.626997884503027">
				<ele>34.235670999623835</ele>
				<time>2026-04-16T13:06:47Z</time>
			</trkpt>
			<trkpt lat="59.843248883230515" lon="17.626830807940994">
				<ele>37.50580196361989</ele>
				<time>2026-04-16T13:07:09Z</time>
			</trkpt>
			<trkpt lat="59.84345092704991" lon="17.627031117657406">
				<ele>37.633998590521514</ele>
				<time>2026-04-16T13:11:23Z</time>
			</trkpt>
			<trkpt lat="59.843640616182824" lon="17.6273075520528">
				<ele>34.21831726934761</ele>
				<time>2026-04-16T13:11:39Z</time>
			</trkpt>
			<trkpt lat="59.84382980885738" lon="17.626940305287736">
				<ele>33.91535141412169</ele>
				<time>2026-04-16T13:11:44Z</time>
			</trkpt>
			<trkpt lat="59.84399247047397" lon="17.626583403935115">
				<ele>33.91087489295751</ele>
				<time>2026-04-16T13:11:48Z</time>
			</trkpt>
			<trkpt lat="59.84417412486247" lon="17.626200740321583">
				<ele>33.896354323253036</ele>
				<time>2026-04-16T13:11:53Z</time>
			</trkpt>
			<trkpt lat="59.844333464326645" lon="17.625882484481135">
				<ele>33.2888112263754</ele>
				<time>2026-04-16T13:11:57Z</time>
			</trkpt>
			<trkpt lat="59.844507876471994" lon="17.625547324010512">
				<ele>32.56391587480903</ele>
				<time>2026-04-16T13:12:01Z</time>
			</trkpt>
			<trkpt lat="59.844671680616074" lon="17.62522915033958">
				<ele>31.897304909303784</ele>
				<time>2026-04-16T13:12:05Z</time>
			</trkpt>
			<trkpt lat="59.844907084320795" lon="17.624963237242575">
				<ele>31.52654012851417</ele>
				<time>2026-04-16T13:12:10Z</time>
			</trkpt>
			<trkpt lat="59.84515445471819" lon="17.62483160761663">
				<ele>31.097047111019492</ele>
				<time>2026-04-16T13:12:14Z</time>
			</trkpt>
			<trkpt lat="59.845432367254254" lon="17.624704398264633">
				<ele>30.85526577848941</ele>
				<time>2026-04-16T13:12:18Z</time>
			</trkpt>
			<trkpt lat="59.84572373726306" lon="17.624583448468513">
				<ele>30.712002445943654</ele>
				<time>2026-04-16T13:12:22Z</time>
			</trkpt>
			<trkpt lat="59.84599628212055" lon="17.62446658234834">
				<ele>30.870781854726374</ele>
				<time>2026-04-16T13:12:26Z</time>
			</trkpt>
			<trkpt lat="59.84623740787205" lon="17.624363799623044">
				<ele>30.53585677780211</ele>
				<time>2026-04-16T13:12:30Z</time>
			</trkpt>
			<trkpt lat="59.8464670550799" lon="17.6243144864873">
				<ele>30.18538193963468</ele>
				<time>2026-04-16T13:12:36Z</time>
			</trkpt>
			<trkpt lat="59.846663428897116" lon="17.62455446067644">
				<ele>29.473056274466217</ele>
				<time>2026-04-16T13:12:46Z</time>
			</trkpt>
			<trkpt lat="59.84690492160651" lon="17.62481371085763">
				<ele>28.412540582939982</ele>
				<time>2026-04-16T13:12:51Z</time>
			</trkpt>
			<trkpt lat="59.84711336575879" lon="17.625035658181538">
				<ele>27.83500073477626</ele>
				<time>2026-04-16T13:12:55Z</time>
			</trkpt>
			<trkpt lat="59.84725836279857" lon="17.625424897205406">
				<ele>27.262894588522613</ele>
				<time>2026-04-16T13:12:59Z</time>
			</trkpt>
			<trkpt lat="59.84743032629267" lon="17.62584643013733">
				<ele>26.654308675788343</ele>
				<time>2026-04-16T13:13:03Z</time>
			</trkpt>
			<trkpt lat="59.847630626494606" lon="17.6262428765919">
				<ele>26.351309038698673</ele>
				<time>2026-04-16T13:13:07Z</time>
			</trkpt>
			<trkpt lat="59.8478452575412" lon="17.62655115194896">
				<ele>25.753244878724217</ele>
				<time>2026-04-16T13:13:11Z</time>
			</trkpt>
			<trkpt lat="59.8480775059023" lon="17.62680039362999">
				<ele>25.473002827726305</ele>
				<time>2026-04-16T13:13:15Z</time>
			</trkpt>
			<trkpt lat="59.848319045676135" lon="17.626999165478022">
				<ele>25.390257203951478</ele>
				<time>2026-04-16T13:13:19Z</time>
			</trkpt>
			<trkpt lat="59.84857896819529" lon="17.627109440129978">
				<ele>25.092239236459136</ele>
				<time>2026-04-16T13:13:24Z</time>
			</trkpt>
			<trkpt lat="59.84875950393565" lon="17.627487595097186">
				<ele>26.018099755980074</ele>
				<time>2026-04-16T13:13:30Z</time>
			</trkpt>
			<trkpt lat="59.848918989355845" lon="17.627894674611497">
				<ele>26.41466768924147</ele>
				<time>2026-04-16T13:13:36Z</time>
			</trkpt>
			<trkpt lat="59.849197362797305" lon="17.627917865199674">
				<ele>27.260272880084813</ele>
				<time>2026-04-16T13:13:45Z</time>
			</trkpt>
			<trkpt lat="59.84945321684965" lon="17.627673593178493">
				<ele>26.489020694978535</ele>
				<time>2026-04-16T13:13:49Z</time>
			</trkpt>
			<trkpt lat="59.84966620408508" lon="17.627485458604266">
				<ele>26.3452507276088</ele>
				<time>2026-04-16T13:13:52Z</time>
			</trkpt>
			<trkpt lat="59.84989520202158" lon="17.62728077393835">
				<ele>26.417953627184033</ele>
				<time>2026-04-16T13:13:55Z</time>
			</trkpt>
			<trkpt lat="59.85011714089329" lon="17.627086234999762">
				<ele>26.70387847069651</ele>
				<time>2026-04-16T13:13:58Z</time>
			</trkpt>
			<trkpt lat="59.85032841123683" lon="17.626902616318297">
				<ele>26.553171610459685</ele>
				<time>2026-04-16T13:14:01Z</time>
			</trkpt>
			<trkpt lat="59.850554434139625" lon="17.6267054581448">
				<ele>26.48692051321268</ele>
				<time>2026-04-16T13:14:05Z</time>
			</trkpt>
			<trkpt lat="59.85076504329276" lon="17.626513558571204">
				<ele>26.055686028674245</ele>
				<time>2026-04-16T13:14:11Z</time>
			</trkpt>
			<trkpt lat="59.850999560265535" lon="17.626617577926744">
				<ele>25.695085272192955</ele>
				<time>2026-04-16T13:14:22Z</time>
			</trkpt>
			<trkpt lat="59.85110008093419" lon="17.627099221706878">
				<ele>25.57506168819964</ele>
				<time>2026-04-16T13:14:26Z</time>
			</trkpt>
			<trkpt lat="59.851211671391845" lon="17.62765374908692">
				<ele>25.126427699811757</ele>
				<time>2026-04-16T13:14:30Z</time>
			</trkpt>
			<trkpt lat="59.851300543253046" lon="17.62807295934474">
				<ele>24.8012256314978</ele>
				<time>2026-04-16T13:14:33Z</time>
			</trkpt>
			<trkpt lat="59.85138891307795" lon="17.628485951451356">
				<ele>24.760863796807826</ele>
				<time>2026-04-16T13:14:36Z</time>
			</trkpt>
			<trkpt lat="59.8514971722812" lon="17.629006194217077">
				<ele>24.829975482076406</ele>
				<time>2026-04-16T13:14:40Z</time>
			</trkpt>
			<trkpt lat="59.85159171712695" lon="17.629468029166873">
				<ele>24.9838130986318</ele>
				<time>2026-04-16T13:14:44Z</time>
			</trkpt>
			<trkpt lat="59.851680841270436" lon="17.629891897622">
				<ele>25.350082021206617</ele>
				<time>2026-04-16T13:14:50Z</time>
			</trkpt>
			<trkpt lat="59.851774756765494" lon="17.63035297587793">
				<ele>26.44504413474351</ele>
				<time>2026-04-16T13:15:17Z</time>
			</trkpt>
			<trkpt lat="59.85187841833252" lon="17.630872744250052">
				<ele>27.05022018402815</ele>
				<time>2026-04-16T13:15:22Z</time>
			</trkpt>
			<trkpt lat="59.851987487044575" lon="17.631368781134835">
				<ele>27.208770497702062</ele>
				<time>2026-04-16T13:15:26Z</time>
			</trkpt>
			<trkpt lat="59.852092050446075" lon="17.631852714401557">
				<ele>27.378570349887013</ele>
				<time>2026-04-16T13:15:30Z</time>
			</trkpt>
			<trkpt lat="59.852190853012345" lon="17.632337275170045">
				<ele>27.64266342576593</ele>
				<time>2026-04-16T13:15:35Z</time>
			</trkpt>
			<trkpt lat="59.85227022812952" lon="17.63279857937157">
				<ele>28.61502965260297</ele>
				<time>2026-04-16T13:15:42Z</time>
			</trkpt>
			<trkpt lat="59.8523403063769" lon="17.633280799252997">
				<ele>31.436030698940158</ele>
				<time>2026-04-16T13:15:54Z</time>
			</trkpt>
			<trkpt lat="59.85248811654704" lon="17.633675341631815">
				<ele>32.08252887800336</ele>
				<time>2026-04-16T13:16:00Z</time>
			</trkpt>
			<trkpt lat="59.85271569426164" lon="17.63353294394672">
				<ele>32.203690198250115</ele>
				<time>2026-04-16T13:16:04Z</time>
			</trkpt>
			<trkpt lat="59.852975447020256" lon="17.63332434302737">
				<ele>32.03850601520389</ele>
				<time>2026-04-16T13:16:08Z</time>
			</trkpt>
			<trkpt lat="59.85324463471314" lon="17.633122054626437">
				<ele>31.89755111373961</ele>
				<time>2026-04-16T13:16:12Z</time>
			</trkpt>
			<trkpt lat="59.85351209471366" lon="17.63290767022477">
				<ele>31.703037790954113</ele>
				<time>2026-04-16T13:16:16Z</time>
			</trkpt>
			<trkpt lat="59.85379052787236" lon="17.63270809172354">
				<ele>31.276983249001205</ele>
				<time>2026-04-16T13:16:20Z</time>
			</trkpt>
			<trkpt lat="59.854071623882525" lon="17.632612903414724">
				<ele>30.59647788759321</ele>
				<time>2026-04-16T13:16:24Z</time>
			</trkpt>
			<trkpt lat="59.85433977139775" lon="17.632560118796512">
				<ele>29.40975365228951</ele>
				<time>2026-04-16T13:16:28Z</time>
			</trkpt>
			<trkpt lat="59.854571517346216" lon="17.632487902272043">
				<ele>28.49332537408918</ele>
				<time>2026-04-16T13:16:33Z</time>
			</trkpt>
			<trkpt lat="59.854800334245006" lon="17.63238518062757">
				<ele>28.195113046094775</ele>
				<time>2026-04-16T13:16:49Z</time>
			</trkpt>
			<trkpt lat="59.855021141438385" lon="17.632296767157406">
				<ele>27.897056163288653</ele>
				<time>2026-04-16T13:17:02Z</time>
			</trkpt>
			<trkpt lat="59.8552737005128" lon="17.632198110676214">
				<ele>27.058902212418616</ele>
				<time>2026-04-16T13:17:28Z</time>
			</trkpt>
			<trkpt lat="59.855484178554605" lon="17.631983123697424">
				<ele>26.316690742969513</ele>
				<time>2026-04-16T13:17:34Z</time>
			</trkpt>
			<trkpt lat="59.85567570854774" lon="17.63167347645767">
				<ele>26.846026711165905</ele>
				<time>2026-04-16T13:17:41Z</time>
			</trkpt>
			<trkpt lat="59.85586956978965" lon="17.63132443761606">
				<ele>27.4758743904531</ele>
				<time>2026-04-16T13:17:47Z</time>
			</trkpt>
			<trkpt lat="59.856068821550956" lon="17.63097632377853">
				<ele>27.7008013734594</ele>
				<time>2026-04-16T13:17:52Z</time>
			</trkpt>
			<trkpt lat="59.85625329401767" lon="17.63065824493051">
				<ele>27.48007245734334</ele>
				<time>2026-04-16T13:17:57Z</time>
			</trkpt>
			<trkpt lat="59.85645013408969" lon="17.63030623503011">
				<ele>26.85640133358538</ele>
				<time>2026-04-16T13:18:03Z</time>
			</trkpt>
			<trkpt lat="59.85663480149907" lon="17.62994245920231">
				<ele>26.920947804115713</ele>
				<time>2026-04-16T13:18:08Z</time>
			</trkpt>
			<trkpt lat="59.85682181906057" lon="17.629650437949405">
				<ele>26.97324958909303</ele>
				<time>2026-04-16T13:18:16Z</time>
			</trkpt>
			<trkpt lat="59.85700267668928" lon="17.629330198196598">
				<ele>26.4150477591902</ele>
				<time>2026-04-16T13:18:22Z</time>
			</trkpt>
			<trkpt lat="59.85721615022326" lon="17.62896696555891">
				<ele>26.496392336674035</ele>
				<time>2026-04-16T13:18:27Z</time>
			</trkpt>
			<trkpt lat="59.85740743605637" lon="17.628629394988906">
				<ele>25.98694039322436</ele>
				<time>2026-04-16T13:18:32Z</time>
			</trkpt>
			<trkpt lat="59.857585266275294" lon="17.62834520987796">
				<ele>25.257003038190305</ele>
				<time>2026-04-16T13:18:43Z</time>
			</trkpt>
			<trkpt lat="59.857797302699375" lon="17.628540456208768">
				<ele>24.88510490115732</ele>
				<time>2026-04-16T13:18:51Z</time>
			</trkpt>
			<trkpt lat="59.85797589791916" lon="17.62890098548029">
				<ele>24.602229702286422</ele>
				<time>2026-04-16T13:18:56Z</time>
			</trkpt>
			<trkpt lat="59.85813657118849" lon="17.62923342465709">
				<ele>24.108522536233068</ele>
				<time>2026-04-16T13:19:01Z</time>
			</trkpt>
			<trkpt lat="59.8583151732894" lon="17.629594656049026">
				<ele>22.521855991333723</ele>
				<time>2026-04-16T13:19:07Z</time>
			</trkpt>
			<trkpt lat="59.85847078904377" lon="17.629924800206524">
				<ele>20.28700514882803</ele>
				<time>2026-04-16T13:19:12Z</time>
			</trkpt>
			<trkpt lat="59.85862905651543" lon="17.63028103377207">
				<ele>18.326427939347923</ele>
				<time>2026-04-16T13:19:17Z</time>
			</trkpt>
			<trkpt lat="59.85880213267502" lon="17.630662091500394">
				<ele>16.14670669287443</ele>
				<time>2026-04-16T13:19:22Z</time>
			</trkpt>
			<trkpt lat="59.85897074489706" lon="17.631021360098494">
				<ele>14.96620328631252</ele>
				<time>2026-04-16T13:19:27Z</time>
			</trkpt>
			<trkpt lat="59.859101645010306" lon="17.631398084763052">
				<ele>15.261359645053744</ele>
				<time>2026-04-16T13:19:43Z</time>
			</trkpt>
			<trkpt lat="59.85927477121877" lon="17.631783459372276">
				<ele>14.226545885205269</ele>
				<time>2026-04-16T13:20:20Z</time>
			</trkpt>
			<trkpt lat="59.85943278950892" lon="17.632183323689492">
				<ele>13.751141290180385</ele>
				<time>2026-04-16T13:20:25Z</time>
			</trkpt>
			<trkpt lat="59.859624171611415" lon="17.6325638455162">
				<ele>13.128964745439589</ele>
				<time>2026-04-16T13:20:30Z</time>
			</trkpt>
			<trkpt lat="59.85980593225326" lon="17.632936369629203">
				<ele>13.905528640374541</ele>
				<time>2026-04-16T13:20:36Z</time>
			</trkpt>
			<trkpt lat="59.859976761464075" lon="17.63329010793729">
				<ele>13.816907921805978</ele>
				<time>2026-04-16T13:20:41Z</time>
			</trkpt>
			<trkpt lat="59.860128705534166" lon="17.63362805790407">
				<ele>12.936994739808142</ele>
				<time>2026-04-16T13:20:47Z</time>
			</trkpt>
			<trkpt lat="59.86029661660754" lon="17.63403722258571">
				<ele>13.160108803771436</ele>
				<time>2026-04-16T13:20:55Z</time>
			</trkpt>
			<trkpt lat="59.86047345413244" lon="17.63441365068277">
				<ele>14.627021653577685</ele>
				<time>2026-04-16T13:21:00Z</time>
			</trkpt>
			<trkpt lat="59.860627477251164" lon="17.63475777889018">
				<ele>16.005774757824838</ele>
				<time>2026-04-16T13:21:05Z</time>
			</trkpt>
			<trkpt lat="59.8607822228798" lon="17.63511087190428">
				<ele>13.737311527132988</ele>
				<time>2026-04-16T13:21:28Z</time>
			</trkpt>
			<trkpt lat="59.8609492570226" lon="17.63552046823807">
				<ele>13.937968250364065</ele>
				<time>2026-04-16T13:21:34Z</time>
			</trkpt>
			<trkpt lat="59.861099322180955" lon="17.635857723206673">
				<ele>14.024994997307658</ele>
				<time>2026-04-16T13:21:38Z</time>
			</trkpt>
			<trkpt lat="59.86125939494901" lon="17.636214259614356">
				<ele>14.149579172953963</ele>
				<time>2026-04-16T13:21:43Z</time>
			</trkpt>
			<trkpt lat="59.8614228100513" lon="17.63659726172392">
				<ele>14.435927394777536</ele>
				<time>2026-04-16T13:21:49Z</time>
			</trkpt>
			<trkpt lat="59.86159585231493" lon="17.636953393014643">
				<ele>14.257566169835627</ele>
				<time>2026-04-16T13:21:55Z</time>
			</trkpt>
			<trkpt lat="59.861748222211254" lon="17.63730458333624">
				<ele>15.059937107376754</ele>
				<time>2026-04-16T13:22:30Z</time>
			</trkpt>
			<trkpt lat="59.861929392523" lon="17.637610841395688">
				<ele>14.477632923983037</ele>
				<time>2026-04-16T13:22:40Z</time>
			</trkpt>
			<trkpt lat="59.86175381462411" lon="17.638040397649334">
				<ele>13.408818270079792</ele>
				<time>2026-04-16T13:22:46Z</time>
			</trkpt>
			<trkpt lat="59.86152796537669" lon="17.638419847919753">
				<ele>12.724285249598324</ele>
				<time>2026-04-16T13:22:50Z</time>
			</trkpt>
			<trkpt lat="59.86134784568846" lon="17.63873114292554">
				<ele>12.341946815140545</ele>
				<time>2026-04-16T13:22:53Z</time>
			</trkpt>
			<trkpt lat="59.86118243809813" lon="17.639036259852173">
				<ele>12.33096147980541</ele>
				<time>2026-04-16T13:22:56Z</time>
			</trkpt>
			<trkpt lat="59.86098517664271" lon="17.63937990854107">
				<ele>11.898038349114358</ele>
				<time>2026-04-16T13:23:00Z</time>
			</trkpt>
			<trkpt lat="59.86079528324116" lon="17.639700259232846">
				<ele>13.130180574953556</ele>
				<time>2026-04-16T13:23:28Z</time>
			</trkpt>
			<trkpt lat="59.860606785343165" lon="17.640017880291495">
				<ele>13.49255208671093</ele>
				<time>2026-04-16T13:23:33Z</time>
			</trkpt>
			<trkpt lat="59.860431148951704" lon="17.6403587426138">
				<ele>13.550384291447699</ele>
				<time>2026-04-16T13:23:37Z</time>
			</trkpt>
			<trkpt lat="59.86022780934852" lon="17.640776026921685">
				<ele>13.496409638784826</ele>
				<time>2026-04-16T13:23:41Z</time>
			</trkpt>
			<trkpt lat="59.86006283075712" lon="17.641126706949102">
				<ele>13.011999856680632</ele>
				<time>2026-04-16T13:23:46Z</time>
			</trkpt>
			<trkpt lat="59.859893993826574" lon="17.641487335099193">
				<ele>13.803446165286005</ele>
				<time>2026-04-16T13:24:49Z</time>
			</trkpt>
			<trkpt lat="59.859859906285436" lon="17.641935779398747">
				<ele>13.176169550046325</ele>
				<time>2026-04-16T13:24:54Z</time>
			</trkpt>
			<trkpt lat="59.86005679630716" lon="17.642396374926296">
				<ele>11.707482384517789</ele>
				<time>2026-04-16T13:24:58Z</time>
			</trkpt>
			<trkpt lat="59.860249354165205" lon="17.642797324056385">
				<ele>10.054102226160467</ele>
				<time>2026-04-16T13:25:01Z</time>
			</trkpt>
			<trkpt lat="59.86045872666116" lon="17.643214066053275">
				<ele>8.348439523018897</ele>
				<time>2026-04-16T13:25:04Z</time>
			</trkpt>
			<trkpt lat="59.86065063518942" lon="17.643647131275735">
				<ele>8.897872166708112</ele>
				<time>2026-04-16T13:25:07Z</time>
			</trkpt>
			<trkpt lat="59.86083184341497" lon="17.644028815651513">
				<ele>10.688261376693845</ele>
				<time>2026-04-16T13:25:10Z</time>
			</trkpt>
			<trkpt lat="59.86100706275501" lon="17.644383254145158">
				<ele>12.441540454514325</ele>
				<time>2026-04-16T13:25:56Z</time>
			</trkpt>
			<trkpt lat="59.861177509031876" lon="17.644778199275972">
				<ele>11.703573320060968</ele>
				<time>2026-04-16T13:26:02Z</time>
			</trkpt>
			<trkpt lat="59.861360191701664" lon="17.64521229346934">
				<ele>11.953526463359594</ele>
				<time>2026-04-16T13:26:06Z</time>
			</trkpt>
			<trkpt lat="59.86151855245604" lon="17.64555703544466">
				<ele>12.497437696903944</ele>
				<time>2026-04-16T13:26:11Z</time>
			</trkpt>
			<trkpt lat="59.86168223831293" lon="17.64601682222051">
				<ele>12.905729751102626</ele>
				<time>2026-04-16T13:26:38Z</time>
			</trkpt>
			<trkpt lat="59.86186909821076" lon="17.646404497684404">
				<ele>13.689146919175982</ele>
				<time>2026-04-16T13:26:42Z</time>
			</trkpt>
			<trkpt lat="59.86206304950643" lon="17.646824173370643">
				<ele>14.231868166476488</ele>
				<time>2026-04-16T13:26:46Z</time>
			</trkpt>
			<trkpt lat="59.86222603587729" lon="17.64715052198206">
				<ele>14.38462738133967</ele>
				<time>2026-04-16T13:26:49Z</time>
			</trkpt>
			<trkpt lat="59.862414888416666" lon="17.647426808815275">
				<ele>14.26778247114271</ele>
				<time>2026-04-16T13:26:52Z</time>
			</trkpt>
			<trkpt lat="59.86259541889435" lon="17.647790478518154">
				<ele>14.639440088532865</ele>
				<time>2026-04-16T13:26:55Z</time>
			</trkpt>
			<trkpt lat="59.862781974877855" lon="17.64818891080388">
				<ele>14.933990738354623</ele>
				<time>2026-04-16T13:26:58Z</time>
			</trkpt>
			<trkpt lat="59.862961867397054" lon="17.64856987760137">
				<ele>14.930860985070467</ele>
				<time>2026-04-16T13:27:01Z</time>
			</trkpt>
			<trkpt lat="59.86315327599505" lon="17.64898726059618">
				<ele>15.060193030163646</ele>
				<time>2026-04-16T13:27:04Z</time>
			</trkpt>
			<trkpt lat="59.863342200501684" lon="17.649386750055776">
				<ele>15.168842212297022</ele>
				<time>2026-04-16T13:27:07Z</time>
			</trkpt>
			<trkpt lat="59.86352674325637" lon="17.649781722101405">
				<ele>15.244961437769234</ele>
				<time>2026-04-16T13:27:10Z</time>
			</trkpt>
			<trkpt lat="59.86370893017675" lon="17.650163461103073">
				<ele>15.364422675222158</ele>
				<time>2026-04-16T13:27:13Z</time>
			</trkpt>
			<trkpt lat="59.863866967779416" lon="17.650520018368425">
				<ele>15.517724526114762</ele>
				<time>2026-04-16T13:27:16Z</time>
			</trkpt>
			<trkpt lat="59.86402796020256" lon="17.650884741867625">
				<ele>14.921014135703444</ele>
				<time>2026-04-16T13:27:22Z</time>
			</trkpt>
			<trkpt lat="59.86421352003963" lon="17.651275205361696">
				<ele>14.893781605176628</ele>
				<time>2026-04-16T13:27:28Z</time>
			</trkpt>
			<trkpt lat="59.86439877128839" lon="17.65166749187157">
				<ele>14.738372097723186</ele>
				<time>2026-04-16T13:27:32Z</time>
			</trkpt>
			<trkpt lat="59.864561663826315" lon="17.652024641009465">
				<ele>14.48232330288738</ele>
				<time>2026-04-16T13:27:35Z</time>
			</trkpt>
			<trkpt lat="59.86473598851376" lon="17.65241921957936">
				<ele>14.26158219575882</ele>
				<time>2026-04-16T13:27:38Z</time>
			</trkpt>
			<trkpt lat="59.864924632262294" lon="17.652825512437722">
				<ele>14.066317942924798</ele>
				<time>2026-04-16T13:27:41Z</time>
			</trkpt>
			<trkpt lat="59.86511958235912" lon="17.653252961085737">
				<ele>13.98497671727091</ele>
				<time>2026-04-16T13:27:44Z</time>
			</trkpt>
			<trkpt lat="59.86532840470509" lon="17.653710995300205">
				<ele>14.032164538279176</ele>
				<time>2026-04-16T13:27:47Z</time>
			</trkpt>
			<trkpt lat="59.8655216971316" lon="17.654142329840045">
				<ele>13.72714143898338</ele>
				<time>2026-04-16T13:27:50Z</time>
			</trkpt>
			<trkpt lat="59.865679565682505" lon="17.654487997793503">
				<ele>13.221288583241403</ele>
				<time>2026-04-16T13:27:53Z</time>
			</trkpt>
			<trkpt lat="59.86583660735182" lon="17.654831947490965">
				<ele>13.153738165274262</ele>
				<time>2026-04-16T13:27:57Z</time>
			</trkpt>
			<trkpt lat="59.86600815151777" lon="17.65521466468781">
				<ele>13.32643555290997</ele>
				<time>2026-04-16T13:28:00Z</time>
			</trkpt>
			<trkpt lat="59.866186492066205" lon="17.655611088149744">
				<ele>13.413189789280295</ele>
				<time>2026-04-16T13:28:03Z</time>
			</trkpt>
			<trkpt lat="59.86637435220445" lon="17.656007338615773">
				<ele>12.696278213523328</ele>
				<time>2026-04-16T13:28:07Z</time>
			</trkpt>
			<trkpt lat="59.86657761498842" lon="17.65644839777215">
				<ele>12.494149374775589</ele>
				<time>2026-04-16T13:28:12Z</time>
			</trkpt>
			<trkpt lat="59.866766001782636" lon="17.656865391099966">
				<ele>12.595400598831475</ele>
				<time>2026-04-16T13:28:15Z</time>
			</trkpt>
			<trkpt lat="59.86695748219913" lon="17.657282120039515">
				<ele>12.585101321339607</ele>
				<time>2026-04-16T13:28:18Z</time>
			</trkpt>
			<trkpt lat="59.86712494305317" lon="17.657636783574397">
				<ele>12.276811165735126</ele>
				<time>2026-04-16T13:28:21Z</time>
			</trkpt>
			<trkpt lat="59.8672638904974" lon="17.65798919792391">
				<ele>12.259170693345368</ele>
				<time>2026-04-16T13:28:25Z</time>
			</trkpt>
			<trkpt lat="59.867440557716364" lon="17.658358576020703">
				<ele>12.418975102715194</ele>
				<time>2026-04-16T13:28:29Z</time>
			</trkpt>
			<trkpt lat="59.867607531506714" lon="17.65874777333416">
				<ele>12.611125709488988</ele>
				<time>2026-04-16T13:28:34Z</time>
			</trkpt>
			<trkpt lat="59.86778071915277" lon="17.659095716859422">
				<ele>12.287637097761035</ele>
				<time>2026-04-16T13:29:38Z</time>
			</trkpt>
			<trkpt lat="59.86793971221718" lon="17.659447458599878">
				<ele>12.549255644902587</ele>
				<time>2026-04-16T13:29:43Z</time>
			</trkpt>
			<trkpt lat="59.86809548813334" lon="17.659813165021045">
				<ele>12.954186738468707</ele>
				<time>2026-04-16T13:29:47Z</time>
			</trkpt>
			<trkpt lat="59.8682875915902" lon="17.66022991339531">
				<ele>12.793068716302514</ele>
				<time>2026-04-16T13:29:51Z</time>
			</trkpt>
			<trkpt lat="59.868471205170856" lon="17.660667594165645">
				<ele>12.405753344297409</ele>
				<time>2026-04-16T13:29:55Z</time>
			</trkpt>
			<trkpt lat="59.86863822256359" lon="17.66100702584534">
				<ele>12.219912176020443</ele>
				<time>2026-04-16T13:30:01Z</time>
			</trkpt>
			<trkpt lat="59.86880128960033" lon="17.661371447073453">
				<ele>12.977930488996208</ele>
				<time>2026-04-16T13:30:41Z</time>
			</trkpt>
			<trkpt lat="59.868693976404465" lon="17.66177864854544">
				<ele>12.643726066686213</ele>
				<time>2026-04-16T13:30:46Z</time>
			</trkpt>
			<trkpt lat="59.868460208895456" lon="17.66206786095235">
				<ele>12.252115978859365</ele>
				<time>2026-04-16T13:30:54Z</time>
			</trkpt>
			<trkpt lat="59.868563146547466" lon="17.66253020826769">
				<ele>12.49631770607084</ele>
				<time>2026-04-16T13:30:59Z</time>
			</trkpt>
			<trkpt lat="59.86873249578615" lon="17.66291929293825">
				<ele>12.399839702062309</ele>
				<time>2026-04-16T13:31:03Z</time>
			</trkpt>
			<trkpt lat="59.868913895236965" lon="17.663316283237837">
				<ele>12.867294839583337</ele>
				<time>2026-04-16T13:31:07Z</time>
			</trkpt>
			<trkpt lat="59.86906952476414" lon="17.663649203017457">
				<ele>13.58670829422772</ele>
				<time>2026-04-16T13:31:11Z</time>
			</trkpt>
			<trkpt lat="59.869247808471" lon="17.664036866547033">
				<ele>14.675520523451269</ele>
				<time>2026-04-16T13:31:15Z</time>
			</trkpt>
			<trkpt lat="59.86943327397999" lon="17.664448279958414">
				<ele>14.029123606160283</ele>
				<time>2026-04-16T13:31:19Z</time>
			</trkpt>
			<trkpt lat="59.86963107144888" lon="17.664880309035613">
				<ele>14.48812472447753</ele>
				<time>2026-04-16T13:31:23Z</time>
			</trkpt>
			<trkpt lat="59.869816215572975" lon="17.665273492612044">
				<ele>14.757516918703914</ele>
				<time>2026-04-16T13:31:27Z</time>
			</trkpt>
			<trkpt lat="59.86998386212656" lon="17.665623526220486">
				<ele>15.040457810275257</ele>
				<time>2026-04-16T13:31:31Z</time>
			</trkpt>
			<trkpt lat="59.87016169058244" lon="17.66595811132064">
				<ele>15.901754812337458</ele>
				<time>2026-04-16T13:31:35Z</time>
			</trkpt>
			<trkpt lat="59.87033573973921" lon="17.66636994090806">
				<ele>16.30171889718622</ele>
				<time>2026-04-16T13:31:39Z</time>
			</trkpt>
			<trkpt lat="59.870525639107" lon="17.66678987407472">
				<ele>16.831807264126837</ele>
				<time>2026-04-16T13:31:43Z</time>
			</trkpt>
			<trkpt lat="59.870726833940466" lon="17.6671968960343">
				<ele>18.07023610919714</ele>
				<time>2026-04-16T13:31:47Z</time>
			</trkpt>
			<trkpt lat="59.87087557138967" lon="17.667544181349733">
				<ele>18.429539530538023</ele>
				<time>2026-04-16T13:31:52Z</time>
			</trkpt>
			<trkpt lat="59.87070136065918" lon="17.667934494799194">
				<ele>18.142349074594676</ele>
				<time>2026-04-16T13:31:59Z</time>
			</trkpt>
			<trkpt lat="59.870526991380885" lon="17.66824459120355">
				<ele>17.99698426295072</ele>
				<time>2026-04-16T13:32:05Z</time>
			</trkpt>
			<trkpt lat="59.870332473888276" lon="17.66859848650845">
				<ele>17.861154533922672</ele>
				<time>2026-04-16T13:32:11Z</time>
			</trkpt>
			<trkpt lat="59.87011729251884" lon="17.66842007294015">
				<ele>17.875533053651452</ele>
				<time>2026-04-16T13:33:57Z</time>
			</trkpt>
			<trkpt lat="59.86981173652864" lon="17.669424052999922">
				<ele>17.816271820105612</ele>
				<time>2026-04-16T13:34:52Z</time>
			</trkpt>
			<trkpt lat="59.87012122672913" lon="17.66865099629136">
				<ele>18.3315782379359</ele>
				<time>2026-04-16T13:35:01Z</time>
			</trkpt>
			<trkpt lat="59.869887818856554" lon="17.668609521827833">
				<ele>17.778891496360302</ele>
				<time>2026-04-16T13:37:48Z</time>
			</trkpt>
		</trkseg>
	</trk>
	<extensions>
	</extensions>
</gpx>
