<?xml version="1.0" encoding="UTF-8"?>
<gpx xmlns:xsi="http://www.w3.org/2001/XMLSchema-instance" xmlns="http://www.topografix.com/GPX/1/1" xsi:schemaLocation="http://www.topografix.com/GPX/1/1 http://www.topografix.com/GPX/1/1/gpx.xsd" version="1.1" creator="FootMark for iOS">
	<metadata>
		<link href="https://itunes.apple.com/us/app/footmark-route-recorder/id1451393033">
			<text>Download link</text>
		</link>
		<time>2026-05-03T00:02:09Z</time>
	</metadata>
	<wpt lat="59.83457508036851" lon="17.606016956286137">
		<ele>32.65788269042969</ele>
		<time>2026-05-02T16:49:47Z</time>
	</wpt>
	<wpt lat="59.83480348046187" lon="17.606000139117256">
		<ele>35.70487363636494</ele>
		<time>2026-05-02T16:53:53Z</time>
	</wpt>
	<wpt lat="59.835032091116815" lon="17.605782059112908">
		<ele>39.051617798395455</ele>
		<time>2026-05-02T16:54:18Z</time>
	</wpt>
	<wpt lat="59.8352696688656" lon="17.60578408809541">
		<ele>43.39903802331537</ele>
		<time>2026-05-02T16:54:43Z</time>
	</wpt>
	<wpt lat="59.83544892424986" lon="17.60548335480443">
		<ele>46.03443495556712</ele>
		<time>2026-05-02T16:54:56Z</time>
	</wpt>
	<wpt lat="59.83561886933555" lon="17.605185571213074">
		<ele>47.2023130049929</ele>
		<time>2026-05-02T16:55:15Z</time>
	</wpt>
	<wpt lat="59.83585991430568" lon="17.605123642034506">
		<ele>48.87515308149159</ele>
		<time>2026-05-02T16:55:43Z</time>
	</wpt>
	<wpt lat="59.83604661184287" lon="17.604863494325087">
		<ele>49.256745014339685</ele>
		<time>2026-05-02T16:56:01Z</time>
	</wpt>
	<wpt lat="59.83624105722014" lon="17.604621557310587">
		<ele>49.07359204161912</ele>
		<time>2026-05-02T16:56:18Z</time>
	</wpt>
	<wpt lat="59.83643515291699" lon="17.60439370085619">
		<ele>48.51144859287888</ele>
		<time>2026-05-02T16:56:35Z</time>
	</wpt>
	<wpt lat="59.83659955955541" lon="17.60470170483867">
		<ele>47.885754618793726</ele>
		<time>2026-05-02T16:57:19Z</time>
	</wpt>
	<wpt lat="59.83683098284032" lon="17.604644503592862">
		<ele>46.67548907734454</ele>
		<time>2026-05-02T16:57:43Z</time>
	</wpt>
	<wpt lat="59.836970026305565" lon="17.60428189027768">
		<ele>44.90306916832924</ele>
		<time>2026-05-02T16:58:01Z</time>
	</wpt>
	<wpt lat="59.83688501524945" lon="17.603853797961772">
		<ele>41.84955958276987</ele>
		<time>2026-05-02T17:00:48Z</time>
	</wpt>
	<wpt lat="59.8368019333368" lon="17.60341934249653">
		<ele>40.618498938158154</ele>
		<time>2026-05-02T17:01:13Z</time>
	</wpt>
	<wpt lat="59.83661259636106" lon="17.60315078881922">
		<ele>43.5217892518267</ele>
		<time>2026-05-02T17:01:42Z</time>
	</wpt>
	<wpt lat="59.83638922327388" lon="17.603046007474756">
		<ele>43.22396143339574</ele>
		<time>2026-05-02T17:02:51Z</time>
	</wpt>
	<wpt lat="59.83617044996191" lon="17.60315954751134">
		<ele>41.034274185076356</ele>
		<time>2026-05-02T17:03:09Z</time>
	</wpt>
	<wpt lat="59.8359510195288" lon="17.603260893768226">
		<ele>38.47014424856752</ele>
		<time>2026-05-02T17:03:30Z</time>
	</wpt>
	<wpt lat="59.83579318412791" lon="17.602941186095684">
		<ele>39.283537177369</ele>
		<time>2026-05-02T17:04:02Z</time>
	</wpt>
	<wpt lat="59.835562595297894" lon="17.602852698146847">
		<ele>37.088425900787115</ele>
		<time>2026-05-02T17:04:31Z</time>
	</wpt>
	<wpt lat="59.835396644684316" lon="17.60254136681204">
		<ele>37.3892518049106</ele>
		<time>2026-05-02T17:04:52Z</time>
	</wpt>
	<wpt lat="59.835327645960454" lon="17.602104961528088">
		<ele>36.09027716796845</ele>
		<time>2026-05-02T17:05:14Z</time>
	</wpt>
	<wpt lat="59.83533237031793" lon="17.60164570444302">
		<ele>36.30133165884763</ele>
		<time>2026-05-02T17:05:39Z</time>
	</wpt>
	<wpt lat="59.83529343229051" lon="17.601202350252343">
		<ele>39.08392833918333</ele>
		<time>2026-05-02T17:06:00Z</time>
	</wpt>
	<wpt lat="59.835100022757906" lon="17.600976265317243">
		<ele>34.80517559312284</ele>
		<time>2026-05-02T17:06:23Z</time>
	</wpt>
	<wpt lat="59.83490096754191" lon="17.600759291148705">
		<ele>32.564229720272124</ele>
		<time>2026-05-02T17:06:53Z</time>
	</wpt>
	<wpt lat="59.83481566180662" lon="17.600333694857397">
		<ele>28.362466811202466</ele>
		<time>2026-05-02T17:07:16Z</time>
	</wpt>
	<wpt lat="59.83489062003583" lon="17.59989450101938">
		<ele>28.031129702925682</ele>
		<time>2026-05-02T17:07:38Z</time>
	</wpt>
	<wpt lat="59.835080687636506" lon="17.59960734612379">
		<ele>28.046332160010934</ele>
		<time>2026-05-02T17:08:00Z</time>
	</wpt>
	<wpt lat="59.835281577543704" lon="17.59934527304723">
		<ele>27.3951433673501</ele>
		<time>2026-05-02T17:08:19Z</time>
	</wpt>
	<wpt lat="59.83511918758337" lon="17.599035643831602">
		<ele>24.062675102613866</ele>
		<time>2026-05-02T17:10:07Z</time>
	</wpt>
	<wpt lat="59.83489090336509" lon="17.59898435696308">
		<ele>20.716531110927463</ele>
		<time>2026-05-02T17:10:29Z</time>
	</wpt>
	<wpt lat="59.835028238293496" lon="17.59862833213951">
		<ele>19.901457912288606</ele>
		<time>2026-05-02T17:12:52Z</time>
	</wpt>
	<wpt lat="59.83521385271356" lon="17.59837036276496">
		<ele>21.832966351881623</ele>
		<time>2026-05-02T17:13:22Z</time>
	</wpt>
	<wpt lat="59.83540320810702" lon="17.5981154408048">
		<ele>22.063475963659585</ele>
		<time>2026-05-02T17:13:45Z</time>
	</wpt>
	<wpt lat="59.83557627813045" lon="17.59782391014429">
		<ele>20.271006994880736</ele>
		<time>2026-05-02T17:15:03Z</time>
	</wpt>
	<wpt lat="59.83580002288521" lon="17.59775170353581">
		<ele>20.5435980129987</ele>
		<time>2026-05-02T17:15:37Z</time>
	</wpt>
	<wpt lat="59.83600824307062" lon="17.5975538082334">
		<ele>20.640327823348343</ele>
		<time>2026-05-02T17:16:11Z</time>
	</wpt>
	<wpt lat="59.83615524558011" lon="17.597213030044955">
		<ele>22.250902517698705</ele>
		<time>2026-05-02T17:16:53Z</time>
	</wpt>
	<wpt lat="59.836267792290805" lon="17.596813636454048">
		<ele>20.15553697478026</ele>
		<time>2026-05-02T17:18:01Z</time>
	</wpt>
	<wpt lat="59.836431929763705" lon="17.596504238129388">
		<ele>20.368012147024274</ele>
		<time>2026-05-02T17:19:40Z</time>
	</wpt>
	<wpt lat="59.83659548197504" lon="17.596180990551005">
		<ele>19.65503297932446</ele>
		<time>2026-05-02T17:20:06Z</time>
	</wpt>
	<wpt lat="59.836769461382296" lon="17.595870131831813">
		<ele>18.947859099134803</ele>
		<time>2026-05-02T17:20:32Z</time>
	</wpt>
	<wpt lat="59.83693987389768" lon="17.595561806943486">
		<ele>20.05373312253505</ele>
		<time>2026-05-02T17:20:55Z</time>
	</wpt>
	<wpt lat="59.83709604885256" lon="17.595229219793122">
		<ele>20.41101985797286</ele>
		<time>2026-05-02T17:21:17Z</time>
	</wpt>
	<wpt lat="59.837167476563835" lon="17.59479761060933">
		<ele>19.250313701108098</ele>
		<time>2026-05-02T17:21:42Z</time>
	</wpt>
	<wpt lat="59.837283420851584" lon="17.59441353183719">
		<ele>18.47523191012442</ele>
		<time>2026-05-02T17:22:03Z</time>
	</wpt>
	<wpt lat="59.83710051842656" lon="17.594143075157266">
		<ele>16.56691023800522</ele>
		<time>2026-05-02T17:22:35Z</time>
	</wpt>
	<wpt lat="59.836917976759366" lon="17.593874025553816">
		<ele>12.767492221668363</ele>
		<time>2026-05-02T17:22:58Z</time>
	</wpt>
	<wpt lat="59.83681052655136" lon="17.593467530017346">
		<ele>10.07694419939071</ele>
		<time>2026-05-02T17:24:15Z</time>
	</wpt>
	<wpt lat="59.83676763750724" lon="17.593015887812456">
		<ele>12.616703919135034</ele>
		<time>2026-05-02T17:24:53Z</time>
	</wpt>
	<wpt lat="59.83672062019905" lon="17.592576194755974">
		<ele>13.541027465835214</ele>
		<time>2026-05-02T17:25:19Z</time>
	</wpt>
	<wpt lat="59.83667669203488" lon="17.592138330842463">
		<ele>13.216691367328167</ele>
		<time>2026-05-02T17:25:44Z</time>
	</wpt>
	<wpt lat="59.83663486142127" lon="17.591699940605384">
		<ele>13.428648309782147</ele>
		<time>2026-05-02T17:26:09Z</time>
	</wpt>
	<wpt lat="59.83659115493692" lon="17.59124199552926">
		<ele>14.099443229846656</ele>
		<time>2026-05-02T17:26:34Z</time>
	</wpt>
	<wpt lat="59.83656388159377" lon="17.590793965026847">
		<ele>15.913381659425795</ele>
		<time>2026-05-02T17:27:03Z</time>
	</wpt>
	<wpt lat="59.836531751981525" lon="17.590347301230626">
		<ele>16.983956734649837</ele>
		<time>2026-05-02T17:27:38Z</time>
	</wpt>
	<wpt lat="59.83648599950165" lon="17.589897169124296">
		<ele>21.42005607113242</ele>
		<time>2026-05-02T17:28:13Z</time>
	</wpt>
	<wpt lat="59.83645435418413" lon="17.5894473268845">
		<ele>25.74574861302972</ele>
		<time>2026-05-02T17:28:45Z</time>
	</wpt>
	<wpt lat="59.83656180392525" lon="17.589050401305382">
		<ele>25.656506274826825</ele>
		<time>2026-05-02T17:29:09Z</time>
	</wpt>
	<wpt lat="59.836689362094056" lon="17.58867579623467">
		<ele>29.346705071628094</ele>
		<time>2026-05-02T17:29:43Z</time>
	</wpt>
	<wpt lat="59.836776579306886" lon="17.588256589544926">
		<ele>31.474750068038702</ele>
		<time>2026-05-02T17:30:16Z</time>
	</wpt>
	<wpt lat="59.83685487802032" lon="17.587837089399496">
		<ele>31.99734579399228</ele>
		<time>2026-05-02T17:30:48Z</time>
	</wpt>
	<wpt lat="59.83707187207588" lon="17.587700398681623">
		<ele>33.22218017280102</ele>
		<time>2026-05-02T17:34:18Z</time>
	</wpt>
	<wpt lat="59.83729744271709" lon="17.58767879215122">
		<ele>34.55143481492996</ele>
		<time>2026-05-02T17:34:44Z</time>
	</wpt>
	<wpt lat="59.83750971361361" lon="17.587504972609334">
		<ele>35.16468449495733</ele>
		<time>2026-05-02T17:35:09Z</time>
	</wpt>
	<wpt lat="59.83767507064326" lon="17.587187136852325">
		<ele>35.5345789892599</ele>
		<time>2026-05-02T17:35:36Z</time>
	</wpt>
	<wpt lat="59.837866215442816" lon="17.586929500917414">
		<ele>34.51791280694306</ele>
		<time>2026-05-02T17:35:59Z</time>
	</wpt>
	<wpt lat="59.83796545926772" lon="17.58651554225977">
		<ele>36.81982931308448</ele>
		<time>2026-05-02T17:36:22Z</time>
	</wpt>
	<wpt lat="59.837746016531796" lon="17.586403789849424">
		<ele>35.85206930246204</ele>
		<time>2026-05-02T17:36:50Z</time>
	</wpt>
	<wpt lat="59.83753945171985" lon="17.58657871824529">
		<ele>37.00177790410817</ele>
		<time>2026-05-02T17:37:13Z</time>
	</wpt>
	<wpt lat="59.83734691897243" lon="17.586826702884974">
		<ele>40.854928015731275</ele>
		<time>2026-05-02T17:37:42Z</time>
	</wpt>
	<wpt lat="59.837551986959326" lon="17.586618655752396">
		<ele>37.387859710492194</ele>
		<time>2026-05-02T17:41:47Z</time>
	</wpt>
	<wpt lat="59.83773914050657" lon="17.586348289668003">
		<ele>35.94325285684317</ele>
		<time>2026-05-02T17:42:12Z</time>
	</wpt>
	<wpt lat="59.837545232534595" lon="17.58610052820306">
		<ele>36.498290904797614</ele>
		<time>2026-05-02T17:43:50Z</time>
	</wpt>
	<wpt lat="59.83756494557899" lon="17.585643437757422">
		<ele>34.100027192384005</ele>
		<time>2026-05-02T17:44:33Z</time>
	</wpt>
	<wpt lat="59.837698934370096" lon="17.585261505545215">
		<ele>33.99832326825708</ele>
		<time>2026-05-02T17:44:56Z</time>
	</wpt>
	<wpt lat="59.8377461809281" lon="17.584819894096885">
		<ele>36.37161891069263</ele>
		<time>2026-05-02T17:50:22Z</time>
	</wpt>
	<wpt lat="59.83784264247025" lon="17.584398279684955">
		<ele>36.30639891885221</ele>
		<time>2026-05-02T17:50:50Z</time>
	</wpt>
	<wpt lat="59.83765848543948" lon="17.584124687582417">
		<ele>34.69575768522918</ele>
		<time>2026-05-02T17:51:42Z</time>
	</wpt>
	<wpt lat="59.83743146501464" lon="17.584085062259387">
		<ele>34.54101132787764</ele>
		<time>2026-05-02T17:52:03Z</time>
	</wpt>
	<wpt lat="59.83720707252459" lon="17.584033353610586">
		<ele>31.877473775297403</ele>
		<time>2026-05-02T17:52:23Z</time>
	</wpt>
	<wpt lat="59.836984536516894" lon="17.583943561600933">
		<ele>30.663212660700083</ele>
		<time>2026-05-02T17:52:44Z</time>
	</wpt>
	<wpt lat="59.83675545767207" lon="17.58390462072976">
		<ele>30.992992389947176</ele>
		<time>2026-05-02T17:53:06Z</time>
	</wpt>
	<wpt lat="59.83653194523429" lon="17.583816816930344">
		<ele>31.077288893982768</ele>
		<time>2026-05-02T17:53:27Z</time>
	</wpt>
	<wpt lat="59.83629665437445" lon="17.583777202013355">
		<ele>30.421258221380413</ele>
		<time>2026-05-02T17:53:49Z</time>
	</wpt>
	<wpt lat="59.83607882060649" lon="17.58363421209359">
		<ele>30.399483792483807</ele>
		<time>2026-05-02T17:54:59Z</time>
	</wpt>
	<wpt lat="59.83588888621362" lon="17.58337998843289">
		<ele>29.220796999521554</ele>
		<time>2026-05-02T17:55:22Z</time>
	</wpt>
	<wpt lat="59.83568845134561" lon="17.583148382116697">
		<ele>26.536140233278275</ele>
		<time>2026-05-02T17:55:45Z</time>
	</wpt>
	<wpt lat="59.8354578368803" lon="17.583079602766873">
		<ele>24.903163127601147</ele>
		<time>2026-05-02T17:56:10Z</time>
	</wpt>
	<wpt lat="59.835227970418565" lon="17.5830001342625">
		<ele>23.72488742787391</ele>
		<time>2026-05-02T17:56:42Z</time>
	</wpt>
	<wpt lat="59.83500151039488" lon="17.582935197418315">
		<ele>23.331494469195604</ele>
		<time>2026-05-02T17:57:03Z</time>
	</wpt>
	<wpt lat="59.83477910480154" lon="17.582866145484935">
		<ele>21.48457457125187</ele>
		<time>2026-05-02T17:57:24Z</time>
	</wpt>
	<wpt lat="59.834554237893286" lon="17.582838586217903">
		<ele>22.17189551051706</ele>
		<time>2026-05-02T17:57:45Z</time>
	</wpt>
	<wpt lat="59.83432076510753" lon="17.582783217510826">
		<ele>22.673549517057836</ele>
		<time>2026-05-02T17:58:08Z</time>
	</wpt>
	<wpt lat="59.834095703738434" lon="17.582700319117393">
		<ele>25.02324623055756</ele>
		<time>2026-05-02T17:58:32Z</time>
	</wpt>
	<wpt lat="59.83386804398013" lon="17.58261270256703">
		<ele>25.681109924800694</ele>
		<time>2026-05-02T17:59:26Z</time>
	</wpt>
	<wpt lat="59.83364471816665" lon="17.582551238808033">
		<ele>28.311571521684527</ele>
		<time>2026-05-02T17:59:49Z</time>
	</wpt>
	<wpt lat="59.833459318678074" lon="17.5828268343039">
		<ele>28.376037057489157</ele>
		<time>2026-05-02T18:00:18Z</time>
	</wpt>
	<wpt lat="59.83336456596817" lon="17.583254871477017">
		<ele>29.862780755385756</ele>
		<time>2026-05-02T18:00:40Z</time>
	</wpt>
	<wpt lat="59.83329852262126" lon="17.58368189853551">
		<ele>29.222240570001304</ele>
		<time>2026-05-02T18:01:07Z</time>
	</wpt>
	<wpt lat="59.83322095867787" lon="17.584113508892365">
		<ele>27.620937530882657</ele>
		<time>2026-05-02T18:01:31Z</time>
	</wpt>
	<wpt lat="59.8331819551774" lon="17.584555702838266">
		<ele>27.650794285349548</ele>
		<time>2026-05-02T18:02:05Z</time>
	</wpt>
	<wpt lat="59.83332770046901" lon="17.584905540506448">
		<ele>27.609060836024582</ele>
		<time>2026-05-02T18:02:29Z</time>
	</wpt>
	<wpt lat="59.83349440594691" lon="17.585217469022524">
		<ele>22.255860139615834</ele>
		<time>2026-05-02T18:02:55Z</time>
	</wpt>
	<wpt lat="59.83340490919424" lon="17.58562976119443">
		<ele>24.184662857092917</ele>
		<time>2026-05-02T18:03:26Z</time>
	</wpt>
	<wpt lat="59.83339198082074" lon="17.586083488341487">
		<ele>19.43651165999472</ele>
		<time>2026-05-02T18:03:59Z</time>
	</wpt>
	<wpt lat="59.83328950628507" lon="17.586487630098404">
		<ele>18.449106582440436</ele>
		<time>2026-05-02T18:04:29Z</time>
	</wpt>
	<wpt lat="59.833146406653896" lon="17.586840975700767">
		<ele>18.121643394231796</ele>
		<time>2026-05-02T18:04:53Z</time>
	</wpt>
	<wpt lat="59.83298528194682" lon="17.587169998056094">
		<ele>20.75867801066488</ele>
		<time>2026-05-02T18:05:27Z</time>
	</wpt>
	<wpt lat="59.832825161979876" lon="17.587491805782374">
		<ele>20.770736229605973</ele>
		<time>2026-05-02T18:06:15Z</time>
	</wpt>
	<wpt lat="59.83266066535051" lon="17.58781370581902">
		<ele>20.222577149048448</ele>
		<time>2026-05-02T18:06:52Z</time>
	</wpt>
	<wpt lat="59.83249453482725" lon="17.588120837028637">
		<ele>19.468570057302713</ele>
		<time>2026-05-02T18:07:24Z</time>
	</wpt>
	<wpt lat="59.832324587743855" lon="17.58843167352973">
		<ele>23.860991910099983</ele>
		<time>2026-05-02T18:07:51Z</time>
	</wpt>
	<wpt lat="59.83215105183797" lon="17.5887535410033">
		<ele>26.476730590686202</ele>
		<time>2026-05-02T18:08:14Z</time>
	</wpt>
	<wpt lat="59.83197641648693" lon="17.589091572516175">
		<ele>24.00152829941362</ele>
		<time>2026-05-02T18:08:36Z</time>
	</wpt>
	<wpt lat="59.83176734265595" lon="17.589296853049298">
		<ele>21.570144694298506</ele>
		<time>2026-05-02T18:09:05Z</time>
	</wpt>
	<wpt lat="59.831537090229055" lon="17.58929908896047">
		<ele>22.202821687795222</ele>
		<time>2026-05-02T18:09:25Z</time>
	</wpt>
	<wpt lat="59.83141056327273" lon="17.58969597156209">
		<ele>23.30580432806164</ele>
		<time>2026-05-02T18:09:50Z</time>
	</wpt>
	<wpt lat="59.831301033181134" lon="17.590099090682592">
		<ele>22.771740729920566</ele>
		<time>2026-05-02T18:10:08Z</time>
	</wpt>
	<wpt lat="59.83111443286567" lon="17.590382829587153">
		<ele>19.44903872627765</ele>
		<time>2026-05-02T18:10:32Z</time>
	</wpt>
	<wpt lat="59.8309364408695" lon="17.590674630856114">
		<ele>16.797569195739925</ele>
		<time>2026-05-02T18:10:51Z</time>
	</wpt>
	<wpt lat="59.83077183664331" lon="17.59099568023378">
		<ele>15.304871702566743</ele>
		<time>2026-05-02T18:11:11Z</time>
	</wpt>
	<wpt lat="59.830576656553944" lon="17.591235354990506">
		<ele>15.353910556994379</ele>
		<time>2026-05-02T18:11:32Z</time>
	</wpt>
	<wpt lat="59.830419661101374" lon="17.59155537773392">
		<ele>12.751962563954294</ele>
		<time>2026-05-02T18:11:57Z</time>
	</wpt>
	<wpt lat="59.83052694044151" lon="17.59196985117075">
		<ele>11.716600711457431</ele>
		<time>2026-05-02T18:12:14Z</time>
	</wpt>
	<wpt lat="59.83065542832745" lon="17.592361006319106">
		<ele>10.302012548781931</ele>
		<time>2026-05-02T18:12:36Z</time>
	</wpt>
	<wpt lat="59.830775246982775" lon="17.59275300751239">
		<ele>11.280897416174412</ele>
		<time>2026-05-02T18:12:58Z</time>
	</wpt>
	<wpt lat="59.83090484088488" lon="17.593123005521154">
		<ele>11.310457307845354</ele>
		<time>2026-05-02T18:13:20Z</time>
	</wpt>
	<wpt lat="59.831048889393536" lon="17.59349327893103">
		<ele>12.384040910750628</ele>
		<time>2026-05-02T18:13:42Z</time>
	</wpt>
	<wpt lat="59.83109553770597" lon="17.593933290042084">
		<ele>12.098790342919528</ele>
		<time>2026-05-02T18:24:07Z</time>
	</wpt>
	<wpt lat="59.83099669308294" lon="17.59435191646027">
		<ele>9.354439034126699</ele>
		<time>2026-05-02T18:25:39Z</time>
	</wpt>
	<wpt lat="59.831093573650314" lon="17.59476387277282">
		<ele>8.696228475309908</ele>
		<time>2026-05-02T18:26:03Z</time>
	</wpt>
	<wpt lat="59.831207467516315" lon="17.595154597646964">
		<ele>11.344574626535177</ele>
		<time>2026-05-02T18:27:21Z</time>
	</wpt>
	<wpt lat="59.83133279927829" lon="17.595551324653464">
		<ele>10.303954885341227</ele>
		<time>2026-05-02T18:27:45Z</time>
	</wpt>
	<wpt lat="59.83135688883079" lon="17.59601133747366">
		<ele>10.743259211070836</ele>
		<time>2026-05-02T18:28:08Z</time>
	</wpt>
	<wpt lat="59.83135696904627" lon="17.59645943360814">
		<ele>12.423588218167424</ele>
		<time>2026-05-02T18:28:30Z</time>
	</wpt>
	<wpt lat="59.83134583778013" lon="17.596907244352508">
		<ele>9.602767371572554</ele>
		<time>2026-05-02T18:28:52Z</time>
	</wpt>
	<wpt lat="59.831361866605675" lon="17.597360131306537">
		<ele>9.05728926230222</ele>
		<time>2026-05-02T18:29:16Z</time>
	</wpt>
	<wpt lat="59.83135713995946" lon="17.597827663368932">
		<ele>11.615180264227092</ele>
		<time>2026-05-02T18:29:38Z</time>
	</wpt>
	<wpt lat="59.831347266463034" lon="17.59827311526964">
		<ele>13.94133544433862</ele>
		<time>2026-05-02T18:30:00Z</time>
	</wpt>
	<wpt lat="59.831350074410246" lon="17.598729765708413">
		<ele>13.448409281671047</ele>
		<time>2026-05-02T18:30:23Z</time>
	</wpt>
	<wpt lat="59.83134925118904" lon="17.59918121700759">
		<ele>12.169755816459656</ele>
		<time>2026-05-02T18:30:46Z</time>
	</wpt>
	<wpt lat="59.83134691659471" lon="17.599639269429463">
		<ele>14.026967789046466</ele>
		<time>2026-05-02T18:31:08Z</time>
	</wpt>
	<wpt lat="59.83137188967867" lon="17.600087568416534">
		<ele>15.29443306941539</ele>
		<time>2026-05-02T18:31:30Z</time>
	</wpt>
	<wpt lat="59.83140560427717" lon="17.600536172490838">
		<ele>16.20341872330755</ele>
		<time>2026-05-02T18:32:14Z</time>
	</wpt>
	<wpt lat="59.83142571242718" lon="17.60099392598434">
		<ele>18.298175261355937</ele>
		<time>2026-05-02T18:32:42Z</time>
	</wpt>
	<wpt lat="59.83158564525992" lon="17.601308728045968">
		<ele>18.995249655097723</ele>
		<time>2026-05-02T18:33:06Z</time>
	</wpt>
	<wpt lat="59.83181441132749" lon="17.601326016816945">
		<ele>17.163942962884903</ele>
		<time>2026-05-02T18:33:28Z</time>
	</wpt>
	<wpt lat="59.83204584973923" lon="17.601326497056053">
		<ele>17.66181412525475</ele>
		<time>2026-05-02T18:33:50Z</time>
	</wpt>
	<wpt lat="59.83227580918766" lon="17.6013396493823">
		<ele>18.13932492490858</ele>
		<time>2026-05-02T18:34:12Z</time>
	</wpt>
	<wpt lat="59.8324998350669" lon="17.601377139335693">
		<ele>17.928682369180024</ele>
		<time>2026-05-02T18:34:33Z</time>
	</wpt>
	<wpt lat="59.8327004247212" lon="17.601612839468707">
		<ele>20.074032288976014</ele>
		<time>2026-05-02T18:34:58Z</time>
	</wpt>
	<wpt lat="59.83282540837332" lon="17.601992984509977">
		<ele>21.381265110336244</ele>
		<time>2026-05-02T18:35:30Z</time>
	</wpt>
	<wpt lat="59.83293196375263" lon="17.602401992464372">
		<ele>22.93989548459649</ele>
		<time>2026-05-02T18:35:53Z</time>
	</wpt>
	<wpt lat="59.83303509522976" lon="17.60280002057429">
		<ele>24.876937619410455</ele>
		<time>2026-05-02T18:37:21Z</time>
	</wpt>
	<wpt lat="59.83316257128344" lon="17.60317961342832">
		<ele>26.917587195523083</ele>
		<time>2026-05-02T18:37:49Z</time>
	</wpt>
	<wpt lat="59.833377920262976" lon="17.603321203194405">
		<ele>27.984141658991575</ele>
		<time>2026-05-02T18:38:42Z</time>
	</wpt>
	<wpt lat="59.8335954108425" lon="17.6034656308973">
		<ele>30.425552011467516</ele>
		<time>2026-05-02T18:39:08Z</time>
	</wpt>
	<wpt lat="59.833726548245615" lon="17.603852576732287">
		<ele>31.277628340758383</ele>
		<time>2026-05-02T18:39:32Z</time>
	</wpt>
	<wpt lat="59.83385174226761" lon="17.604244261682027">
		<ele>32.164509444497526</ele>
		<time>2026-05-02T18:39:55Z</time>
	</wpt>
	<wpt lat="59.834021573048275" lon="17.60454982188085">
		<ele>31.07468688301742</ele>
		<time>2026-05-02T18:40:17Z</time>
	</wpt>
	<wpt lat="59.834160468538215" lon="17.604901114223633">
		<ele>32.416240368038416</ele>
		<time>2026-05-02T18:40:39Z</time>
	</wpt>
	<wpt lat="59.834273669310555" lon="17.605305008036005">
		<ele>34.33524028584361</ele>
		<time>2026-05-02T18:41:02Z</time>
	</wpt>
	<wpt lat="59.834421817392254" lon="17.605649724796834">
		<ele>35.46596660837531</ele>
		<time>2026-05-02T18:42:14Z</time>
	</wpt>
	<wpt lat="59.83453314953578" lon="17.60605708462179">
		<ele>35.02010968886316</ele>
		<time>2026-05-02T18:42:43Z</time>
	</wpt>
	<wpt lat="59.83460470486106" lon="17.60612162657913">
		<ele>34.818059486337006</ele>
		<time>2026-05-02T18:43:47Z</time>
	</wpt>
	<trk>
		<trkseg>
			<trkpt lat="59.83457508036851" lon="17.606016956286137">
				<ele>32.65788269042969</ele>
				<time>2026-05-02T16:49:47Z</time>
			</trkpt>
			<trkpt lat="59.83480348046187" lon="17.606000139117256">
				<ele>35.70487363636494</ele>
				<time>2026-05-02T16:53:53Z</time>
			</trkpt>
			<trkpt lat="59.835032091116815" lon="17.605782059112908">
				<ele>39.051617798395455</ele>
				<time>2026-05-02T16:54:18Z</time>
			</trkpt>
			<trkpt lat="59.8352696688656" lon="17.60578408809541">
				<ele>43.39903802331537</ele>
				<time>2026-05-02T16:54:43Z</time>
			</trkpt>
			<trkpt lat="59.83544892424986" lon="17.60548335480443">
				<ele>46.03443495556712</ele>
				<time>2026-05-02T16:54:56Z</time>
			</trkpt>
			<trkpt lat="59.83561886933555" lon="17.605185571213074">
				<ele>47.2023130049929</ele>
				<time>2026-05-02T16:55:15Z</time>
			</trkpt>
			<trkpt lat="59.83585991430568" lon="17.605123642034506">
				<ele>48.87515308149159</ele>
				<time>2026-05-02T16:55:43Z</time>
			</trkpt>
			<trkpt lat="59.83604661184287" lon="17.604863494325087">
				<ele>49.256745014339685</ele>
				<time>2026-05-02T16:56:01Z</time>
			</trkpt>
			<trkpt lat="59.83624105722014" lon="17.604621557310587">
				<ele>49.07359204161912</ele>
				<time>2026-05-02T16:56:18Z</time>
			</trkpt>
			<trkpt lat="59.83643515291699" lon="17.60439370085619">
				<ele>48.51144859287888</ele>
				<time>2026-05-02T16:56:35Z</time>
			</trkpt>
			<trkpt lat="59.83659955955541" lon="17.60470170483867">
				<ele>47.885754618793726</ele>
				<time>2026-05-02T16:57:19Z</time>
			</trkpt>
			<trkpt lat="59.83683098284032" lon="17.604644503592862">
				<ele>46.67548907734454</ele>
				<time>2026-05-02T16:57:43Z</time>
			</trkpt>
			<trkpt lat="59.836970026305565" lon="17.60428189027768">
				<ele>44.90306916832924</ele>
				<time>2026-05-02T16:58:01Z</time>
			</trkpt>
			<trkpt lat="59.83688501524945" lon="17.603853797961772">
				<ele>41.84955958276987</ele>
				<time>2026-05-02T17:00:48Z</time>
			</trkpt>
			<trkpt lat="59.8368019333368" lon="17.60341934249653">
				<ele>40.618498938158154</ele>
				<time>2026-05-02T17:01:13Z</time>
			</trkpt>
			<trkpt lat="59.83661259636106" lon="17.60315078881922">
				<ele>43.5217892518267</ele>
				<time>2026-05-02T17:01:42Z</time>
			</trkpt>
			<trkpt lat="59.83638922327388" lon="17.603046007474756">
				<ele>43.22396143339574</ele>
				<time>2026-05-02T17:02:51Z</time>
			</trkpt>
			<trkpt lat="59.83617044996191" lon="17.60315954751134">
				<ele>41.034274185076356</ele>
				<time>2026-05-02T17:03:09Z</time>
			</trkpt>
			<trkpt lat="59.8359510195288" lon="17.603260893768226">
				<ele>38.47014424856752</ele>
				<time>2026-05-02T17:03:30Z</time>
			</trkpt>
			<trkpt lat="59.83579318412791" lon="17.602941186095684">
				<ele>39.283537177369</ele>
				<time>2026-05-02T17:04:02Z</time>
			</trkpt>
			<trkpt lat="59.835562595297894" lon="17.602852698146847">
				<ele>37.088425900787115</ele>
				<time>2026-05-02T17:04:31Z</time>
			</trkpt>
			<trkpt lat="59.835396644684316" lon="17.60254136681204">
				<ele>37.3892518049106</ele>
				<time>2026-05-02T17:04:52Z</time>
			</trkpt>
			<trkpt lat="59.835327645960454" lon="17.602104961528088">
				<ele>36.09027716796845</ele>
				<time>2026-05-02T17:05:14Z</time>
			</trkpt>
			<trkpt lat="59.83533237031793" lon="17.60164570444302">
				<ele>36.30133165884763</ele>
				<time>2026-05-02T17:05:39Z</time>
			</trkpt>
			<trkpt lat="59.83529343229051" lon="17.601202350252343">
				<ele>39.08392833918333</ele>
				<time>2026-05-02T17:06:00Z</time>
			</trkpt>
			<trkpt lat="59.835100022757906" lon="17.600976265317243">
				<ele>34.80517559312284</ele>
				<time>2026-05-02T17:06:23Z</time>
			</trkpt>
			<trkpt lat="59.83490096754191" lon="17.600759291148705">
				<ele>32.564229720272124</ele>
				<time>2026-05-02T17:06:53Z</time>
			</trkpt>
			<trkpt lat="59.83481566180662" lon="17.600333694857397">
				<ele>28.362466811202466</ele>
				<time>2026-05-02T17:07:16Z</time>
			</trkpt>
			<trkpt lat="59.83489062003583" lon="17.59989450101938">
				<ele>28.031129702925682</ele>
				<time>2026-05-02T17:07:38Z</time>
			</trkpt>
			<trkpt lat="59.835080687636506" lon="17.59960734612379">
				<ele>28.046332160010934</ele>
				<time>2026-05-02T17:08:00Z</time>
			</trkpt>
			<trkpt lat="59.835281577543704" lon="17.59934527304723">
				<ele>27.3951433673501</ele>
				<time>2026-05-02T17:08:19Z</time>
			</trkpt>
			<trkpt lat="59.83511918758337" lon="17.599035643831602">
				<ele>24.062675102613866</ele>
				<time>2026-05-02T17:10:07Z</time>
			</trkpt>
			<trkpt lat="59.83489090336509" lon="17.59898435696308">
				<ele>20.716531110927463</ele>
				<time>2026-05-02T17:10:29Z</time>
			</trkpt>
			<trkpt lat="59.835028238293496" lon="17.59862833213951">
				<ele>19.901457912288606</ele>
				<time>2026-05-02T17:12:52Z</time>
			</trkpt>
			<trkpt lat="59.83521385271356" lon="17.59837036276496">
				<ele>21.832966351881623</ele>
				<time>2026-05-02T17:13:22Z</time>
			</trkpt>
			<trkpt lat="59.83540320810702" lon="17.5981154408048">
				<ele>22.063475963659585</ele>
				<time>2026-05-02T17:13:45Z</time>
			</trkpt>
			<trkpt lat="59.83557627813045" lon="17.59782391014429">
				<ele>20.271006994880736</ele>
				<time>2026-05-02T17:15:03Z</time>
			</trkpt>
			<trkpt lat="59.83580002288521" lon="17.59775170353581">
				<ele>20.5435980129987</ele>
				<time>2026-05-02T17:15:37Z</time>
			</trkpt>
			<trkpt lat="59.83600824307062" lon="17.5975538082334">
				<ele>20.640327823348343</ele>
				<time>2026-05-02T17:16:11Z</time>
			</trkpt>
			<trkpt lat="59.83615524558011" lon="17.597213030044955">
				<ele>22.250902517698705</ele>
				<time>2026-05-02T17:16:53Z</time>
			</trkpt>
			<trkpt lat="59.836267792290805" lon="17.596813636454048">
				<ele>20.15553697478026</ele>
				<time>2026-05-02T17:18:01Z</time>
			</trkpt>
			<trkpt lat="59.836431929763705" lon="17.596504238129388">
				<ele>20.368012147024274</ele>
				<time>2026-05-02T17:19:40Z</time>
			</trkpt>
			<trkpt lat="59.83659548197504" lon="17.596180990551005">
				<ele>19.65503297932446</ele>
				<time>2026-05-02T17:20:06Z</time>
			</trkpt>
			<trkpt lat="59.836769461382296" lon="17.595870131831813">
				<ele>18.947859099134803</ele>
				<time>2026-05-02T17:20:32Z</time>
			</trkpt>
			<trkpt lat="59.83693987389768" lon="17.595561806943486">
				<ele>20.05373312253505</ele>
				<time>2026-05-02T17:20:55Z</time>
			</trkpt>
			<trkpt lat="59.83709604885256" lon="17.595229219793122">
				<ele>20.41101985797286</ele>
				<time>2026-05-02T17:21:17Z</time>
			</trkpt>
			<trkpt lat="59.837167476563835" lon="17.59479761060933">
				<ele>19.250313701108098</ele>
				<time>2026-05-02T17:21:42Z</time>
			</trkpt>
			<trkpt lat="59.837283420851584" lon="17.59441353183719">
				<ele>18.47523191012442</ele>
				<time>2026-05-02T17:22:03Z</time>
			</trkpt>
			<trkpt lat="59.83710051842656" lon="17.594143075157266">
				<ele>16.56691023800522</ele>
				<time>2026-05-02T17:22:35Z</time>
			</trkpt>
			<trkpt lat="59.836917976759366" lon="17.593874025553816">
				<ele>12.767492221668363</ele>
				<time>2026-05-02T17:22:58Z</time>
			</trkpt>
			<trkpt lat="59.83681052655136" lon="17.593467530017346">
				<ele>10.07694419939071</ele>
				<time>2026-05-02T17:24:15Z</time>
			</trkpt>
			<trkpt lat="59.83676763750724" lon="17.593015887812456">
				<ele>12.616703919135034</ele>
				<time>2026-05-02T17:24:53Z</time>
			</trkpt>
			<trkpt lat="59.83672062019905" lon="17.592576194755974">
				<ele>13.541027465835214</ele>
				<time>2026-05-02T17:25:19Z</time>
			</trkpt>
			<trkpt lat="59.83667669203488" lon="17.592138330842463">
				<ele>13.216691367328167</ele>
				<time>2026-05-02T17:25:44Z</time>
			</trkpt>
			<trkpt lat="59.83663486142127" lon="17.591699940605384">
				<ele>13.428648309782147</ele>
				<time>2026-05-02T17:26:09Z</time>
			</trkpt>
			<trkpt lat="59.83659115493692" lon="17.59124199552926">
				<ele>14.099443229846656</ele>
				<time>2026-05-02T17:26:34Z</time>
			</trkpt>
			<trkpt lat="59.83656388159377" lon="17.590793965026847">
				<ele>15.913381659425795</ele>
				<time>2026-05-02T17:27:03Z</time>
			</trkpt>
			<trkpt lat="59.836531751981525" lon="17.590347301230626">
				<ele>16.983956734649837</ele>
				<time>2026-05-02T17:27:38Z</time>
			</trkpt>
			<trkpt lat="59.83648599950165" lon="17.589897169124296">
				<ele>21.42005607113242</ele>
				<time>2026-05-02T17:28:13Z</time>
			</trkpt>
			<trkpt lat="59.83645435418413" lon="17.5894473268845">
				<ele>25.74574861302972</ele>
				<time>2026-05-02T17:28:45Z</time>
			</trkpt>
			<trkpt lat="59.83656180392525" lon="17.589050401305382">
				<ele>25.656506274826825</ele>
				<time>2026-05-02T17:29:09Z</time>
			</trkpt>
			<trkpt lat="59.836689362094056" lon="17.58867579623467">
				<ele>29.346705071628094</ele>
				<time>2026-05-02T17:29:43Z</time>
			</trkpt>
			<trkpt lat="59.836776579306886" lon="17.588256589544926">
				<ele>31.474750068038702</ele>
				<time>2026-05-02T17:30:16Z</time>
			</trkpt>
			<trkpt lat="59.83685487802032" lon="17.587837089399496">
				<ele>31.99734579399228</ele>
				<time>2026-05-02T17:30:48Z</time>
			</trkpt>
			<trkpt lat="59.83707187207588" lon="17.587700398681623">
				<ele>33.22218017280102</ele>
				<time>2026-05-02T17:34:18Z</time>
			</trkpt>
			<trkpt lat="59.83729744271709" lon="17.58767879215122">
				<ele>34.55143481492996</ele>
				<time>2026-05-02T17:34:44Z</time>
			</trkpt>
			<trkpt lat="59.83750971361361" lon="17.587504972609334">
				<ele>35.16468449495733</ele>
				<time>2026-05-02T17:35:09Z</time>
			</trkpt>
			<trkpt lat="59.83767507064326" lon="17.587187136852325">
				<ele>35.5345789892599</ele>
				<time>2026-05-02T17:35:36Z</time>
			</trkpt>
			<trkpt lat="59.837866215442816" lon="17.586929500917414">
				<ele>34.51791280694306</ele>
				<time>2026-05-02T17:35:59Z</time>
			</trkpt>
			<trkpt lat="59.83796545926772" lon="17.58651554225977">
				<ele>36.81982931308448</ele>
				<time>2026-05-02T17:36:22Z</time>
			</trkpt>
			<trkpt lat="59.837746016531796" lon="17.586403789849424">
				<ele>35.85206930246204</ele>
				<time>2026-05-02T17:36:50Z</time>
			</trkpt>
			<trkpt lat="59.83753945171985" lon="17.58657871824529">
				<ele>37.00177790410817</ele>
				<time>2026-05-02T17:37:13Z</time>
			</trkpt>
			<trkpt lat="59.83734691897243" lon="17.586826702884974">
				<ele>40.854928015731275</ele>
				<time>2026-05-02T17:37:42Z</time>
			</trkpt>
			<trkpt lat="59.837551986959326" lon="17.586618655752396">
				<ele>37.387859710492194</ele>
				<time>2026-05-02T17:41:47Z</time>
			</trkpt>
			<trkpt lat="59.83773914050657" lon="17.586348289668003">
				<ele>35.94325285684317</ele>
				<time>2026-05-02T17:42:12Z</time>
			</trkpt>
			<trkpt lat="59.837545232534595" lon="17.58610052820306">
				<ele>36.498290904797614</ele>
				<time>2026-05-02T17:43:50Z</time>
			</trkpt>
			<trkpt lat="59.83756494557899" lon="17.585643437757422">
				<ele>34.100027192384005</ele>
				<time>2026-05-02T17:44:33Z</time>
			</trkpt>
			<trkpt lat="59.837698934370096" lon="17.585261505545215">
				<ele>33.99832326825708</ele>
				<time>2026-05-02T17:44:56Z</time>
			</trkpt>
			<trkpt lat="59.8377461809281" lon="17.584819894096885">
				<ele>36.37161891069263</ele>
				<time>2026-05-02T17:50:22Z</time>
			</trkpt>
			<trkpt lat="59.83784264247025" lon="17.584398279684955">
				<ele>36.30639891885221</ele>
				<time>2026-05-02T17:50:50Z</time>
			</trkpt>
			<trkpt lat="59.83765848543948" lon="17.584124687582417">
				<ele>34.69575768522918</ele>
				<time>2026-05-02T17:51:42Z</time>
			</trkpt>
			<trkpt lat="59.83743146501464" lon="17.584085062259387">
				<ele>34.54101132787764</ele>
				<time>2026-05-02T17:52:03Z</time>
			</trkpt>
			<trkpt lat="59.83720707252459" lon="17.584033353610586">
				<ele>31.877473775297403</ele>
				<time>2026-05-02T17:52:23Z</time>
			</trkpt>
			<trkpt lat="59.836984536516894" lon="17.583943561600933">
				<ele>30.663212660700083</ele>
				<time>2026-05-02T17:52:44Z</time>
			</trkpt>
			<trkpt lat="59.83675545767207" lon="17.58390462072976">
				<ele>30.992992389947176</ele>
				<time>2026-05-02T17:53:06Z</time>
			</trkpt>
			<trkpt lat="59.83653194523429" lon="17.583816816930344">
				<ele>31.077288893982768</ele>
				<time>2026-05-02T17:53:27Z</time>
			</trkpt>
			<trkpt lat="59.83629665437445" lon="17.583777202013355">
				<ele>30.421258221380413</ele>
				<time>2026-05-02T17:53:49Z</time>
			</trkpt>
			<trkpt lat="59.83607882060649" lon="17.58363421209359">
				<ele>30.399483792483807</ele>
				<time>2026-05-02T17:54:59Z</time>
			</trkpt>
			<trkpt lat="59.83588888621362" lon="17.58337998843289">
				<ele>29.220796999521554</ele>
				<time>2026-05-02T17:55:22Z</time>
			</trkpt>
			<trkpt lat="59.83568845134561" lon="17.583148382116697">
				<ele>26.536140233278275</ele>
				<time>2026-05-02T17:55:45Z</time>
			</trkpt>
			<trkpt lat="59.8354578368803" lon="17.583079602766873">
				<ele>24.903163127601147</ele>
				<time>2026-05-02T17:56:10Z</time>
			</trkpt>
			<trkpt lat="59.835227970418565" lon="17.5830001342625">
				<ele>23.72488742787391</ele>
				<time>2026-05-02T17:56:42Z</time>
			</trkpt>
			<trkpt lat="59.83500151039488" lon="17.582935197418315">
				<ele>23.331494469195604</ele>
				<time>2026-05-02T17:57:03Z</time>
			</trkpt>
			<trkpt lat="59.83477910480154" lon="17.582866145484935">
				<ele>21.48457457125187</ele>
				<time>2026-05-02T17:57:24Z</time>
			</trkpt>
			<trkpt lat="59.834554237893286" lon="17.582838586217903">
				<ele>22.17189551051706</ele>
				<time>2026-05-02T17:57:45Z</time>
			</trkpt>
			<trkpt lat="59.83432076510753" lon="17.582783217510826">
				<ele>22.673549517057836</ele>
				<time>2026-05-02T17:58:08Z</time>
			</trkpt>
			<trkpt lat="59.834095703738434" lon="17.582700319117393">
				<ele>25.02324623055756</ele>
				<time>2026-05-02T17:58:32Z</time>
			</trkpt>
			<trkpt lat="59.83386804398013" lon="17.58261270256703">
				<ele>25.681109924800694</ele>
				<time>2026-05-02T17:59:26Z</time>
			</trkpt>
			<trkpt lat="59.83364471816665" lon="17.582551238808033">
				<ele>28.311571521684527</ele>
				<time>2026-05-02T17:59:49Z</time>
			</trkpt>
			<trkpt lat="59.833459318678074" lon="17.5828268343039">
				<ele>28.376037057489157</ele>
				<time>2026-05-02T18:00:18Z</time>
			</trkpt>
			<trkpt lat="59.83336456596817" lon="17.583254871477017">
				<ele>29.862780755385756</ele>
				<time>2026-05-02T18:00:40Z</time>
			</trkpt>
			<trkpt lat="59.83329852262126" lon="17.58368189853551">
				<ele>29.222240570001304</ele>
				<time>2026-05-02T18:01:07Z</time>
			</trkpt>
			<trkpt lat="59.83322095867787" lon="17.584113508892365">
				<ele>27.620937530882657</ele>
				<time>2026-05-02T18:01:31Z</time>
			</trkpt>
			<trkpt lat="59.8331819551774" lon="17.584555702838266">
				<ele>27.650794285349548</ele>
				<time>2026-05-02T18:02:05Z</time>
			</trkpt>
			<trkpt lat="59.83332770046901" lon="17.584905540506448">
				<ele>27.609060836024582</ele>
				<time>2026-05-02T18:02:29Z</time>
			</trkpt>
			<trkpt lat="59.83349440594691" lon="17.585217469022524">
				<ele>22.255860139615834</ele>
				<time>2026-05-02T18:02:55Z</time>
			</trkpt>
			<trkpt lat="59.83340490919424" lon="17.58562976119443">
				<ele>24.184662857092917</ele>
				<time>2026-05-02T18:03:26Z</time>
			</trkpt>
			<trkpt lat="59.83339198082074" lon="17.586083488341487">
				<ele>19.43651165999472</ele>
				<time>2026-05-02T18:03:59Z</time>
			</trkpt>
			<trkpt lat="59.83328950628507" lon="17.586487630098404">
				<ele>18.449106582440436</ele>
				<time>2026-05-02T18:04:29Z</time>
			</trkpt>
			<trkpt lat="59.833146406653896" lon="17.586840975700767">
				<ele>18.121643394231796</ele>
				<time>2026-05-02T18:04:53Z</time>
			</trkpt>
			<trkpt lat="59.83298528194682" lon="17.587169998056094">
				<ele>20.75867801066488</ele>
				<time>2026-05-02T18:05:27Z</time>
			</trkpt>
			<trkpt lat="59.832825161979876" lon="17.587491805782374">
				<ele>20.770736229605973</ele>
				<time>2026-05-02T18:06:15Z</time>
			</trkpt>
			<trkpt lat="59.83266066535051" lon="17.58781370581902">
				<ele>20.222577149048448</ele>
				<time>2026-05-02T18:06:52Z</time>
			</trkpt>
			<trkpt lat="59.83249453482725" lon="17.588120837028637">
				<ele>19.468570057302713</ele>
				<time>2026-05-02T18:07:24Z</time>
			</trkpt>
			<trkpt lat="59.832324587743855" lon="17.58843167352973">
				<ele>23.860991910099983</ele>
				<time>2026-05-02T18:07:51Z</time>
			</trkpt>
			<trkpt lat="59.83215105183797" lon="17.5887535410033">
				<ele>26.476730590686202</ele>
				<time>2026-05-02T18:08:14Z</time>
			</trkpt>
			<trkpt lat="59.83197641648693" lon="17.589091572516175">
				<ele>24.00152829941362</ele>
				<time>2026-05-02T18:08:36Z</time>
			</trkpt>
			<trkpt lat="59.83176734265595" lon="17.589296853049298">
				<ele>21.570144694298506</ele>
				<time>2026-05-02T18:09:05Z</time>
			</trkpt>
			<trkpt lat="59.831537090229055" lon="17.58929908896047">
				<ele>22.202821687795222</ele>
				<time>2026-05-02T18:09:25Z</time>
			</trkpt>
			<trkpt lat="59.83141056327273" lon="17.58969597156209">
				<ele>23.30580432806164</ele>
				<time>2026-05-02T18:09:50Z</time>
			</trkpt>
			<trkpt lat="59.831301033181134" lon="17.590099090682592">
				<ele>22.771740729920566</ele>
				<time>2026-05-02T18:10:08Z</time>
			</trkpt>
			<trkpt lat="59.83111443286567" lon="17.590382829587153">
				<ele>19.44903872627765</ele>
				<time>2026-05-02T18:10:32Z</time>
			</trkpt>
			<trkpt lat="59.8309364408695" lon="17.590674630856114">
				<ele>16.797569195739925</ele>
				<time>2026-05-02T18:10:51Z</time>
			</trkpt>
			<trkpt lat="59.83077183664331" lon="17.59099568023378">
				<ele>15.304871702566743</ele>
				<time>2026-05-02T18:11:11Z</time>
			</trkpt>
			<trkpt lat="59.830576656553944" lon="17.591235354990506">
				<ele>15.353910556994379</ele>
				<time>2026-05-02T18:11:32Z</time>
			</trkpt>
			<trkpt lat="59.830419661101374" lon="17.59155537773392">
				<ele>12.751962563954294</ele>
				<time>2026-05-02T18:11:57Z</time>
			</trkpt>
			<trkpt lat="59.83052694044151" lon="17.59196985117075">
				<ele>11.716600711457431</ele>
				<time>2026-05-02T18:12:14Z</time>
			</trkpt>
			<trkpt lat="59.83065542832745" lon="17.592361006319106">
				<ele>10.302012548781931</ele>
				<time>2026-05-02T18:12:36Z</time>
			</trkpt>
			<trkpt lat="59.830775246982775" lon="17.59275300751239">
				<ele>11.280897416174412</ele>
				<time>2026-05-02T18:12:58Z</time>
			</trkpt>
			<trkpt lat="59.83090484088488" lon="17.593123005521154">
				<ele>11.310457307845354</ele>
				<time>2026-05-02T18:13:20Z</time>
			</trkpt>
			<trkpt lat="59.831048889393536" lon="17.59349327893103">
				<ele>12.384040910750628</ele>
				<time>2026-05-02T18:13:42Z</time>
			</trkpt>
			<trkpt lat="59.83109553770597" lon="17.593933290042084">
				<ele>12.098790342919528</ele>
				<time>2026-05-02T18:24:07Z</time>
			</trkpt>
			<trkpt lat="59.83099669308294" lon="17.59435191646027">
				<ele>9.354439034126699</ele>
				<time>2026-05-02T18:25:39Z</time>
			</trkpt>
			<trkpt lat="59.831093573650314" lon="17.59476387277282">
				<ele>8.696228475309908</ele>
				<time>2026-05-02T18:26:03Z</time>
			</trkpt>
			<trkpt lat="59.831207467516315" lon="17.595154597646964">
				<ele>11.344574626535177</ele>
				<time>2026-05-02T18:27:21Z</time>
			</trkpt>
			<trkpt lat="59.83133279927829" lon="17.595551324653464">
				<ele>10.303954885341227</ele>
				<time>2026-05-02T18:27:45Z</time>
			</trkpt>
			<trkpt lat="59.83135688883079" lon="17.59601133747366">
				<ele>10.743259211070836</ele>
				<time>2026-05-02T18:28:08Z</time>
			</trkpt>
			<trkpt lat="59.83135696904627" lon="17.59645943360814">
				<ele>12.423588218167424</ele>
				<time>2026-05-02T18:28:30Z</time>
			</trkpt>
			<trkpt lat="59.83134583778013" lon="17.596907244352508">
				<ele>9.602767371572554</ele>
				<time>2026-05-02T18:28:52Z</time>
			</trkpt>
			<trkpt lat="59.831361866605675" lon="17.597360131306537">
				<ele>9.05728926230222</ele>
				<time>2026-05-02T18:29:16Z</time>
			</trkpt>
			<trkpt lat="59.83135713995946" lon="17.597827663368932">
				<ele>11.615180264227092</ele>
				<time>2026-05-02T18:29:38Z</time>
			</trkpt>
			<trkpt lat="59.831347266463034" lon="17.59827311526964">
				<ele>13.94133544433862</ele>
				<time>2026-05-02T18:30:00Z</time>
			</trkpt>
			<trkpt lat="59.831350074410246" lon="17.598729765708413">
				<ele>13.448409281671047</ele>
				<time>2026-05-02T18:30:23Z</time>
			</trkpt>
			<trkpt lat="59.83134925118904" lon="17.59918121700759">
				<ele>12.169755816459656</ele>
				<time>2026-05-02T18:30:46Z</time>
			</trkpt>
			<trkpt lat="59.83134691659471" lon="17.599639269429463">
				<ele>14.026967789046466</ele>
				<time>2026-05-02T18:31:08Z</time>
			</trkpt>
			<trkpt lat="59.83137188967867" lon="17.600087568416534">
				<ele>15.29443306941539</ele>
				<time>2026-05-02T18:31:30Z</time>
			</trkpt>
			<trkpt lat="59.83140560427717" lon="17.600536172490838">
				<ele>16.20341872330755</ele>
				<time>2026-05-02T18:32:14Z</time>
			</trkpt>
			<trkpt lat="59.83142571242718" lon="17.60099392598434">
				<ele>18.298175261355937</ele>
				<time>2026-05-02T18:32:42Z</time>
			</trkpt>
			<trkpt lat="59.83158564525992" lon="17.601308728045968">
				<ele>18.995249655097723</ele>
				<time>2026-05-02T18:33:06Z</time>
			</trkpt>
			<trkpt lat="59.83181441132749" lon="17.601326016816945">
				<ele>17.163942962884903</ele>
				<time>2026-05-02T18:33:28Z</time>
			</trkpt>
			<trkpt lat="59.83204584973923" lon="17.601326497056053">
				<ele>17.66181412525475</ele>
				<time>2026-05-02T18:33:50Z</time>
			</trkpt>
			<trkpt lat="59.83227580918766" lon="17.6013396493823">
				<ele>18.13932492490858</ele>
				<time>2026-05-02T18:34:12Z</time>
			</trkpt>
			<trkpt lat="59.8324998350669" lon="17.601377139335693">
				<ele>17.928682369180024</ele>
				<time>2026-05-02T18:34:33Z</time>
			</trkpt>
			<trkpt lat="59.8327004247212" lon="17.601612839468707">
				<ele>20.074032288976014</ele>
				<time>2026-05-02T18:34:58Z</time>
			</trkpt>
			<trkpt lat="59.83282540837332" lon="17.601992984509977">
				<ele>21.381265110336244</ele>
				<time>2026-05-02T18:35:30Z</time>
			</trkpt>
			<trkpt lat="59.83293196375263" lon="17.602401992464372">
				<ele>22.93989548459649</ele>
				<time>2026-05-02T18:35:53Z</time>
			</trkpt>
			<trkpt lat="59.83303509522976" lon="17.60280002057429">
				<ele>24.876937619410455</ele>
				<time>2026-05-02T18:37:21Z</time>
			</trkpt>
			<trkpt lat="59.83316257128344" lon="17.60317961342832">
				<ele>26.917587195523083</ele>
				<time>2026-05-02T18:37:49Z</time>
			</trkpt>
			<trkpt lat="59.833377920262976" lon="17.603321203194405">
				<ele>27.984141658991575</ele>
				<time>2026-05-02T18:38:42Z</time>
			</trkpt>
			<trkpt lat="59.8335954108425" lon="17.6034656308973">
				<ele>30.425552011467516</ele>
				<time>2026-05-02T18:39:08Z</time>
			</trkpt>
			<trkpt lat="59.833726548245615" lon="17.603852576732287">
				<ele>31.277628340758383</ele>
				<time>2026-05-02T18:39:32Z</time>
			</trkpt>
			<trkpt lat="59.83385174226761" lon="17.604244261682027">
				<ele>32.164509444497526</ele>
				<time>2026-05-02T18:39:55Z</time>
			</trkpt>
			<trkpt lat="59.834021573048275" lon="17.60454982188085">
				<ele>31.07468688301742</ele>
				<time>2026-05-02T18:40:17Z</time>
			</trkpt>
			<trkpt lat="59.834160468538215" lon="17.604901114223633">
				<ele>32.416240368038416</ele>
				<time>2026-05-02T18:40:39Z</time>
			</trkpt>
			<trkpt lat="59.834273669310555" lon="17.605305008036005">
				<ele>34.33524028584361</ele>
				<time>2026-05-02T18:41:02Z</time>
			</trkpt>
			<trkpt lat="59.834421817392254" lon="17.605649724796834">
				<ele>35.46596660837531</ele>
				<time>2026-05-02T18:42:14Z</time>
			</trkpt>
			<trkpt lat="59.83453314953578" lon="17.60605708462179">
				<ele>35.02010968886316</ele>
				<time>2026-05-02T18:42:43Z</time>
			</trkpt>
			<trkpt lat="59.83460470486106" lon="17.60612162657913">
				<ele>34.818059486337006</ele>
				<time>2026-05-02T18:43:47Z</time>
			</trkpt>
		</trkseg>
	</trk>
	<extensions>
	</extensions>
</gpx>
