<?xml version="1.0" encoding="UTF-8"?>
<gpx xmlns:xsi="http://www.w3.org/2001/XMLSchema-instance" xmlns="http://www.topografix.com/GPX/1/1" xsi:schemaLocation="http://www.topografix.com/GPX/1/1 http://www.topografix.com/GPX/1/1/gpx.xsd" version="1.1" creator="FootMark for iOS">
	<metadata>
		<link href="https://itunes.apple.com/us/app/footmark-route-recorder/id1451393033">
			<text>Download link</text>
		</link>
		<time>2026-05-01T23:06:54Z</time>
	</metadata>
	<wpt lat="59.77320297782468" lon="17.64619905063767">
		<ele>34.13122367858887</ele>
		<time>2026-03-08T13:54:04Z</time>
	</wpt>
	<wpt lat="59.77326535904565" lon="17.645771604796753">
		<ele>31.825559489428997</ele>
		<time>2026-03-08T13:55:12Z</time>
	</wpt>
	<wpt lat="59.77330855991347" lon="17.64533226960863">
		<ele>30.163416060619056</ele>
		<time>2026-03-08T13:55:42Z</time>
	</wpt>
	<wpt lat="59.77333691238592" lon="17.644881580381647">
		<ele>31.60087828617543</ele>
		<time>2026-03-08T13:56:04Z</time>
	</wpt>
	<wpt lat="59.773269358947005" lon="17.64444811095819">
		<ele>29.640068037435412</ele>
		<time>2026-03-08T13:57:07Z</time>
	</wpt>
	<wpt lat="59.77329739412012" lon="17.643995144491495">
		<ele>34.25435558706522</ele>
		<time>2026-03-08T13:57:39Z</time>
	</wpt>
	<wpt lat="59.773307311098634" lon="17.643546550527034">
		<ele>36.215676572173834</ele>
		<time>2026-03-08T13:58:05Z</time>
	</wpt>
	<wpt lat="59.773265403590145" lon="17.643103486604968">
		<ele>36.06636621616781</ele>
		<time>2026-03-08T13:58:31Z</time>
	</wpt>
	<wpt lat="59.7731955766393" lon="17.642669226886383">
		<ele>33.90665533114225</ele>
		<time>2026-03-08T13:59:30Z</time>
	</wpt>
	<wpt lat="59.77299782687585" lon="17.642419040115648">
		<ele>34.76522074453533</ele>
		<time>2026-03-08T14:00:18Z</time>
	</wpt>
	<wpt lat="59.77291853600874" lon="17.64199148855876">
		<ele>32.64243746548891</ele>
		<time>2026-03-08T14:00:50Z</time>
	</wpt>
	<wpt lat="59.77275071696353" lon="17.641686818042835">
		<ele>30.609670807607472</ele>
		<time>2026-03-08T14:01:09Z</time>
	</wpt>
	<wpt lat="59.77260029775004" lon="17.64132679516161">
		<ele>28.203293749131262</ele>
		<time>2026-03-08T14:01:34Z</time>
	</wpt>
	<wpt lat="59.772426935294085" lon="17.641040834204325">
		<ele>24.970926956273615</ele>
		<time>2026-03-08T14:01:54Z</time>
	</wpt>
	<wpt lat="59.77224331663922" lon="17.64075931309196">
		<ele>22.38446233421564</ele>
		<time>2026-03-08T14:02:15Z</time>
	</wpt>
	<wpt lat="59.77205478171295" lon="17.640513793023786">
		<ele>19.907285251654685</ele>
		<time>2026-03-08T14:03:09Z</time>
	</wpt>
	<wpt lat="59.77187686798819" lon="17.640237327910935">
		<ele>18.65953351277858</ele>
		<time>2026-03-08T14:03:35Z</time>
	</wpt>
	<wpt lat="59.771740184796876" lon="17.63988207652762">
		<ele>16.93043743725866</ele>
		<time>2026-03-08T14:04:08Z</time>
	</wpt>
	<wpt lat="59.7716860472561" lon="17.639440633286565">
		<ele>12.82607987523079</ele>
		<time>2026-03-08T14:04:34Z</time>
	</wpt>
	<wpt lat="59.771686230335575" lon="17.63899200608366">
		<ele>13.868392268195748</ele>
		<time>2026-03-08T14:06:48Z</time>
	</wpt>
	<wpt lat="59.77153373446473" lon="17.63865804480192">
		<ele>16.548001075163484</ele>
		<time>2026-03-08T14:09:03Z</time>
	</wpt>
	<wpt lat="59.77155221721466" lon="17.63821414369397">
		<ele>19.478621285408735</ele>
		<time>2026-03-08T14:10:49Z</time>
	</wpt>
	<wpt lat="59.77174848174086" lon="17.63797046340251">
		<ele>15.478793236427009</ele>
		<time>2026-03-08T14:11:53Z</time>
	</wpt>
	<wpt lat="59.77195001634273" lon="17.63774755373146">
		<ele>15.9340616511181</ele>
		<time>2026-03-08T14:12:25Z</time>
	</wpt>
	<wpt lat="59.772146019134" lon="17.63751720873992">
		<ele>13.102192407473922</ele>
		<time>2026-03-08T14:12:42Z</time>
	</wpt>
	<wpt lat="59.772199585873835" lon="17.63707508451437">
		<ele>12.37684883363545</ele>
		<time>2026-03-08T14:13:08Z</time>
	</wpt>
	<wpt lat="59.772182352473266" lon="17.636624990354868">
		<ele>13.346380639821291</ele>
		<time>2026-03-08T14:13:35Z</time>
	</wpt>
	<wpt lat="59.772131559766954" lon="17.636187439217494">
		<ele>13.369587163440883</ele>
		<time>2026-03-08T14:14:00Z</time>
	</wpt>
	<wpt lat="59.772127843955474" lon="17.635727148985993">
		<ele>10.452049071900547</ele>
		<time>2026-03-08T14:14:26Z</time>
	</wpt>
	<wpt lat="59.77224079457345" lon="17.63533624126312">
		<ele>2.2520155319944024</ele>
		<time>2026-03-08T14:14:55Z</time>
	</wpt>
	<wpt lat="59.77238266492751" lon="17.634970248362432">
		<ele>1.2569700479507446</ele>
		<time>2026-03-08T14:15:20Z</time>
	</wpt>
	<wpt lat="59.77225955288194" lon="17.635362048714143">
		<ele>1.8454900505021214</ele>
		<time>2026-03-08T14:21:31Z</time>
	</wpt>
	<wpt lat="59.772104918940165" lon="17.635687107713522">
		<ele>7.125248984433711</ele>
		<time>2026-03-08T14:22:00Z</time>
	</wpt>
	<wpt lat="59.771882861909745" lon="17.63557046517269">
		<ele>11.479019738733768</ele>
		<time>2026-03-08T14:22:31Z</time>
	</wpt>
	<wpt lat="59.77169177188507" lon="17.63532734183298">
		<ele>9.597360957413912</ele>
		<time>2026-03-08T14:23:28Z</time>
	</wpt>
	<wpt lat="59.77152812167539" lon="17.635011537019142">
		<ele>8.844367197714746</ele>
		<time>2026-03-08T14:23:57Z</time>
	</wpt>
	<wpt lat="59.771342185482354" lon="17.634749412391024">
		<ele>9.708049061708152</ele>
		<time>2026-03-08T14:24:22Z</time>
	</wpt>
	<wpt lat="59.77122201183191" lon="17.634364642911763">
		<ele>5.827156308107078</ele>
		<time>2026-03-08T14:26:08Z</time>
	</wpt>
	<wpt lat="59.77100791989319" lon="17.634211022384466">
		<ele>4.12246045190841</ele>
		<time>2026-03-08T14:27:25Z</time>
	</wpt>
	<wpt lat="59.770837741981346" lon="17.63390663799442">
		<ele>9.04033296275884</ele>
		<time>2026-03-08T14:28:11Z</time>
	</wpt>
	<wpt lat="59.770641035664184" lon="17.633638867539478">
		<ele>4.363985906355083</ele>
		<time>2026-03-08T14:28:33Z</time>
	</wpt>
	<wpt lat="59.7704166449741" lon="17.633627938879545">
		<ele>8.370528931729496</ele>
		<time>2026-03-08T14:29:06Z</time>
	</wpt>
	<wpt lat="59.77019208766665" lon="17.633707577210874">
		<ele>10.563096285797656</ele>
		<time>2026-03-08T14:30:34Z</time>
	</wpt>
	<wpt lat="59.76995824136721" lon="17.633748233642912">
		<ele>12.505229177884758</ele>
		<time>2026-03-08T14:31:08Z</time>
	</wpt>
	<wpt lat="59.7697323340602" lon="17.633714571347962">
		<ele>10.448728604242206</ele>
		<time>2026-03-08T14:32:05Z</time>
	</wpt>
	<wpt lat="59.76950282751319" lon="17.63366517734979">
		<ele>12.41960458829999</ele>
		<time>2026-03-08T14:32:32Z</time>
	</wpt>
	<wpt lat="59.76927869705294" lon="17.63359831936042">
		<ele>12.126410056836903</ele>
		<time>2026-03-08T14:32:53Z</time>
	</wpt>
	<wpt lat="59.76905334740819" lon="17.633551447514183">
		<ele>11.314422043971717</ele>
		<time>2026-03-08T14:33:17Z</time>
	</wpt>
	<wpt lat="59.768841096014896" lon="17.633360530761173">
		<ele>12.48210380692035</ele>
		<time>2026-03-08T14:33:47Z</time>
	</wpt>
	<wpt lat="59.76861606119001" lon="17.633352806762833">
		<ele>15.493814974091947</ele>
		<time>2026-03-08T14:34:27Z</time>
	</wpt>
	<wpt lat="59.76839605486598" lon="17.633253760701166">
		<ele>18.662444706074893</ele>
		<time>2026-03-08T14:35:13Z</time>
	</wpt>
	<wpt lat="59.76819927128108" lon="17.63302946963381">
		<ele>19.139283704571426</ele>
		<time>2026-03-08T14:35:45Z</time>
	</wpt>
	<wpt lat="59.768011849592334" lon="17.63277153879798">
		<ele>21.331665345467627</ele>
		<time>2026-03-08T14:36:08Z</time>
	</wpt>
	<wpt lat="59.76797189504174" lon="17.63231632147676">
		<ele>15.471095792017877</ele>
		<time>2026-03-08T14:36:33Z</time>
	</wpt>
	<wpt lat="59.76793929983813" lon="17.63187223416698">
		<ele>13.22858146391809</ele>
		<time>2026-03-08T14:39:17Z</time>
	</wpt>
	<wpt lat="59.76775628085991" lon="17.631587567571678">
		<ele>14.69621448777616</ele>
		<time>2026-03-08T14:40:50Z</time>
	</wpt>
	<wpt lat="59.76763842025815" lon="17.631196532578553">
		<ele>15.216153085231781</ele>
		<time>2026-03-08T14:41:20Z</time>
	</wpt>
	<wpt lat="59.76757979810828" lon="17.63074796269617">
		<ele>13.403409209102392</ele>
		<time>2026-03-08T14:41:45Z</time>
	</wpt>
	<wpt lat="59.76753859603235" lon="17.630294674506857">
		<ele>8.344773845747113</ele>
		<time>2026-03-08T14:42:16Z</time>
	</wpt>
	<wpt lat="59.76737826250012" lon="17.629978834708822">
		<ele>8.704335745424032</ele>
		<time>2026-03-08T14:42:39Z</time>
	</wpt>
	<wpt lat="59.76718426597113" lon="17.62971412766543">
		<ele>5.3650722885504365</ele>
		<time>2026-03-08T14:43:03Z</time>
	</wpt>
	<wpt lat="59.76695355122774" lon="17.62964286922265">
		<ele>5.430998099036515</ele>
		<time>2026-03-08T14:43:25Z</time>
	</wpt>
	<wpt lat="59.76672482068816" lon="17.629610329618824">
		<ele>5.612557223066688</ele>
		<time>2026-03-08T14:43:46Z</time>
	</wpt>
	<wpt lat="59.76650227167259" lon="17.62972423609305">
		<ele>6.864074382930994</ele>
		<time>2026-03-08T14:44:30Z</time>
	</wpt>
	<wpt lat="59.76631777379008" lon="17.629991407799217">
		<ele>7.798733499832451</ele>
		<time>2026-03-08T14:45:00Z</time>
	</wpt>
	<wpt lat="59.76613100728585" lon="17.630240520767043">
		<ele>6.8655631029978395</ele>
		<time>2026-03-08T14:45:26Z</time>
	</wpt>
	<wpt lat="59.765923230954805" lon="17.63045389244074">
		<ele>9.294956042431295</ele>
		<time>2026-03-08T14:45:50Z</time>
	</wpt>
	<wpt lat="59.76570480280192" lon="17.630600899258113">
		<ele>7.548971490934491</ele>
		<time>2026-03-08T14:46:09Z</time>
	</wpt>
	<wpt lat="59.76548958582313" lon="17.630759409850665">
		<ele>8.902058389037848</ele>
		<time>2026-03-08T14:46:35Z</time>
	</wpt>
	<wpt lat="59.76529099625544" lon="17.630973044479624">
		<ele>5.76815849263221</ele>
		<time>2026-03-08T14:46:57Z</time>
	</wpt>
	<wpt lat="59.76506470387761" lon="17.63089806450644">
		<ele>3.850537920370698</ele>
		<time>2026-03-08T14:54:04Z</time>
	</wpt>
	<wpt lat="59.7650282868822" lon="17.631351926584596">
		<ele>5.394650145433843</ele>
		<time>2026-03-08T14:56:04Z</time>
	</wpt>
	<wpt lat="59.76480740147885" lon="17.631442769876333">
		<ele>8.941181850619614</ele>
		<time>2026-03-08T14:56:32Z</time>
	</wpt>
	<wpt lat="59.764577783720306" lon="17.631463592642724">
		<ele>9.285673168487847</ele>
		<time>2026-03-08T14:57:00Z</time>
	</wpt>
	<wpt lat="59.76437071617035" lon="17.631287693638832">
		<ele>10.02273663226515</ele>
		<time>2026-03-08T14:57:36Z</time>
	</wpt>
	<wpt lat="59.76416523440957" lon="17.631085252183038">
		<ele>9.844550012610853</ele>
		<time>2026-03-08T14:58:24Z</time>
	</wpt>
	<wpt lat="59.76396494045814" lon="17.630877713716995">
		<ele>7.721492218784988</ele>
		<time>2026-03-08T14:59:03Z</time>
	</wpt>
	<wpt lat="59.76376108156627" lon="17.630691042086905">
		<ele>5.719262891449034</ele>
		<time>2026-03-08T14:59:23Z</time>
	</wpt>
	<wpt lat="59.76353798784801" lon="17.630571141086154">
		<ele>6.355800922960043</ele>
		<time>2026-03-08T14:59:49Z</time>
	</wpt>
	<wpt lat="59.76330963183046" lon="17.630505348336175">
		<ele>4.869519002735615</ele>
		<time>2026-03-08T15:00:14Z</time>
	</wpt>
	<wpt lat="59.76310340300886" lon="17.630694366528235">
		<ele>6.08966142963618</ele>
		<time>2026-03-08T15:00:41Z</time>
	</wpt>
	<wpt lat="59.762930580146616" lon="17.630992404722555">
		<ele>6.402872623875737</ele>
		<time>2026-03-08T15:01:10Z</time>
	</wpt>
	<wpt lat="59.76276428166021" lon="17.63131442838264">
		<ele>6.158660723827779</ele>
		<time>2026-03-08T15:01:44Z</time>
	</wpt>
	<wpt lat="59.762603315845936" lon="17.631640702934334">
		<ele>5.209621272981167</ele>
		<time>2026-03-08T15:02:11Z</time>
	</wpt>
	<wpt lat="59.7624191774272" lon="17.63194022770773">
		<ele>6.906723877415061</ele>
		<time>2026-03-08T15:02:39Z</time>
	</wpt>
	<wpt lat="59.76223663243056" lon="17.6322198262389">
		<ele>6.413364005275071</ele>
		<time>2026-03-08T15:03:05Z</time>
	</wpt>
	<wpt lat="59.762077430606105" lon="17.63254177928662">
		<ele>5.451866286806762</ele>
		<time>2026-03-08T15:03:36Z</time>
	</wpt>
	<wpt lat="59.76199098160246" lon="17.63295276797743">
		<ele>4.712209953926504</ele>
		<time>2026-03-08T15:04:39Z</time>
	</wpt>
	<wpt lat="59.76183957929799" lon="17.63331208251053">
		<ele>4.370075155980885</ele>
		<time>2026-03-08T15:05:07Z</time>
	</wpt>
	<wpt lat="59.761713197962024" lon="17.633706849075004">
		<ele>5.109466348774731</ele>
		<time>2026-03-08T15:05:35Z</time>
	</wpt>
	<wpt lat="59.76154979820179" lon="17.63403317114735">
		<ele>4.15225179027766</ele>
		<time>2026-03-08T15:06:04Z</time>
	</wpt>
	<wpt lat="59.7613943887677" lon="17.634377932719822">
		<ele>4.168603973463178</ele>
		<time>2026-03-08T15:06:30Z</time>
	</wpt>
	<wpt lat="59.76127228102768" lon="17.634756535800097">
		<ele>3.5708255814388394</ele>
		<time>2026-03-08T15:06:53Z</time>
	</wpt>
	<wpt lat="59.76114963579905" lon="17.635137598890616">
		<ele>4.300510340370238</ele>
		<time>2026-03-08T15:07:18Z</time>
	</wpt>
	<wpt lat="59.76102250295803" lon="17.635526013159293">
		<ele>4.841119354590774</ele>
		<time>2026-03-08T15:07:47Z</time>
	</wpt>
	<wpt lat="59.76087589593917" lon="17.635883330289758">
		<ele>4.257544361054897</ele>
		<time>2026-03-08T15:08:28Z</time>
	</wpt>
	<wpt lat="59.760656554768886" lon="17.635988620318702">
		<ele>1.4463089415803552</ele>
		<time>2026-03-08T15:09:51Z</time>
	</wpt>
	<wpt lat="59.76087269784494" lon="17.636109481493065">
		<ele>3.73458409588784</ele>
		<time>2026-03-08T15:11:29Z</time>
	</wpt>
	<wpt lat="59.76077412801887" lon="17.636522652840064">
		<ele>6.569817271083593</ele>
		<time>2026-03-08T15:14:03Z</time>
	</wpt>
	<wpt lat="59.76069092341085" lon="17.63696119963671">
		<ele>8.216732239350677</ele>
		<time>2026-03-08T15:14:56Z</time>
	</wpt>
	<wpt lat="59.76089743487576" lon="17.63676301848891">
		<ele>7.98295212443918</ele>
		<time>2026-03-08T15:16:51Z</time>
	</wpt>
	<wpt lat="59.76112440301461" lon="17.636727596012502">
		<ele>12.032071897760034</ele>
		<time>2026-03-08T15:17:29Z</time>
	</wpt>
	<wpt lat="59.76135232691466" lon="17.63669451688841">
		<ele>14.633181978948414</ele>
		<time>2026-03-08T15:18:02Z</time>
	</wpt>
	<wpt lat="59.76156095280505" lon="17.636859702395615">
		<ele>17.549064761027694</ele>
		<time>2026-03-08T15:18:39Z</time>
	</wpt>
	<wpt lat="59.76177072409065" lon="17.637046460195847">
		<ele>18.739261406473815</ele>
		<time>2026-03-08T15:19:25Z</time>
	</wpt>
	<wpt lat="59.761978157521675" lon="17.637244380375023">
		<ele>20.086325160227716</ele>
		<time>2026-03-08T15:19:53Z</time>
	</wpt>
	<wpt lat="59.76219311890737" lon="17.637424264397584">
		<ele>17.115528426133096</ele>
		<time>2026-03-08T15:20:25Z</time>
	</wpt>
	<wpt lat="59.762383527289316" lon="17.637666640049694">
		<ele>17.781234708614647</ele>
		<time>2026-03-08T15:21:04Z</time>
	</wpt>
	<wpt lat="59.76248052282619" lon="17.63807429114337">
		<ele>17.93530921358615</ele>
		<time>2026-03-08T15:21:41Z</time>
	</wpt>
	<wpt lat="59.7626738790245" lon="17.63830827182696">
		<ele>17.535391246899962</ele>
		<time>2026-03-08T15:22:17Z</time>
	</wpt>
	<wpt lat="59.76288543187867" lon="17.638482695402242">
		<ele>14.8865025062114</ele>
		<time>2026-03-08T15:22:59Z</time>
	</wpt>
	<wpt lat="59.763091851690845" lon="17.638663251427317">
		<ele>14.702870963141322</ele>
		<time>2026-03-08T15:23:28Z</time>
	</wpt>
	<wpt lat="59.763295284950246" lon="17.638869597134974">
		<ele>15.761777716688812</ele>
		<time>2026-03-08T15:23:57Z</time>
	</wpt>
	<wpt lat="59.76351847619434" lon="17.63896781449808">
		<ele>18.858484930358827</ele>
		<time>2026-03-08T15:24:34Z</time>
	</wpt>
	<wpt lat="59.7637307824319" lon="17.63911613462019">
		<ele>21.449829006567597</ele>
		<time>2026-03-08T15:25:03Z</time>
	</wpt>
	<wpt lat="59.763862363325984" lon="17.638752850436774">
		<ele>22.906804494559765</ele>
		<time>2026-03-08T15:26:19Z</time>
	</wpt>
	<wpt lat="59.76407871021283" lon="17.638872918379516">
		<ele>24.146800708025694</ele>
		<time>2026-03-08T15:27:02Z</time>
	</wpt>
	<wpt lat="59.76425970157469" lon="17.639149497426928">
		<ele>25.925221536308527</ele>
		<time>2026-03-08T15:27:34Z</time>
	</wpt>
	<wpt lat="59.764456713111535" lon="17.639374294507874">
		<ele>28.103807487525046</ele>
		<time>2026-03-08T15:28:07Z</time>
	</wpt>
	<wpt lat="59.764675260867925" lon="17.639547382946372">
		<ele>31.041632456704974</ele>
		<time>2026-03-08T15:28:41Z</time>
	</wpt>
	<wpt lat="59.764875411518105" lon="17.63975089705824">
		<ele>28.546363444067538</ele>
		<time>2026-03-08T15:29:26Z</time>
	</wpt>
	<wpt lat="59.765079910533764" lon="17.639938455241886">
		<ele>31.794616403989494</ele>
		<time>2026-03-08T15:30:09Z</time>
	</wpt>
	<wpt lat="59.76528970165241" lon="17.64009695572416">
		<ele>35.8582454463467</ele>
		<time>2026-03-08T15:31:02Z</time>
	</wpt>
	<wpt lat="59.76551615770821" lon="17.640084705760966">
		<ele>38.721344850957394</ele>
		<time>2026-03-08T15:31:56Z</time>
	</wpt>
	<wpt lat="59.76566686158674" lon="17.64043304927294">
		<ele>36.91932634450495</ele>
		<time>2026-03-08T15:32:55Z</time>
	</wpt>
	<wpt lat="59.76576941367634" lon="17.64083399051285">
		<ele>35.310549394227564</ele>
		<time>2026-03-08T15:33:28Z</time>
	</wpt>
	<wpt lat="59.76594727763652" lon="17.641127734724922">
		<ele>34.895411156117916</ele>
		<time>2026-03-08T15:34:14Z</time>
	</wpt>
	<wpt lat="59.766160891486656" lon="17.64128091854826">
		<ele>34.08109166659415</ele>
		<time>2026-03-08T15:34:58Z</time>
	</wpt>
	<wpt lat="59.766330325561654" lon="17.640969564648927">
		<ele>32.99780389294028</ele>
		<time>2026-03-08T15:35:24Z</time>
	</wpt>
	<wpt lat="59.766488068700795" lon="17.640649268921525">
		<ele>32.98774790670723</ele>
		<time>2026-03-08T15:36:34Z</time>
	</wpt>
	<wpt lat="59.766657365292694" lon="17.64035440349385">
		<ele>31.538125281222165</ele>
		<time>2026-03-08T15:37:00Z</time>
	</wpt>
	<wpt lat="59.76686826364398" lon="17.64014987312697">
		<ele>32.27276072651148</ele>
		<time>2026-03-08T15:37:31Z</time>
	</wpt>
	<wpt lat="59.76708841887652" lon="17.640037088556628">
		<ele>34.18930345028639</ele>
		<time>2026-03-08T15:38:00Z</time>
	</wpt>
	<wpt lat="59.76731308599993" lon="17.64001025573761">
		<ele>35.88930595945567</ele>
		<time>2026-03-08T15:38:58Z</time>
	</wpt>
	<wpt lat="59.7675145772038" lon="17.640235941991307">
		<ele>35.990187864750624</ele>
		<time>2026-03-08T15:39:29Z</time>
	</wpt>
	<wpt lat="59.767746104934616" lon="17.640285147291856">
		<ele>35.73658557422459</ele>
		<time>2026-03-08T15:39:59Z</time>
	</wpt>
	<wpt lat="59.767973435867944" lon="17.64034902308738">
		<ele>37.963875407353044</ele>
		<time>2026-03-08T15:40:33Z</time>
	</wpt>
	<wpt lat="59.768195982213705" lon="17.64041309761985">
		<ele>41.88439882174134</ele>
		<time>2026-03-08T15:41:14Z</time>
	</wpt>
	<wpt lat="59.76840340621762" lon="17.640592223366028">
		<ele>41.167799110524356</ele>
		<time>2026-03-08T15:42:00Z</time>
	</wpt>
	<wpt lat="59.7686241978325" lon="17.640735960560818">
		<ele>43.5050128987059</ele>
		<time>2026-03-08T15:48:50Z</time>
	</wpt>
	<wpt lat="59.76882644927831" lon="17.64095923181424">
		<ele>47.16634649783373</ele>
		<time>2026-03-08T15:49:24Z</time>
	</wpt>
	<wpt lat="59.76906067645674" lon="17.64098033888454">
		<ele>46.429401732981205</ele>
		<time>2026-03-08T15:49:47Z</time>
	</wpt>
	<wpt lat="59.7692849660063" lon="17.64087054394594">
		<ele>46.99794230423868</ele>
		<time>2026-03-08T15:50:15Z</time>
	</wpt>
	<wpt lat="59.76945699051541" lon="17.64058143463915">
		<ele>45.592480891384184</ele>
		<time>2026-03-08T15:50:41Z</time>
	</wpt>
	<wpt lat="59.76960170573485" lon="17.640237234032924">
		<ele>41.321931106969714</ele>
		<time>2026-03-08T15:51:03Z</time>
	</wpt>
	<wpt lat="59.76970500574299" lon="17.63984184533621">
		<ele>42.96147204283625</ele>
		<time>2026-03-08T15:51:34Z</time>
	</wpt>
	<wpt lat="59.76993254947788" lon="17.63985363554283">
		<ele>40.26806728169322</ele>
		<time>2026-03-08T15:52:52Z</time>
	</wpt>
	<wpt lat="59.77015919437936" lon="17.639815669996505">
		<ele>38.25019546132535</ele>
		<time>2026-03-08T15:53:39Z</time>
	</wpt>
	<wpt lat="59.77038667379599" lon="17.639751194791835">
		<ele>31.610536804422736</ele>
		<time>2026-03-08T15:54:53Z</time>
	</wpt>
	<wpt lat="59.77060246215057" lon="17.639893561656493">
		<ele>30.55192745756358</ele>
		<time>2026-03-08T15:55:53Z</time>
	</wpt>
	<wpt lat="59.770809180851415" lon="17.64008500368413">
		<ele>27.995433509349823</ele>
		<time>2026-03-08T15:56:22Z</time>
	</wpt>
	<wpt lat="59.77100055676221" lon="17.64032695943433">
		<ele>27.13263824954629</ele>
		<time>2026-03-08T15:56:48Z</time>
	</wpt>
	<wpt lat="59.771190946526424" lon="17.640575828887144">
		<ele>27.921033673919737</ele>
		<time>2026-03-08T15:57:09Z</time>
	</wpt>
	<wpt lat="59.77135618825098" lon="17.640888830289086">
		<ele>28.51584078092128</ele>
		<time>2026-03-08T15:57:31Z</time>
	</wpt>
	<wpt lat="59.77152292492424" lon="17.64122186618405">
		<ele>31.742920553311706</ele>
		<time>2026-03-08T15:57:57Z</time>
	</wpt>
	<wpt lat="59.7715932703352" lon="17.64164619680183">
		<ele>33.687521420419216</ele>
		<time>2026-03-08T15:58:25Z</time>
	</wpt>
	<wpt lat="59.77150539963686" lon="17.642074671349203">
		<ele>34.60666813887656</ele>
		<time>2026-03-08T15:58:46Z</time>
	</wpt>
	<wpt lat="59.77148624417221" lon="17.642524090502246">
		<ele>34.86761385947466</ele>
		<time>2026-03-08T15:59:09Z</time>
	</wpt>
	<wpt lat="59.771492470067756" lon="17.642985779299853">
		<ele>34.730230489745736</ele>
		<time>2026-03-08T15:59:33Z</time>
	</wpt>
	<wpt lat="59.771575815882315" lon="17.64340006316244">
		<ele>33.36688919086009</ele>
		<time>2026-03-08T15:59:55Z</time>
	</wpt>
	<wpt lat="59.771703012216484" lon="17.64377163500602">
		<ele>33.366924363188446</ele>
		<time>2026-03-08T16:00:15Z</time>
	</wpt>
	<wpt lat="59.77187039482229" lon="17.644069974587367">
		<ele>33.159572154283524</ele>
		<time>2026-03-08T16:00:36Z</time>
	</wpt>
	<wpt lat="59.77206483373019" lon="17.644298578161713">
		<ele>30.325855483300984</ele>
		<time>2026-03-08T16:01:00Z</time>
	</wpt>
	<wpt lat="59.77228256706873" lon="17.644451703500028">
		<ele>31.867045713588595</ele>
		<time>2026-03-08T16:01:21Z</time>
	</wpt>
	<wpt lat="59.772503093548366" lon="17.64453478675006">
		<ele>32.33072558790445</ele>
		<time>2026-03-08T16:01:43Z</time>
	</wpt>
	<wpt lat="59.772728598246324" lon="17.644625357819002">
		<ele>32.2839913032949</ele>
		<time>2026-03-08T16:02:07Z</time>
	</wpt>
	<wpt lat="59.77296320678815" lon="17.644640569590358">
		<ele>31.14558362402022</ele>
		<time>2026-03-08T16:02:30Z</time>
	</wpt>
	<wpt lat="59.77319199954527" lon="17.644727834780554">
		<ele>29.053373326547444</ele>
		<time>2026-03-08T16:02:51Z</time>
	</wpt>
	<wpt lat="59.773330150562124" lon="17.64508153340158">
		<ele>28.578035481274128</ele>
		<time>2026-03-08T16:03:35Z</time>
	</wpt>
	<wpt lat="59.77322932550432" lon="17.64548412081032">
		<ele>31.253426283597946</ele>
		<time>2026-03-08T16:04:07Z</time>
	</wpt>
	<wpt lat="59.77323886071372" lon="17.645945879450903">
		<ele>30.5075504751876</ele>
		<time>2026-03-08T16:04:33Z</time>
	</wpt>
	<wpt lat="59.773190390433726" lon="17.646400742288563">
		<ele>32.0882258862257</ele>
		<time>2026-03-08T16:04:56Z</time>
	</wpt>
	<wpt lat="59.773124817576935" lon="17.646830760648022">
		<ele>34.752871204167604</ele>
		<time>2026-03-08T16:05:23Z</time>
	</wpt>
	<wpt lat="59.7731763797567" lon="17.647267817824574">
		<ele>37.248878919519484</ele>
		<time>2026-03-08T16:05:59Z</time>
	</wpt>
	<wpt lat="59.773182266978864" lon="17.64771779310576">
		<ele>39.525046839378774</ele>
		<time>2026-03-08T16:06:29Z</time>
	</wpt>
	<wpt lat="59.77313886241668" lon="17.648162214368046">
		<ele>40.90242390241474</ele>
		<time>2026-03-08T16:07:03Z</time>
	</wpt>
	<wpt lat="59.77300225682111" lon="17.648535140558717">
		<ele>44.55449169781059</ele>
		<time>2026-03-08T16:07:40Z</time>
	</wpt>
	<wpt lat="59.773066089064955" lon="17.64896938705407">
		<ele>44.332018529996276</ele>
		<time>2026-03-08T16:08:04Z</time>
	</wpt>
	<wpt lat="59.773003864284554" lon="17.649401207196956">
		<ele>45.216695797629654</ele>
		<time>2026-03-08T16:08:29Z</time>
	</wpt>
	<wpt lat="59.772858145013345" lon="17.64975251877876">
		<ele>48.126425811089575</ele>
		<time>2026-03-08T16:09:01Z</time>
	</wpt>
	<wpt lat="59.77271827349198" lon="17.650108511521076">
		<ele>45.16225086711347</ele>
		<time>2026-03-08T16:09:36Z</time>
	</wpt>
	<wpt lat="59.7725642408548" lon="17.650433889253424">
		<ele>46.4643879244104</ele>
		<time>2026-03-08T16:10:05Z</time>
	</wpt>
	<wpt lat="59.77238435381957" lon="17.650715369412055">
		<ele>48.26779575459659</ele>
		<time>2026-03-08T16:10:30Z</time>
	</wpt>
	<wpt lat="59.77218071645115" lon="17.65091873793017">
		<ele>46.57394036650658</ele>
		<time>2026-03-08T16:10:59Z</time>
	</wpt>
	<wpt lat="59.771966390326405" lon="17.651076114635114">
		<ele>45.6437381664291</ele>
		<time>2026-03-08T16:11:25Z</time>
	</wpt>
	<wpt lat="59.77175574801491" lon="17.651259537440154">
		<ele>45.81359986960888</ele>
		<time>2026-03-08T16:12:19Z</time>
	</wpt>
	<wpt lat="59.771538547366234" lon="17.651408296180715">
		<ele>44.90029008965939</ele>
		<time>2026-03-08T16:12:40Z</time>
	</wpt>
	<wpt lat="59.77133245131146" lon="17.6515898453595">
		<ele>43.99609699193388</ele>
		<time>2026-03-08T16:13:04Z</time>
	</wpt>
	<wpt lat="59.77114753328081" lon="17.651850873668216">
		<ele>40.99808023683727</ele>
		<time>2026-03-08T16:13:25Z</time>
	</wpt>
	<wpt lat="59.77099560958838" lon="17.65217995568711">
		<ele>39.87898859102279</ele>
		<time>2026-03-08T16:13:47Z</time>
	</wpt>
	<wpt lat="59.77082741184992" lon="17.652489848001544">
		<ele>38.92107373196632</ele>
		<time>2026-03-08T16:14:10Z</time>
	</wpt>
	<wpt lat="59.770681227242406" lon="17.65283236076632">
		<ele>40.00560864247382</ele>
		<time>2026-03-08T16:14:32Z</time>
	</wpt>
	<wpt lat="59.770467502505895" lon="17.653018675313973">
		<ele>38.8349350001663</ele>
		<time>2026-03-08T16:14:52Z</time>
	</wpt>
	<wpt lat="59.77024457742331" lon="17.653080046963154">
		<ele>37.55266766808927</ele>
		<time>2026-03-08T16:15:16Z</time>
	</wpt>
	<wpt lat="59.77003343632543" lon="17.65289893179596">
		<ele>36.66424995101988</ele>
		<time>2026-03-08T16:15:47Z</time>
	</wpt>
	<wpt lat="59.7698084229055" lon="17.652845882886943">
		<ele>36.51618831139058</ele>
		<time>2026-03-08T16:16:07Z</time>
	</wpt>
	<wpt lat="59.7697240267376" lon="17.652384044831066">
		<ele>35.48287117667496</ele>
		<time>2026-03-08T16:18:01Z</time>
	</wpt>
	<wpt lat="59.76982448688599" lon="17.652018509899666">
		<ele>35.14498551469296</ele>
		<time>2026-03-08T16:18:15Z</time>
	</wpt>
	<trk>
		<trkseg>
			<trkpt lat="59.77320297782468" lon="17.64619905063767">
				<ele>34.13122367858887</ele>
				<time>2026-03-08T13:54:04Z</time>
			</trkpt>
			<trkpt lat="59.77326535904565" lon="17.645771604796753">
				<ele>31.825559489428997</ele>
				<time>2026-03-08T13:55:12Z</time>
			</trkpt>
			<trkpt lat="59.77330855991347" lon="17.64533226960863">
				<ele>30.163416060619056</ele>
				<time>2026-03-08T13:55:42Z</time>
			</trkpt>
			<trkpt lat="59.77333691238592" lon="17.644881580381647">
				<ele>31.60087828617543</ele>
				<time>2026-03-08T13:56:04Z</time>
			</trkpt>
			<trkpt lat="59.773269358947005" lon="17.64444811095819">
				<ele>29.640068037435412</ele>
				<time>2026-03-08T13:57:07Z</time>
			</trkpt>
			<trkpt lat="59.77329739412012" lon="17.643995144491495">
				<ele>34.25435558706522</ele>
				<time>2026-03-08T13:57:39Z</time>
			</trkpt>
			<trkpt lat="59.773307311098634" lon="17.643546550527034">
				<ele>36.215676572173834</ele>
				<time>2026-03-08T13:58:05Z</time>
			</trkpt>
			<trkpt lat="59.773265403590145" lon="17.643103486604968">
				<ele>36.06636621616781</ele>
				<time>2026-03-08T13:58:31Z</time>
			</trkpt>
			<trkpt lat="59.7731955766393" lon="17.642669226886383">
				<ele>33.90665533114225</ele>
				<time>2026-03-08T13:59:30Z</time>
			</trkpt>
			<trkpt lat="59.77299782687585" lon="17.642419040115648">
				<ele>34.76522074453533</ele>
				<time>2026-03-08T14:00:18Z</time>
			</trkpt>
			<trkpt lat="59.77291853600874" lon="17.64199148855876">
				<ele>32.64243746548891</ele>
				<time>2026-03-08T14:00:50Z</time>
			</trkpt>
			<trkpt lat="59.77275071696353" lon="17.641686818042835">
				<ele>30.609670807607472</ele>
				<time>2026-03-08T14:01:09Z</time>
			</trkpt>
			<trkpt lat="59.77260029775004" lon="17.64132679516161">
				<ele>28.203293749131262</ele>
				<time>2026-03-08T14:01:34Z</time>
			</trkpt>
			<trkpt lat="59.772426935294085" lon="17.641040834204325">
				<ele>24.970926956273615</ele>
				<time>2026-03-08T14:01:54Z</time>
			</trkpt>
			<trkpt lat="59.77224331663922" lon="17.64075931309196">
				<ele>22.38446233421564</ele>
				<time>2026-03-08T14:02:15Z</time>
			</trkpt>
			<trkpt lat="59.77205478171295" lon="17.640513793023786">
				<ele>19.907285251654685</ele>
				<time>2026-03-08T14:03:09Z</time>
			</trkpt>
			<trkpt lat="59.77187686798819" lon="17.640237327910935">
				<ele>18.65953351277858</ele>
				<time>2026-03-08T14:03:35Z</time>
			</trkpt>
			<trkpt lat="59.771740184796876" lon="17.63988207652762">
				<ele>16.93043743725866</ele>
				<time>2026-03-08T14:04:08Z</time>
			</trkpt>
			<trkpt lat="59.7716860472561" lon="17.639440633286565">
				<ele>12.82607987523079</ele>
				<time>2026-03-08T14:04:34Z</time>
			</trkpt>
			<trkpt lat="59.771686230335575" lon="17.63899200608366">
				<ele>13.868392268195748</ele>
				<time>2026-03-08T14:06:48Z</time>
			</trkpt>
			<trkpt lat="59.77153373446473" lon="17.63865804480192">
				<ele>16.548001075163484</ele>
				<time>2026-03-08T14:09:03Z</time>
			</trkpt>
			<trkpt lat="59.77155221721466" lon="17.63821414369397">
				<ele>19.478621285408735</ele>
				<time>2026-03-08T14:10:49Z</time>
			</trkpt>
			<trkpt lat="59.77174848174086" lon="17.63797046340251">
				<ele>15.478793236427009</ele>
				<time>2026-03-08T14:11:53Z</time>
			</trkpt>
			<trkpt lat="59.77195001634273" lon="17.63774755373146">
				<ele>15.9340616511181</ele>
				<time>2026-03-08T14:12:25Z</time>
			</trkpt>
			<trkpt lat="59.772146019134" lon="17.63751720873992">
				<ele>13.102192407473922</ele>
				<time>2026-03-08T14:12:42Z</time>
			</trkpt>
			<trkpt lat="59.772199585873835" lon="17.63707508451437">
				<ele>12.37684883363545</ele>
				<time>2026-03-08T14:13:08Z</time>
			</trkpt>
			<trkpt lat="59.772182352473266" lon="17.636624990354868">
				<ele>13.346380639821291</ele>
				<time>2026-03-08T14:13:35Z</time>
			</trkpt>
			<trkpt lat="59.772131559766954" lon="17.636187439217494">
				<ele>13.369587163440883</ele>
				<time>2026-03-08T14:14:00Z</time>
			</trkpt>
			<trkpt lat="59.772127843955474" lon="17.635727148985993">
				<ele>10.452049071900547</ele>
				<time>2026-03-08T14:14:26Z</time>
			</trkpt>
			<trkpt lat="59.77224079457345" lon="17.63533624126312">
				<ele>2.2520155319944024</ele>
				<time>2026-03-08T14:14:55Z</time>
			</trkpt>
			<trkpt lat="59.77238266492751" lon="17.634970248362432">
				<ele>1.2569700479507446</ele>
				<time>2026-03-08T14:15:20Z</time>
			</trkpt>
			<trkpt lat="59.77225955288194" lon="17.635362048714143">
				<ele>1.8454900505021214</ele>
				<time>2026-03-08T14:21:31Z</time>
			</trkpt>
			<trkpt lat="59.772104918940165" lon="17.635687107713522">
				<ele>7.125248984433711</ele>
				<time>2026-03-08T14:22:00Z</time>
			</trkpt>
			<trkpt lat="59.771882861909745" lon="17.63557046517269">
				<ele>11.479019738733768</ele>
				<time>2026-03-08T14:22:31Z</time>
			</trkpt>
			<trkpt lat="59.77169177188507" lon="17.63532734183298">
				<ele>9.597360957413912</ele>
				<time>2026-03-08T14:23:28Z</time>
			</trkpt>
			<trkpt lat="59.77152812167539" lon="17.635011537019142">
				<ele>8.844367197714746</ele>
				<time>2026-03-08T14:23:57Z</time>
			</trkpt>
			<trkpt lat="59.771342185482354" lon="17.634749412391024">
				<ele>9.708049061708152</ele>
				<time>2026-03-08T14:24:22Z</time>
			</trkpt>
			<trkpt lat="59.77122201183191" lon="17.634364642911763">
				<ele>5.827156308107078</ele>
				<time>2026-03-08T14:26:08Z</time>
			</trkpt>
			<trkpt lat="59.77100791989319" lon="17.634211022384466">
				<ele>4.12246045190841</ele>
				<time>2026-03-08T14:27:25Z</time>
			</trkpt>
			<trkpt lat="59.770837741981346" lon="17.63390663799442">
				<ele>9.04033296275884</ele>
				<time>2026-03-08T14:28:11Z</time>
			</trkpt>
			<trkpt lat="59.770641035664184" lon="17.633638867539478">
				<ele>4.363985906355083</ele>
				<time>2026-03-08T14:28:33Z</time>
			</trkpt>
			<trkpt lat="59.7704166449741" lon="17.633627938879545">
				<ele>8.370528931729496</ele>
				<time>2026-03-08T14:29:06Z</time>
			</trkpt>
			<trkpt lat="59.77019208766665" lon="17.633707577210874">
				<ele>10.563096285797656</ele>
				<time>2026-03-08T14:30:34Z</time>
			</trkpt>
			<trkpt lat="59.76995824136721" lon="17.633748233642912">
				<ele>12.505229177884758</ele>
				<time>2026-03-08T14:31:08Z</time>
			</trkpt>
			<trkpt lat="59.7697323340602" lon="17.633714571347962">
				<ele>10.448728604242206</ele>
				<time>2026-03-08T14:32:05Z</time>
			</trkpt>
			<trkpt lat="59.76950282751319" lon="17.63366517734979">
				<ele>12.41960458829999</ele>
				<time>2026-03-08T14:32:32Z</time>
			</trkpt>
			<trkpt lat="59.76927869705294" lon="17.63359831936042">
				<ele>12.126410056836903</ele>
				<time>2026-03-08T14:32:53Z</time>
			</trkpt>
			<trkpt lat="59.76905334740819" lon="17.633551447514183">
				<ele>11.314422043971717</ele>
				<time>2026-03-08T14:33:17Z</time>
			</trkpt>
			<trkpt lat="59.768841096014896" lon="17.633360530761173">
				<ele>12.48210380692035</ele>
				<time>2026-03-08T14:33:47Z</time>
			</trkpt>
			<trkpt lat="59.76861606119001" lon="17.633352806762833">
				<ele>15.493814974091947</ele>
				<time>2026-03-08T14:34:27Z</time>
			</trkpt>
			<trkpt lat="59.76839605486598" lon="17.633253760701166">
				<ele>18.662444706074893</ele>
				<time>2026-03-08T14:35:13Z</time>
			</trkpt>
			<trkpt lat="59.76819927128108" lon="17.63302946963381">
				<ele>19.139283704571426</ele>
				<time>2026-03-08T14:35:45Z</time>
			</trkpt>
			<trkpt lat="59.768011849592334" lon="17.63277153879798">
				<ele>21.331665345467627</ele>
				<time>2026-03-08T14:36:08Z</time>
			</trkpt>
			<trkpt lat="59.76797189504174" lon="17.63231632147676">
				<ele>15.471095792017877</ele>
				<time>2026-03-08T14:36:33Z</time>
			</trkpt>
			<trkpt lat="59.76793929983813" lon="17.63187223416698">
				<ele>13.22858146391809</ele>
				<time>2026-03-08T14:39:17Z</time>
			</trkpt>
			<trkpt lat="59.76775628085991" lon="17.631587567571678">
				<ele>14.69621448777616</ele>
				<time>2026-03-08T14:40:50Z</time>
			</trkpt>
			<trkpt lat="59.76763842025815" lon="17.631196532578553">
				<ele>15.216153085231781</ele>
				<time>2026-03-08T14:41:20Z</time>
			</trkpt>
			<trkpt lat="59.76757979810828" lon="17.63074796269617">
				<ele>13.403409209102392</ele>
				<time>2026-03-08T14:41:45Z</time>
			</trkpt>
			<trkpt lat="59.76753859603235" lon="17.630294674506857">
				<ele>8.344773845747113</ele>
				<time>2026-03-08T14:42:16Z</time>
			</trkpt>
			<trkpt lat="59.76737826250012" lon="17.629978834708822">
				<ele>8.704335745424032</ele>
				<time>2026-03-08T14:42:39Z</time>
			</trkpt>
			<trkpt lat="59.76718426597113" lon="17.62971412766543">
				<ele>5.3650722885504365</ele>
				<time>2026-03-08T14:43:03Z</time>
			</trkpt>
			<trkpt lat="59.76695355122774" lon="17.62964286922265">
				<ele>5.430998099036515</ele>
				<time>2026-03-08T14:43:25Z</time>
			</trkpt>
			<trkpt lat="59.76672482068816" lon="17.629610329618824">
				<ele>5.612557223066688</ele>
				<time>2026-03-08T14:43:46Z</time>
			</trkpt>
			<trkpt lat="59.76650227167259" lon="17.62972423609305">
				<ele>6.864074382930994</ele>
				<time>2026-03-08T14:44:30Z</time>
			</trkpt>
			<trkpt lat="59.76631777379008" lon="17.629991407799217">
				<ele>7.798733499832451</ele>
				<time>2026-03-08T14:45:00Z</time>
			</trkpt>
			<trkpt lat="59.76613100728585" lon="17.630240520767043">
				<ele>6.8655631029978395</ele>
				<time>2026-03-08T14:45:26Z</time>
			</trkpt>
			<trkpt lat="59.765923230954805" lon="17.63045389244074">
				<ele>9.294956042431295</ele>
				<time>2026-03-08T14:45:50Z</time>
			</trkpt>
			<trkpt lat="59.76570480280192" lon="17.630600899258113">
				<ele>7.548971490934491</ele>
				<time>2026-03-08T14:46:09Z</time>
			</trkpt>
			<trkpt lat="59.76548958582313" lon="17.630759409850665">
				<ele>8.902058389037848</ele>
				<time>2026-03-08T14:46:35Z</time>
			</trkpt>
			<trkpt lat="59.76529099625544" lon="17.630973044479624">
				<ele>5.76815849263221</ele>
				<time>2026-03-08T14:46:57Z</time>
			</trkpt>
			<trkpt lat="59.76506470387761" lon="17.63089806450644">
				<ele>3.850537920370698</ele>
				<time>2026-03-08T14:54:04Z</time>
			</trkpt>
			<trkpt lat="59.7650282868822" lon="17.631351926584596">
				<ele>5.394650145433843</ele>
				<time>2026-03-08T14:56:04Z</time>
			</trkpt>
			<trkpt lat="59.76480740147885" lon="17.631442769876333">
				<ele>8.941181850619614</ele>
				<time>2026-03-08T14:56:32Z</time>
			</trkpt>
			<trkpt lat="59.764577783720306" lon="17.631463592642724">
				<ele>9.285673168487847</ele>
				<time>2026-03-08T14:57:00Z</time>
			</trkpt>
			<trkpt lat="59.76437071617035" lon="17.631287693638832">
				<ele>10.02273663226515</ele>
				<time>2026-03-08T14:57:36Z</time>
			</trkpt>
			<trkpt lat="59.76416523440957" lon="17.631085252183038">
				<ele>9.844550012610853</ele>
				<time>2026-03-08T14:58:24Z</time>
			</trkpt>
			<trkpt lat="59.76396494045814" lon="17.630877713716995">
				<ele>7.721492218784988</ele>
				<time>2026-03-08T14:59:03Z</time>
			</trkpt>
			<trkpt lat="59.76376108156627" lon="17.630691042086905">
				<ele>5.719262891449034</ele>
				<time>2026-03-08T14:59:23Z</time>
			</trkpt>
			<trkpt lat="59.76353798784801" lon="17.630571141086154">
				<ele>6.355800922960043</ele>
				<time>2026-03-08T14:59:49Z</time>
			</trkpt>
			<trkpt lat="59.76330963183046" lon="17.630505348336175">
				<ele>4.869519002735615</ele>
				<time>2026-03-08T15:00:14Z</time>
			</trkpt>
			<trkpt lat="59.76310340300886" lon="17.630694366528235">
				<ele>6.08966142963618</ele>
				<time>2026-03-08T15:00:41Z</time>
			</trkpt>
			<trkpt lat="59.762930580146616" lon="17.630992404722555">
				<ele>6.402872623875737</ele>
				<time>2026-03-08T15:01:10Z</time>
			</trkpt>
			<trkpt lat="59.76276428166021" lon="17.63131442838264">
				<ele>6.158660723827779</ele>
				<time>2026-03-08T15:01:44Z</time>
			</trkpt>
			<trkpt lat="59.762603315845936" lon="17.631640702934334">
				<ele>5.209621272981167</ele>
				<time>2026-03-08T15:02:11Z</time>
			</trkpt>
			<trkpt lat="59.7624191774272" lon="17.63194022770773">
				<ele>6.906723877415061</ele>
				<time>2026-03-08T15:02:39Z</time>
			</trkpt>
			<trkpt lat="59.76223663243056" lon="17.6322198262389">
				<ele>6.413364005275071</ele>
				<time>2026-03-08T15:03:05Z</time>
			</trkpt>
			<trkpt lat="59.762077430606105" lon="17.63254177928662">
				<ele>5.451866286806762</ele>
				<time>2026-03-08T15:03:36Z</time>
			</trkpt>
			<trkpt lat="59.76199098160246" lon="17.63295276797743">
				<ele>4.712209953926504</ele>
				<time>2026-03-08T15:04:39Z</time>
			</trkpt>
			<trkpt lat="59.76183957929799" lon="17.63331208251053">
				<ele>4.370075155980885</ele>
				<time>2026-03-08T15:05:07Z</time>
			</trkpt>
			<trkpt lat="59.761713197962024" lon="17.633706849075004">
				<ele>5.109466348774731</ele>
				<time>2026-03-08T15:05:35Z</time>
			</trkpt>
			<trkpt lat="59.76154979820179" lon="17.63403317114735">
				<ele>4.15225179027766</ele>
				<time>2026-03-08T15:06:04Z</time>
			</trkpt>
			<trkpt lat="59.7613943887677" lon="17.634377932719822">
				<ele>4.168603973463178</ele>
				<time>2026-03-08T15:06:30Z</time>
			</trkpt>
			<trkpt lat="59.76127228102768" lon="17.634756535800097">
				<ele>3.5708255814388394</ele>
				<time>2026-03-08T15:06:53Z</time>
			</trkpt>
			<trkpt lat="59.76114963579905" lon="17.635137598890616">
				<ele>4.300510340370238</ele>
				<time>2026-03-08T15:07:18Z</time>
			</trkpt>
			<trkpt lat="59.76102250295803" lon="17.635526013159293">
				<ele>4.841119354590774</ele>
				<time>2026-03-08T15:07:47Z</time>
			</trkpt>
			<trkpt lat="59.76087589593917" lon="17.635883330289758">
				<ele>4.257544361054897</ele>
				<time>2026-03-08T15:08:28Z</time>
			</trkpt>
			<trkpt lat="59.760656554768886" lon="17.635988620318702">
				<ele>1.4463089415803552</ele>
				<time>2026-03-08T15:09:51Z</time>
			</trkpt>
			<trkpt lat="59.76087269784494" lon="17.636109481493065">
				<ele>3.73458409588784</ele>
				<time>2026-03-08T15:11:29Z</time>
			</trkpt>
			<trkpt lat="59.76077412801887" lon="17.636522652840064">
				<ele>6.569817271083593</ele>
				<time>2026-03-08T15:14:03Z</time>
			</trkpt>
			<trkpt lat="59.76069092341085" lon="17.63696119963671">
				<ele>8.216732239350677</ele>
				<time>2026-03-08T15:14:56Z</time>
			</trkpt>
			<trkpt lat="59.76089743487576" lon="17.63676301848891">
				<ele>7.98295212443918</ele>
				<time>2026-03-08T15:16:51Z</time>
			</trkpt>
			<trkpt lat="59.76112440301461" lon="17.636727596012502">
				<ele>12.032071897760034</ele>
				<time>2026-03-08T15:17:29Z</time>
			</trkpt>
			<trkpt lat="59.76135232691466" lon="17.63669451688841">
				<ele>14.633181978948414</ele>
				<time>2026-03-08T15:18:02Z</time>
			</trkpt>
			<trkpt lat="59.76156095280505" lon="17.636859702395615">
				<ele>17.549064761027694</ele>
				<time>2026-03-08T15:18:39Z</time>
			</trkpt>
			<trkpt lat="59.76177072409065" lon="17.637046460195847">
				<ele>18.739261406473815</ele>
				<time>2026-03-08T15:19:25Z</time>
			</trkpt>
			<trkpt lat="59.761978157521675" lon="17.637244380375023">
				<ele>20.086325160227716</ele>
				<time>2026-03-08T15:19:53Z</time>
			</trkpt>
			<trkpt lat="59.76219311890737" lon="17.637424264397584">
				<ele>17.115528426133096</ele>
				<time>2026-03-08T15:20:25Z</time>
			</trkpt>
			<trkpt lat="59.762383527289316" lon="17.637666640049694">
				<ele>17.781234708614647</ele>
				<time>2026-03-08T15:21:04Z</time>
			</trkpt>
			<trkpt lat="59.76248052282619" lon="17.63807429114337">
				<ele>17.93530921358615</ele>
				<time>2026-03-08T15:21:41Z</time>
			</trkpt>
			<trkpt lat="59.7626738790245" lon="17.63830827182696">
				<ele>17.535391246899962</ele>
				<time>2026-03-08T15:22:17Z</time>
			</trkpt>
			<trkpt lat="59.76288543187867" lon="17.638482695402242">
				<ele>14.8865025062114</ele>
				<time>2026-03-08T15:22:59Z</time>
			</trkpt>
			<trkpt lat="59.763091851690845" lon="17.638663251427317">
				<ele>14.702870963141322</ele>
				<time>2026-03-08T15:23:28Z</time>
			</trkpt>
			<trkpt lat="59.763295284950246" lon="17.638869597134974">
				<ele>15.761777716688812</ele>
				<time>2026-03-08T15:23:57Z</time>
			</trkpt>
			<trkpt lat="59.76351847619434" lon="17.63896781449808">
				<ele>18.858484930358827</ele>
				<time>2026-03-08T15:24:34Z</time>
			</trkpt>
			<trkpt lat="59.7637307824319" lon="17.63911613462019">
				<ele>21.449829006567597</ele>
				<time>2026-03-08T15:25:03Z</time>
			</trkpt>
			<trkpt lat="59.763862363325984" lon="17.638752850436774">
				<ele>22.906804494559765</ele>
				<time>2026-03-08T15:26:19Z</time>
			</trkpt>
			<trkpt lat="59.76407871021283" lon="17.638872918379516">
				<ele>24.146800708025694</ele>
				<time>2026-03-08T15:27:02Z</time>
			</trkpt>
			<trkpt lat="59.76425970157469" lon="17.639149497426928">
				<ele>25.925221536308527</ele>
				<time>2026-03-08T15:27:34Z</time>
			</trkpt>
			<trkpt lat="59.764456713111535" lon="17.639374294507874">
				<ele>28.103807487525046</ele>
				<time>2026-03-08T15:28:07Z</time>
			</trkpt>
			<trkpt lat="59.764675260867925" lon="17.639547382946372">
				<ele>31.041632456704974</ele>
				<time>2026-03-08T15:28:41Z</time>
			</trkpt>
			<trkpt lat="59.764875411518105" lon="17.63975089705824">
				<ele>28.546363444067538</ele>
				<time>2026-03-08T15:29:26Z</time>
			</trkpt>
			<trkpt lat="59.765079910533764" lon="17.639938455241886">
				<ele>31.794616403989494</ele>
				<time>2026-03-08T15:30:09Z</time>
			</trkpt>
			<trkpt lat="59.76528970165241" lon="17.64009695572416">
				<ele>35.8582454463467</ele>
				<time>2026-03-08T15:31:02Z</time>
			</trkpt>
			<trkpt lat="59.76551615770821" lon="17.640084705760966">
				<ele>38.721344850957394</ele>
				<time>2026-03-08T15:31:56Z</time>
			</trkpt>
			<trkpt lat="59.76566686158674" lon="17.64043304927294">
				<ele>36.91932634450495</ele>
				<time>2026-03-08T15:32:55Z</time>
			</trkpt>
			<trkpt lat="59.76576941367634" lon="17.64083399051285">
				<ele>35.310549394227564</ele>
				<time>2026-03-08T15:33:28Z</time>
			</trkpt>
			<trkpt lat="59.76594727763652" lon="17.641127734724922">
				<ele>34.895411156117916</ele>
				<time>2026-03-08T15:34:14Z</time>
			</trkpt>
			<trkpt lat="59.766160891486656" lon="17.64128091854826">
				<ele>34.08109166659415</ele>
				<time>2026-03-08T15:34:58Z</time>
			</trkpt>
			<trkpt lat="59.766330325561654" lon="17.640969564648927">
				<ele>32.99780389294028</ele>
				<time>2026-03-08T15:35:24Z</time>
			</trkpt>
			<trkpt lat="59.766488068700795" lon="17.640649268921525">
				<ele>32.98774790670723</ele>
				<time>2026-03-08T15:36:34Z</time>
			</trkpt>
			<trkpt lat="59.766657365292694" lon="17.64035440349385">
				<ele>31.538125281222165</ele>
				<time>2026-03-08T15:37:00Z</time>
			</trkpt>
			<trkpt lat="59.76686826364398" lon="17.64014987312697">
				<ele>32.27276072651148</ele>
				<time>2026-03-08T15:37:31Z</time>
			</trkpt>
			<trkpt lat="59.76708841887652" lon="17.640037088556628">
				<ele>34.18930345028639</ele>
				<time>2026-03-08T15:38:00Z</time>
			</trkpt>
			<trkpt lat="59.76731308599993" lon="17.64001025573761">
				<ele>35.88930595945567</ele>
				<time>2026-03-08T15:38:58Z</time>
			</trkpt>
			<trkpt lat="59.7675145772038" lon="17.640235941991307">
				<ele>35.990187864750624</ele>
				<time>2026-03-08T15:39:29Z</time>
			</trkpt>
			<trkpt lat="59.767746104934616" lon="17.640285147291856">
				<ele>35.73658557422459</ele>
				<time>2026-03-08T15:39:59Z</time>
			</trkpt>
			<trkpt lat="59.767973435867944" lon="17.64034902308738">
				<ele>37.963875407353044</ele>
				<time>2026-03-08T15:40:33Z</time>
			</trkpt>
			<trkpt lat="59.768195982213705" lon="17.64041309761985">
				<ele>41.88439882174134</ele>
				<time>2026-03-08T15:41:14Z</time>
			</trkpt>
			<trkpt lat="59.76840340621762" lon="17.640592223366028">
				<ele>41.167799110524356</ele>
				<time>2026-03-08T15:42:00Z</time>
			</trkpt>
			<trkpt lat="59.7686241978325" lon="17.640735960560818">
				<ele>43.5050128987059</ele>
				<time>2026-03-08T15:48:50Z</time>
			</trkpt>
			<trkpt lat="59.76882644927831" lon="17.64095923181424">
				<ele>47.16634649783373</ele>
				<time>2026-03-08T15:49:24Z</time>
			</trkpt>
			<trkpt lat="59.76906067645674" lon="17.64098033888454">
				<ele>46.429401732981205</ele>
				<time>2026-03-08T15:49:47Z</time>
			</trkpt>
			<trkpt lat="59.7692849660063" lon="17.64087054394594">
				<ele>46.99794230423868</ele>
				<time>2026-03-08T15:50:15Z</time>
			</trkpt>
			<trkpt lat="59.76945699051541" lon="17.64058143463915">
				<ele>45.592480891384184</ele>
				<time>2026-03-08T15:50:41Z</time>
			</trkpt>
			<trkpt lat="59.76960170573485" lon="17.640237234032924">
				<ele>41.321931106969714</ele>
				<time>2026-03-08T15:51:03Z</time>
			</trkpt>
			<trkpt lat="59.76970500574299" lon="17.63984184533621">
				<ele>42.96147204283625</ele>
				<time>2026-03-08T15:51:34Z</time>
			</trkpt>
			<trkpt lat="59.76993254947788" lon="17.63985363554283">
				<ele>40.26806728169322</ele>
				<time>2026-03-08T15:52:52Z</time>
			</trkpt>
			<trkpt lat="59.77015919437936" lon="17.639815669996505">
				<ele>38.25019546132535</ele>
				<time>2026-03-08T15:53:39Z</time>
			</trkpt>
			<trkpt lat="59.77038667379599" lon="17.639751194791835">
				<ele>31.610536804422736</ele>
				<time>2026-03-08T15:54:53Z</time>
			</trkpt>
			<trkpt lat="59.77060246215057" lon="17.639893561656493">
				<ele>30.55192745756358</ele>
				<time>2026-03-08T15:55:53Z</time>
			</trkpt>
			<trkpt lat="59.770809180851415" lon="17.64008500368413">
				<ele>27.995433509349823</ele>
				<time>2026-03-08T15:56:22Z</time>
			</trkpt>
			<trkpt lat="59.77100055676221" lon="17.64032695943433">
				<ele>27.13263824954629</ele>
				<time>2026-03-08T15:56:48Z</time>
			</trkpt>
			<trkpt lat="59.771190946526424" lon="17.640575828887144">
				<ele>27.921033673919737</ele>
				<time>2026-03-08T15:57:09Z</time>
			</trkpt>
			<trkpt lat="59.77135618825098" lon="17.640888830289086">
				<ele>28.51584078092128</ele>
				<time>2026-03-08T15:57:31Z</time>
			</trkpt>
			<trkpt lat="59.77152292492424" lon="17.64122186618405">
				<ele>31.742920553311706</ele>
				<time>2026-03-08T15:57:57Z</time>
			</trkpt>
			<trkpt lat="59.7715932703352" lon="17.64164619680183">
				<ele>33.687521420419216</ele>
				<time>2026-03-08T15:58:25Z</time>
			</trkpt>
			<trkpt lat="59.77150539963686" lon="17.642074671349203">
				<ele>34.60666813887656</ele>
				<time>2026-03-08T15:58:46Z</time>
			</trkpt>
			<trkpt lat="59.77148624417221" lon="17.642524090502246">
				<ele>34.86761385947466</ele>
				<time>2026-03-08T15:59:09Z</time>
			</trkpt>
			<trkpt lat="59.771492470067756" lon="17.642985779299853">
				<ele>34.730230489745736</ele>
				<time>2026-03-08T15:59:33Z</time>
			</trkpt>
			<trkpt lat="59.771575815882315" lon="17.64340006316244">
				<ele>33.36688919086009</ele>
				<time>2026-03-08T15:59:55Z</time>
			</trkpt>
			<trkpt lat="59.771703012216484" lon="17.64377163500602">
				<ele>33.366924363188446</ele>
				<time>2026-03-08T16:00:15Z</time>
			</trkpt>
			<trkpt lat="59.77187039482229" lon="17.644069974587367">
				<ele>33.159572154283524</ele>
				<time>2026-03-08T16:00:36Z</time>
			</trkpt>
			<trkpt lat="59.77206483373019" lon="17.644298578161713">
				<ele>30.325855483300984</ele>
				<time>2026-03-08T16:01:00Z</time>
			</trkpt>
			<trkpt lat="59.77228256706873" lon="17.644451703500028">
				<ele>31.867045713588595</ele>
				<time>2026-03-08T16:01:21Z</time>
			</trkpt>
			<trkpt lat="59.772503093548366" lon="17.64453478675006">
				<ele>32.33072558790445</ele>
				<time>2026-03-08T16:01:43Z</time>
			</trkpt>
			<trkpt lat="59.772728598246324" lon="17.644625357819002">
				<ele>32.2839913032949</ele>
				<time>2026-03-08T16:02:07Z</time>
			</trkpt>
			<trkpt lat="59.77296320678815" lon="17.644640569590358">
				<ele>31.14558362402022</ele>
				<time>2026-03-08T16:02:30Z</time>
			</trkpt>
			<trkpt lat="59.77319199954527" lon="17.644727834780554">
				<ele>29.053373326547444</ele>
				<time>2026-03-08T16:02:51Z</time>
			</trkpt>
			<trkpt lat="59.773330150562124" lon="17.64508153340158">
				<ele>28.578035481274128</ele>
				<time>2026-03-08T16:03:35Z</time>
			</trkpt>
			<trkpt lat="59.77322932550432" lon="17.64548412081032">
				<ele>31.253426283597946</ele>
				<time>2026-03-08T16:04:07Z</time>
			</trkpt>
			<trkpt lat="59.77323886071372" lon="17.645945879450903">
				<ele>30.5075504751876</ele>
				<time>2026-03-08T16:04:33Z</time>
			</trkpt>
			<trkpt lat="59.773190390433726" lon="17.646400742288563">
				<ele>32.0882258862257</ele>
				<time>2026-03-08T16:04:56Z</time>
			</trkpt>
			<trkpt lat="59.773124817576935" lon="17.646830760648022">
				<ele>34.752871204167604</ele>
				<time>2026-03-08T16:05:23Z</time>
			</trkpt>
			<trkpt lat="59.7731763797567" lon="17.647267817824574">
				<ele>37.248878919519484</ele>
				<time>2026-03-08T16:05:59Z</time>
			</trkpt>
			<trkpt lat="59.773182266978864" lon="17.64771779310576">
				<ele>39.525046839378774</ele>
				<time>2026-03-08T16:06:29Z</time>
			</trkpt>
			<trkpt lat="59.77313886241668" lon="17.648162214368046">
				<ele>40.90242390241474</ele>
				<time>2026-03-08T16:07:03Z</time>
			</trkpt>
			<trkpt lat="59.77300225682111" lon="17.648535140558717">
				<ele>44.55449169781059</ele>
				<time>2026-03-08T16:07:40Z</time>
			</trkpt>
			<trkpt lat="59.773066089064955" lon="17.64896938705407">
				<ele>44.332018529996276</ele>
				<time>2026-03-08T16:08:04Z</time>
			</trkpt>
			<trkpt lat="59.773003864284554" lon="17.649401207196956">
				<ele>45.216695797629654</ele>
				<time>2026-03-08T16:08:29Z</time>
			</trkpt>
			<trkpt lat="59.772858145013345" lon="17.64975251877876">
				<ele>48.126425811089575</ele>
				<time>2026-03-08T16:09:01Z</time>
			</trkpt>
			<trkpt lat="59.77271827349198" lon="17.650108511521076">
				<ele>45.16225086711347</ele>
				<time>2026-03-08T16:09:36Z</time>
			</trkpt>
			<trkpt lat="59.7725642408548" lon="17.650433889253424">
				<ele>46.4643879244104</ele>
				<time>2026-03-08T16:10:05Z</time>
			</trkpt>
			<trkpt lat="59.77238435381957" lon="17.650715369412055">
				<ele>48.26779575459659</ele>
				<time>2026-03-08T16:10:30Z</time>
			</trkpt>
			<trkpt lat="59.77218071645115" lon="17.65091873793017">
				<ele>46.57394036650658</ele>
				<time>2026-03-08T16:10:59Z</time>
			</trkpt>
			<trkpt lat="59.771966390326405" lon="17.651076114635114">
				<ele>45.6437381664291</ele>
				<time>2026-03-08T16:11:25Z</time>
			</trkpt>
			<trkpt lat="59.77175574801491" lon="17.651259537440154">
				<ele>45.81359986960888</ele>
				<time>2026-03-08T16:12:19Z</time>
			</trkpt>
			<trkpt lat="59.771538547366234" lon="17.651408296180715">
				<ele>44.90029008965939</ele>
				<time>2026-03-08T16:12:40Z</time>
			</trkpt>
			<trkpt lat="59.77133245131146" lon="17.6515898453595">
				<ele>43.99609699193388</ele>
				<time>2026-03-08T16:13:04Z</time>
			</trkpt>
			<trkpt lat="59.77114753328081" lon="17.651850873668216">
				<ele>40.99808023683727</ele>
				<time>2026-03-08T16:13:25Z</time>
			</trkpt>
			<trkpt lat="59.77099560958838" lon="17.65217995568711">
				<ele>39.87898859102279</ele>
				<time>2026-03-08T16:13:47Z</time>
			</trkpt>
			<trkpt lat="59.77082741184992" lon="17.652489848001544">
				<ele>38.92107373196632</ele>
				<time>2026-03-08T16:14:10Z</time>
			</trkpt>
			<trkpt lat="59.770681227242406" lon="17.65283236076632">
				<ele>40.00560864247382</ele>
				<time>2026-03-08T16:14:32Z</time>
			</trkpt>
			<trkpt lat="59.770467502505895" lon="17.653018675313973">
				<ele>38.8349350001663</ele>
				<time>2026-03-08T16:14:52Z</time>
			</trkpt>
			<trkpt lat="59.77024457742331" lon="17.653080046963154">
				<ele>37.55266766808927</ele>
				<time>2026-03-08T16:15:16Z</time>
			</trkpt>
			<trkpt lat="59.77003343632543" lon="17.65289893179596">
				<ele>36.66424995101988</ele>
				<time>2026-03-08T16:15:47Z</time>
			</trkpt>
			<trkpt lat="59.7698084229055" lon="17.652845882886943">
				<ele>36.51618831139058</ele>
				<time>2026-03-08T16:16:07Z</time>
			</trkpt>
			<trkpt lat="59.7697240267376" lon="17.652384044831066">
				<ele>35.48287117667496</ele>
				<time>2026-03-08T16:18:01Z</time>
			</trkpt>
			<trkpt lat="59.76982448688599" lon="17.652018509899666">
				<ele>35.14498551469296</ele>
				<time>2026-03-08T16:18:15Z</time>
			</trkpt>
		</trkseg>
	</trk>
	<extensions>
	</extensions>
</gpx>
