<?xml version="1.0" encoding="UTF-8"?>
<gpx xmlns:xsi="http://www.w3.org/2001/XMLSchema-instance" xmlns="http://www.topografix.com/GPX/1/1" xsi:schemaLocation="http://www.topografix.com/GPX/1/1 http://www.topografix.com/GPX/1/1/gpx.xsd" version="1.1" creator="FootMark for iOS">
	<metadata>
		<link href="https://itunes.apple.com/us/app/footmark-route-recorder/id1451393033">
			<text>Download link</text>
		</link>
		<time>2026-05-01T23:09:16Z</time>
	</metadata>
	<wpt lat="59.845148731779034" lon="17.564389375208716">
		<ele>24.469387186691165</ele>
		<time>2026-04-18T15:16:01Z</time>
	</wpt>
	<wpt lat="59.84491622759304" lon="17.564415549106155">
		<ele>30.866868559271097</ele>
		<time>2026-04-18T15:16:18Z</time>
	</wpt>
	<wpt lat="59.844699821908954" lon="17.564560628762262">
		<ele>29.081125671975315</ele>
		<time>2026-04-18T15:16:55Z</time>
	</wpt>
	<wpt lat="59.84447459490251" lon="17.5646383192742">
		<ele>30.30033455044031</ele>
		<time>2026-04-18T15:17:15Z</time>
	</wpt>
	<wpt lat="59.84424742289154" lon="17.564707833863608">
		<ele>30.05690372083336</ele>
		<time>2026-04-18T15:17:37Z</time>
	</wpt>
	<wpt lat="59.844019816980335" lon="17.564803066346336">
		<ele>30.960814513266087</ele>
		<time>2026-04-18T15:17:57Z</time>
	</wpt>
	<wpt lat="59.843796769425175" lon="17.564884217264666">
		<ele>30.085770662873983</ele>
		<time>2026-04-18T15:18:17Z</time>
	</wpt>
	<wpt lat="59.84356593941338" lon="17.564978179877812">
		<ele>29.05539790727198</ele>
		<time>2026-04-18T15:18:38Z</time>
	</wpt>
	<wpt lat="59.84333519382236" lon="17.565083565452813">
		<ele>27.759111537598073</ele>
		<time>2026-04-18T15:18:58Z</time>
	</wpt>
	<wpt lat="59.84311399544799" lon="17.565196811402117">
		<ele>27.023122440092266</ele>
		<time>2026-04-18T15:19:17Z</time>
	</wpt>
	<wpt lat="59.84288434594599" lon="17.565274331464433">
		<ele>27.733811220154166</ele>
		<time>2026-04-18T15:19:36Z</time>
	</wpt>
	<wpt lat="59.842663678495164" lon="17.565408464221054">
		<ele>26.842072883620858</ele>
		<time>2026-04-18T15:19:54Z</time>
	</wpt>
	<wpt lat="59.84248029494997" lon="17.5656760299205">
		<ele>25.554955769330263</ele>
		<time>2026-04-18T15:20:15Z</time>
	</wpt>
	<wpt lat="59.84231211561163" lon="17.56599824351577">
		<ele>20.604313442483544</ele>
		<time>2026-04-18T15:20:34Z</time>
	</wpt>
	<wpt lat="59.84217236364717" lon="17.566381588855638">
		<ele>20.918841326609254</ele>
		<time>2026-04-18T15:20:50Z</time>
	</wpt>
	<wpt lat="59.841946470945025" lon="17.56634952308414">
		<ele>22.598113171756268</ele>
		<time>2026-04-18T15:21:26Z</time>
	</wpt>
	<wpt lat="59.84172449066331" lon="17.566277796259104">
		<ele>28.131793413311243</ele>
		<time>2026-04-18T15:23:06Z</time>
	</wpt>
	<wpt lat="59.84153233535062" lon="17.56603771502432">
		<ele>36.09328222926706</ele>
		<time>2026-04-18T15:24:20Z</time>
	</wpt>
	<wpt lat="59.841314621711746" lon="17.566178557730048">
		<ele>33.207052394747734</ele>
		<time>2026-04-18T15:24:45Z</time>
	</wpt>
	<wpt lat="59.84117123893177" lon="17.56652474975651">
		<ele>32.59565026964992</ele>
		<time>2026-04-18T15:25:09Z</time>
	</wpt>
	<wpt lat="59.84101857973246" lon="17.56688390518342">
		<ele>34.23053469043225</ele>
		<time>2026-04-18T15:25:30Z</time>
	</wpt>
	<wpt lat="59.840824208242665" lon="17.567116644080855">
		<ele>35.00342033803463</ele>
		<time>2026-04-18T15:25:49Z</time>
	</wpt>
	<wpt lat="59.8406921980927" lon="17.567486090764728">
		<ele>31.518079727888107</ele>
		<time>2026-04-18T15:27:09Z</time>
	</wpt>
	<wpt lat="59.84053518911939" lon="17.567817741982925">
		<ele>31.20837817620486</ele>
		<time>2026-04-18T15:27:48Z</time>
	</wpt>
	<wpt lat="59.84036606706593" lon="17.568132675131938">
		<ele>31.768063003197312</ele>
		<time>2026-04-18T15:28:30Z</time>
	</wpt>
	<wpt lat="59.84014759190765" lon="17.568323690905764">
		<ele>28.013867902569473</ele>
		<time>2026-04-18T15:29:47Z</time>
	</wpt>
	<wpt lat="59.83991276517226" lon="17.568276036356426">
		<ele>29.84982000850141</ele>
		<time>2026-04-18T15:30:05Z</time>
	</wpt>
	<wpt lat="59.839719796777494" lon="17.568546163101725">
		<ele>29.588078076019883</ele>
		<time>2026-04-18T15:30:25Z</time>
	</wpt>
	<wpt lat="59.8395823963518" lon="17.56890685400032">
		<ele>28.675515854731202</ele>
		<time>2026-04-18T15:30:44Z</time>
	</wpt>
	<wpt lat="59.83944787191158" lon="17.569264649854322">
		<ele>30.145023735240102</ele>
		<time>2026-04-18T15:31:03Z</time>
	</wpt>
	<wpt lat="59.83937892642238" lon="17.569698408534585">
		<ele>28.60811467282474</ele>
		<time>2026-04-18T15:31:31Z</time>
	</wpt>
	<wpt lat="59.83915364829643" lon="17.569667774186318">
		<ele>28.980378017760813</ele>
		<time>2026-04-18T15:31:59Z</time>
	</wpt>
	<wpt lat="59.83893465314693" lon="17.569568590141017">
		<ele>29.377813364379108</ele>
		<time>2026-04-18T15:32:20Z</time>
	</wpt>
	<wpt lat="59.83870752531018" lon="17.569490324602526">
		<ele>28.452777376398444</ele>
		<time>2026-04-18T15:32:42Z</time>
	</wpt>
	<wpt lat="59.83848416857249" lon="17.569406162749136">
		<ele>28.62228910252452</ele>
		<time>2026-04-18T15:33:03Z</time>
	</wpt>
	<wpt lat="59.838251868997574" lon="17.569310607428154">
		<ele>29.83657681569457</ele>
		<time>2026-04-18T15:33:25Z</time>
	</wpt>
	<wpt lat="59.83801842871995" lon="17.569233088877347">
		<ele>29.676880002953112</ele>
		<time>2026-04-18T15:33:46Z</time>
	</wpt>
	<wpt lat="59.83779486104673" lon="17.56914154066779">
		<ele>29.988894453272223</ele>
		<time>2026-04-18T15:34:07Z</time>
	</wpt>
	<wpt lat="59.83757518781349" lon="17.569047050127082">
		<ele>30.451305116526783</ele>
		<time>2026-04-18T15:34:27Z</time>
	</wpt>
	<wpt lat="59.837350512347335" lon="17.568954799385896">
		<ele>31.89482220914215</ele>
		<time>2026-04-18T15:34:48Z</time>
	</wpt>
	<wpt lat="59.83712004169075" lon="17.56886890732059">
		<ele>32.71589419338852</ele>
		<time>2026-04-18T15:35:10Z</time>
	</wpt>
	<wpt lat="59.836893247882585" lon="17.56877060291579">
		<ele>33.340875171124935</ele>
		<time>2026-04-18T15:35:30Z</time>
	</wpt>
	<wpt lat="59.8366682814003" lon="17.56870636372812">
		<ele>32.939040606841445</ele>
		<time>2026-04-18T15:35:51Z</time>
	</wpt>
	<wpt lat="59.836443008929834" lon="17.568587808398654">
		<ele>37.944332061335444</ele>
		<time>2026-04-18T15:36:13Z</time>
	</wpt>
	<wpt lat="59.83621704118031" lon="17.568524270669275">
		<ele>43.64945620112121</ele>
		<time>2026-04-18T15:36:36Z</time>
	</wpt>
	<wpt lat="59.835984033067014" lon="17.568579451848144">
		<ele>42.74388421885669</ele>
		<time>2026-04-18T15:36:56Z</time>
	</wpt>
	<wpt lat="59.8357527744081" lon="17.568681715270433">
		<ele>45.24071949813515</ele>
		<time>2026-04-18T15:38:07Z</time>
	</wpt>
	<wpt lat="59.835533700927066" lon="17.56877874885778">
		<ele>49.53113404288888</ele>
		<time>2026-04-18T15:38:28Z</time>
	</wpt>
	<wpt lat="59.83532400082259" lon="17.56896406478834">
		<ele>51.5235694097355</ele>
		<time>2026-04-18T15:38:46Z</time>
	</wpt>
	<wpt lat="59.83509760248239" lon="17.569024453590018">
		<ele>50.45276427734643</ele>
		<time>2026-04-18T15:39:07Z</time>
	</wpt>
	<wpt lat="59.83486895434972" lon="17.569034150975057">
		<ele>50.32771528791636</ele>
		<time>2026-04-18T15:39:30Z</time>
	</wpt>
	<wpt lat="59.83464307196212" lon="17.56890606217901">
		<ele>53.9001973727718</ele>
		<time>2026-04-18T15:39:49Z</time>
	</wpt>
	<wpt lat="59.834428293978085" lon="17.568761932037336">
		<ele>54.097277669236064</ele>
		<time>2026-04-18T15:40:11Z</time>
	</wpt>
	<wpt lat="59.83421236027898" lon="17.568595611062886">
		<ele>52.77414733078331</ele>
		<time>2026-04-18T15:40:59Z</time>
	</wpt>
	<wpt lat="59.834023560051406" lon="17.56832962793421">
		<ele>53.141379785723984</ele>
		<time>2026-04-18T15:41:21Z</time>
	</wpt>
	<wpt lat="59.83382517177621" lon="17.5681071039445">
		<ele>54.711098411120474</ele>
		<time>2026-04-18T15:41:42Z</time>
	</wpt>
	<wpt lat="59.833596766687734" lon="17.56801192855949">
		<ele>49.23382794763893</ele>
		<time>2026-04-18T15:41:58Z</time>
	</wpt>
	<wpt lat="59.83337109284735" lon="17.568082186022547">
		<ele>45.57919333036989</ele>
		<time>2026-04-18T15:44:59Z</time>
	</wpt>
	<wpt lat="59.83314628530071" lon="17.568114662234162">
		<ele>42.221526838839054</ele>
		<time>2026-04-18T15:45:21Z</time>
	</wpt>
	<wpt lat="59.83292093391678" lon="17.568170805166805">
		<ele>45.07760425377637</ele>
		<time>2026-04-18T15:45:40Z</time>
	</wpt>
	<wpt lat="59.83269474884035" lon="17.568215422928073">
		<ele>44.05658083036542</ele>
		<time>2026-04-18T15:46:25Z</time>
	</wpt>
	<wpt lat="59.83246393435757" lon="17.56829016202355">
		<ele>45.40251948032528</ele>
		<time>2026-04-18T15:46:45Z</time>
	</wpt>
	<wpt lat="59.83223085104052" lon="17.568309926665822">
		<ele>48.220445110462606</ele>
		<time>2026-04-18T15:47:05Z</time>
	</wpt>
	<wpt lat="59.832001878404355" lon="17.568257838851885">
		<ele>46.56681666895747</ele>
		<time>2026-04-18T15:47:25Z</time>
	</wpt>
	<wpt lat="59.831790006528756" lon="17.568085064471">
		<ele>49.42672585416585</ele>
		<time>2026-04-18T15:47:42Z</time>
	</wpt>
	<wpt lat="59.831610591100706" lon="17.567804908381003">
		<ele>52.27904925774783</ele>
		<time>2026-04-18T15:48:01Z</time>
	</wpt>
	<wpt lat="59.83141689533772" lon="17.56757592138246">
		<ele>53.623152568005025</ele>
		<time>2026-04-18T15:48:21Z</time>
	</wpt>
	<wpt lat="59.83120422687978" lon="17.567400747381367">
		<ele>53.47799364477396</ele>
		<time>2026-04-18T15:48:41Z</time>
	</wpt>
	<wpt lat="59.83098616540473" lon="17.56721562172201">
		<ele>51.37451491970569</ele>
		<time>2026-04-18T15:49:03Z</time>
	</wpt>
	<wpt lat="59.830798372105576" lon="17.56746191720947">
		<ele>56.3859275598079</ele>
		<time>2026-04-18T15:50:14Z</time>
	</wpt>
	<wpt lat="59.83059482201197" lon="17.567258187852357">
		<ele>51.68895286228508</ele>
		<time>2026-04-18T15:51:40Z</time>
	</wpt>
	<wpt lat="59.8303692025632" lon="17.567271986828384">
		<ele>52.90553185623139</ele>
		<time>2026-04-18T15:52:01Z</time>
	</wpt>
	<wpt lat="59.83014223838694" lon="17.567198253739434">
		<ele>53.01434403844178</ele>
		<time>2026-04-18T15:52:23Z</time>
	</wpt>
	<wpt lat="59.829939784353634" lon="17.56699384494932">
		<ele>53.74387579038739</ele>
		<time>2026-04-18T15:52:40Z</time>
	</wpt>
	<wpt lat="59.82970727311347" lon="17.566974789283506">
		<ele>53.159885103814304</ele>
		<time>2026-04-18T15:53:02Z</time>
	</wpt>
	<wpt lat="59.82947534954666" lon="17.566991555893303">
		<ele>52.65476076491177</ele>
		<time>2026-04-18T15:53:23Z</time>
	</wpt>
	<wpt lat="59.8292453104016" lon="17.5670034723167">
		<ele>50.108047978021204</ele>
		<time>2026-04-18T15:53:43Z</time>
	</wpt>
	<wpt lat="59.82901317196236" lon="17.567026632558715">
		<ele>51.440213459543884</ele>
		<time>2026-04-18T15:54:04Z</time>
	</wpt>
	<wpt lat="59.8287838238543" lon="17.56688050904068">
		<ele>55.62034065276384</ele>
		<time>2026-04-18T15:54:23Z</time>
	</wpt>
	<wpt lat="59.82861441093459" lon="17.56658783763657">
		<ele>55.40356138441712</ele>
		<time>2026-04-18T15:54:41Z</time>
	</wpt>
	<wpt lat="59.828426940343995" lon="17.566329723443367">
		<ele>54.194631330668926</ele>
		<time>2026-04-18T15:55:02Z</time>
	</wpt>
	<wpt lat="59.82820097764241" lon="17.56618672376445">
		<ele>57.33561450894922</ele>
		<time>2026-04-18T15:55:21Z</time>
	</wpt>
	<wpt lat="59.82797611258915" lon="17.566085530497613">
		<ele>54.73646695818752</ele>
		<time>2026-04-18T15:55:43Z</time>
	</wpt>
	<wpt lat="59.82803781950217" lon="17.56564577324191">
		<ele>51.635956722311676</ele>
		<time>2026-04-18T15:56:34Z</time>
	</wpt>
	<wpt lat="59.827943280419206" lon="17.56523663269752">
		<ele>51.32007344439626</ele>
		<time>2026-04-18T15:56:58Z</time>
	</wpt>
	<wpt lat="59.82787248802962" lon="17.56480964516177">
		<ele>50.510637069121</ele>
		<time>2026-04-18T15:57:28Z</time>
	</wpt>
	<wpt lat="59.827793046695994" lon="17.56439200276281">
		<ele>52.984480124898255</ele>
		<time>2026-04-18T15:57:58Z</time>
	</wpt>
	<wpt lat="59.82771383809813" lon="17.56396665459802">
		<ele>51.94905250146985</ele>
		<time>2026-04-18T15:58:25Z</time>
	</wpt>
	<wpt lat="59.82769138738267" lon="17.563520660260078">
		<ele>49.48986708279699</ele>
		<time>2026-04-18T15:58:59Z</time>
	</wpt>
	<wpt lat="59.82771882913343" lon="17.563077969178124">
		<ele>51.27580085210502</ele>
		<time>2026-04-18T15:59:27Z</time>
	</wpt>
	<wpt lat="59.82762741269567" lon="17.562660241224922">
		<ele>50.27827063947916</ele>
		<time>2026-04-18T15:59:51Z</time>
	</wpt>
	<wpt lat="59.827644435401105" lon="17.562209246126933">
		<ele>48.39945404417813</ele>
		<time>2026-04-18T16:00:28Z</time>
	</wpt>
	<wpt lat="59.82781069488907" lon="17.561897972784145">
		<ele>47.77147596236318</ele>
		<time>2026-04-18T16:00:58Z</time>
	</wpt>
	<wpt lat="59.82802372131114" lon="17.56169618852649">
		<ele>46.121746180579066</ele>
		<time>2026-04-18T16:01:25Z</time>
	</wpt>
	<wpt lat="59.82817223448271" lon="17.561348088316937">
		<ele>48.63503051549196</ele>
		<time>2026-04-18T16:01:54Z</time>
	</wpt>
	<wpt lat="59.82828434960768" lon="17.56094144188585">
		<ele>49.63618749473244</ele>
		<time>2026-04-18T16:02:36Z</time>
	</wpt>
	<wpt lat="59.82843251918195" lon="17.560589519022752">
		<ele>50.60792678128928</ele>
		<time>2026-04-18T16:03:04Z</time>
	</wpt>
	<wpt lat="59.82862997216367" lon="17.56037600602211">
		<ele>52.11681134440005</ele>
		<time>2026-04-18T16:03:32Z</time>
	</wpt>
	<wpt lat="59.8288548679278" lon="17.560249990950254">
		<ele>56.44536875654012</ele>
		<time>2026-04-18T16:04:05Z</time>
	</wpt>
	<wpt lat="59.82906808765471" lon="17.56010123902709">
		<ele>56.74295416660607</ele>
		<time>2026-04-18T16:04:33Z</time>
	</wpt>
	<wpt lat="59.829286973836105" lon="17.559991005387936">
		<ele>51.78912409488112</ele>
		<time>2026-04-18T16:05:18Z</time>
	</wpt>
	<wpt lat="59.82948537457286" lon="17.559772623857583">
		<ele>52.2300097970292</ele>
		<time>2026-04-18T16:05:51Z</time>
	</wpt>
	<wpt lat="59.82970160044383" lon="17.55964474328772">
		<ele>48.87279966007918</ele>
		<time>2026-04-18T16:06:16Z</time>
	</wpt>
	<wpt lat="59.829929729818" lon="17.559631136498247">
		<ele>47.379798672161996</ele>
		<time>2026-04-18T16:06:41Z</time>
	</wpt>
	<wpt lat="59.83015273274782" lon="17.559697550641122">
		<ele>47.57213517092168</ele>
		<time>2026-04-18T16:07:06Z</time>
	</wpt>
	<wpt lat="59.83037798188826" lon="17.559791596628127">
		<ele>47.540432440117</ele>
		<time>2026-04-18T16:07:36Z</time>
	</wpt>
	<wpt lat="59.83060759051277" lon="17.559745776766704">
		<ele>49.437858706340194</ele>
		<time>2026-04-18T16:08:51Z</time>
	</wpt>
	<wpt lat="59.830801835697365" lon="17.559517278777253">
		<ele>48.766128421761096</ele>
		<time>2026-04-18T16:09:27Z</time>
	</wpt>
	<wpt lat="59.830973016449626" lon="17.559227357323266">
		<ele>48.91530384682119</ele>
		<time>2026-04-18T16:09:56Z</time>
	</wpt>
	<wpt lat="59.8311783998071" lon="17.559027491353046">
		<ele>48.07550052553415</ele>
		<time>2026-04-18T16:10:26Z</time>
	</wpt>
	<wpt lat="59.83137600863752" lon="17.558794290324713">
		<ele>51.97670064866543</ele>
		<time>2026-04-18T16:11:34Z</time>
	</wpt>
	<wpt lat="59.83158406548824" lon="17.558585634523887">
		<ele>48.079096659086645</ele>
		<time>2026-04-18T16:12:10Z</time>
	</wpt>
	<wpt lat="59.83177855666042" lon="17.558338233946678">
		<ele>51.89565606974065</ele>
		<time>2026-04-18T16:12:40Z</time>
	</wpt>
	<wpt lat="59.831956111789985" lon="17.55805629289405">
		<ele>51.21440341603011</ele>
		<time>2026-04-18T16:13:07Z</time>
	</wpt>
	<wpt lat="59.832149338164676" lon="17.55781257047097">
		<ele>49.94919319264591</ele>
		<time>2026-04-18T16:13:48Z</time>
	</wpt>
	<wpt lat="59.832375908752766" lon="17.55776133820638">
		<ele>48.03709107730538</ele>
		<time>2026-04-18T16:14:24Z</time>
	</wpt>
	<wpt lat="59.832575287536756" lon="17.557520562540226">
		<ele>50.797130414284766</ele>
		<time>2026-04-18T16:15:09Z</time>
	</wpt>
	<wpt lat="59.83278088650618" lon="17.557325394165456">
		<ele>45.81031317729503</ele>
		<time>2026-04-18T16:15:48Z</time>
	</wpt>
	<wpt lat="59.83300361553969" lon="17.557192153082955">
		<ele>50.129731363616884</ele>
		<time>2026-04-18T16:16:22Z</time>
	</wpt>
	<wpt lat="59.833217379591304" lon="17.557354422733688">
		<ele>48.66649777069688</ele>
		<time>2026-04-18T16:16:50Z</time>
	</wpt>
	<wpt lat="59.833440992889926" lon="17.55730060041055">
		<ele>51.37002189923078</ele>
		<time>2026-04-18T16:17:15Z</time>
	</wpt>
	<wpt lat="59.8336307143662" lon="17.55704798262528">
		<ele>54.27019440662116</ele>
		<time>2026-04-18T16:17:40Z</time>
	</wpt>
	<wpt lat="59.833805860061446" lon="17.556733520917874">
		<ele>54.898607253097</ele>
		<time>2026-04-18T16:18:07Z</time>
	</wpt>
	<wpt lat="59.833814517168136" lon="17.556278734866726">
		<ele>52.34430534392595</ele>
		<time>2026-04-18T16:18:40Z</time>
	</wpt>
	<wpt lat="59.833884151349714" lon="17.555851072223035">
		<ele>55.777079295367</ele>
		<time>2026-04-18T16:19:08Z</time>
	</wpt>
	<wpt lat="59.834100891932906" lon="17.555670121643146">
		<ele>50.76928022503853</ele>
		<time>2026-04-18T16:20:10Z</time>
	</wpt>
	<wpt lat="59.83433264586511" lon="17.555587382612696">
		<ele>51.46522173285484</ele>
		<time>2026-04-18T16:20:31Z</time>
	</wpt>
	<wpt lat="59.83455786488519" lon="17.555544916816622">
		<ele>51.893729030154645</ele>
		<time>2026-04-18T16:21:06Z</time>
	</wpt>
	<wpt lat="59.83476393262331" lon="17.555741415334182">
		<ele>52.92203997913748</ele>
		<time>2026-04-18T16:21:27Z</time>
	</wpt>
	<wpt lat="59.83491713472969" lon="17.556073213829006">
		<ele>50.921213121153414</ele>
		<time>2026-04-18T16:21:53Z</time>
	</wpt>
	<wpt lat="59.835073136235664" lon="17.556412032913297">
		<ele>51.97222837153822</ele>
		<time>2026-04-18T16:22:14Z</time>
	</wpt>
	<wpt lat="59.83530228690565" lon="17.5564291179639">
		<ele>50.934318259358406</ele>
		<time>2026-04-18T16:22:35Z</time>
	</wpt>
	<wpt lat="59.835519220838506" lon="17.55631366321012">
		<ele>50.962827009148896</ele>
		<time>2026-04-18T16:22:55Z</time>
	</wpt>
	<wpt lat="59.8357408624159" lon="17.5564793203387">
		<ele>51.492489444091916</ele>
		<time>2026-04-18T16:23:54Z</time>
	</wpt>
	<wpt lat="59.83592573472603" lon="17.556736601613892">
		<ele>50.9411883354187</ele>
		<time>2026-04-18T16:24:27Z</time>
	</wpt>
	<wpt lat="59.836140316827276" lon="17.55686955444366">
		<ele>51.241592354141176</ele>
		<time>2026-04-18T16:24:50Z</time>
	</wpt>
	<wpt lat="59.836373794003926" lon="17.55695111894781">
		<ele>49.812514351680875</ele>
		<time>2026-04-18T16:25:14Z</time>
	</wpt>
	<wpt lat="59.83659818755498" lon="17.556865826841612">
		<ele>50.47633130569011</ele>
		<time>2026-04-18T16:25:38Z</time>
	</wpt>
	<wpt lat="59.83682697063332" lon="17.55678064211463">
		<ele>49.7226583706215</ele>
		<time>2026-04-18T16:26:02Z</time>
	</wpt>
	<wpt lat="59.83703273135457" lon="17.556553003177">
		<ele>52.644100931473076</ele>
		<time>2026-04-18T16:26:46Z</time>
	</wpt>
	<wpt lat="59.83721036522899" lon="17.556262815294073">
		<ele>54.27312410622835</ele>
		<time>2026-04-18T16:27:09Z</time>
	</wpt>
	<wpt lat="59.83738485734504" lon="17.555972360446876">
		<ele>52.8426074590534</ele>
		<time>2026-04-18T16:27:32Z</time>
	</wpt>
	<wpt lat="59.837581569710395" lon="17.555728906471856">
		<ele>51.37721509486437</ele>
		<time>2026-04-18T16:27:55Z</time>
	</wpt>
	<wpt lat="59.83780858835216" lon="17.555701103708902">
		<ele>52.92813129350543</ele>
		<time>2026-04-18T16:28:17Z</time>
	</wpt>
	<wpt lat="59.838023705235805" lon="17.555830889155256">
		<ele>48.50158260576427</ele>
		<time>2026-04-18T16:28:44Z</time>
	</wpt>
	<wpt lat="59.83825191432441" lon="17.555743120889794">
		<ele>47.62285489309579</ele>
		<time>2026-04-18T16:29:40Z</time>
	</wpt>
	<wpt lat="59.838464151840164" lon="17.5559073059311">
		<ele>45.80082605499774</ele>
		<time>2026-04-18T16:30:05Z</time>
	</wpt>
	<wpt lat="59.83860937012887" lon="17.556251486893864">
		<ele>43.34569791518152</ele>
		<time>2026-04-18T16:30:34Z</time>
	</wpt>
	<wpt lat="59.83878139920174" lon="17.556538753507514">
		<ele>43.33422258589417</ele>
		<time>2026-04-18T16:31:12Z</time>
	</wpt>
	<wpt lat="59.838938004031206" lon="17.55688387357435">
		<ele>42.257160602137446</ele>
		<time>2026-04-18T16:31:33Z</time>
	</wpt>
	<wpt lat="59.83900041999552" lon="17.557333767354052">
		<ele>42.40259352233261</ele>
		<time>2026-04-18T16:32:03Z</time>
	</wpt>
	<wpt lat="59.83900126888384" lon="17.557799634505194">
		<ele>39.35543454065919</ele>
		<time>2026-04-18T16:32:36Z</time>
	</wpt>
	<wpt lat="59.83905881003514" lon="17.558237148761883">
		<ele>38.49536159913987</ele>
		<time>2026-04-18T16:32:58Z</time>
	</wpt>
	<wpt lat="59.839051426658834" lon="17.558694913708994">
		<ele>41.5294156037271</ele>
		<time>2026-04-18T16:33:19Z</time>
	</wpt>
	<wpt lat="59.83906333130347" lon="17.559141281653954">
		<ele>39.96061213500798</ele>
		<time>2026-04-18T16:33:41Z</time>
	</wpt>
	<wpt lat="59.83921256762256" lon="17.559507625925704">
		<ele>35.24423926137388</ele>
		<time>2026-04-18T16:34:10Z</time>
	</wpt>
	<wpt lat="59.83933828292986" lon="17.55990285358214">
		<ele>31.598772297613323</ele>
		<time>2026-04-18T16:34:34Z</time>
	</wpt>
	<wpt lat="59.83935401145717" lon="17.560368909758065">
		<ele>29.572647688910365</ele>
		<time>2026-04-18T16:34:54Z</time>
	</wpt>
	<wpt lat="59.839390011140715" lon="17.560811355439505">
		<ele>27.08493346814066</ele>
		<time>2026-04-18T16:35:14Z</time>
	</wpt>
	<wpt lat="59.83942804790607" lon="17.561281210421935">
		<ele>24.99574250448495</ele>
		<time>2026-04-18T16:35:35Z</time>
	</wpt>
	<wpt lat="59.83947236643222" lon="17.561723235242457">
		<ele>25.280450130812824</ele>
		<time>2026-04-18T16:35:55Z</time>
	</wpt>
	<wpt lat="59.83951683151345" lon="17.562165839947937">
		<ele>25.584484776481986</ele>
		<time>2026-04-18T16:36:15Z</time>
	</wpt>
	<wpt lat="59.83957382348035" lon="17.562604159343305">
		<ele>25.678176439367235</ele>
		<time>2026-04-18T16:36:35Z</time>
	</wpt>
	<wpt lat="59.83966575188598" lon="17.56302894528244">
		<ele>26.763108940795064</ele>
		<time>2026-04-18T16:37:09Z</time>
	</wpt>
	<wpt lat="59.83973084667113" lon="17.563468377782616">
		<ele>28.626445221714675</ele>
		<time>2026-04-18T16:37:48Z</time>
	</wpt>
	<wpt lat="59.83980296044826" lon="17.563916267267516">
		<ele>27.725950196385384</ele>
		<time>2026-04-18T16:38:10Z</time>
	</wpt>
	<wpt lat="59.83986957547279" lon="17.56435276804179">
		<ele>27.01571630872786</ele>
		<time>2026-04-18T16:38:31Z</time>
	</wpt>
	<wpt lat="59.839953206331" lon="17.56478030949432">
		<ele>26.635371996089816</ele>
		<time>2026-04-18T16:38:52Z</time>
	</wpt>
	<wpt lat="59.84003934605068" lon="17.565200298783207">
		<ele>26.83421584777534</ele>
		<time>2026-04-18T16:39:13Z</time>
	</wpt>
	<wpt lat="59.84013149253835" lon="17.56563394989776">
		<ele>27.765598740428686</ele>
		<time>2026-04-18T16:39:34Z</time>
	</wpt>
	<wpt lat="59.84021537819274" lon="17.566068589398604">
		<ele>26.792788884602487</ele>
		<time>2026-04-18T16:39:55Z</time>
	</wpt>
	<wpt lat="59.84030072226334" lon="17.56649311673347">
		<ele>28.658207329921424</ele>
		<time>2026-04-18T16:40:14Z</time>
	</wpt>
	<wpt lat="59.84038148330644" lon="17.566932109625082">
		<ele>28.62000728957355</ele>
		<time>2026-04-18T16:40:34Z</time>
	</wpt>
	<wpt lat="59.84046681216569" lon="17.567353477706096">
		<ele>28.978597023524344</ele>
		<time>2026-04-18T16:40:53Z</time>
	</wpt>
	<wpt lat="59.840549679137176" lon="17.56777338898578">
		<ele>29.535299817100167</ele>
		<time>2026-04-18T16:41:11Z</time>
	</wpt>
	<wpt lat="59.840707798546546" lon="17.56744284318796">
		<ele>32.49666021298617</ele>
		<time>2026-04-18T16:42:52Z</time>
	</wpt>
	<wpt lat="59.840816855492776" lon="17.5670364648137">
		<ele>31.43878762423992</ele>
		<time>2026-04-18T16:43:50Z</time>
	</wpt>
	<wpt lat="59.84102820944156" lon="17.566876503774903">
		<ele>35.42102817259729</ele>
		<time>2026-04-18T16:44:11Z</time>
	</wpt>
	<wpt lat="59.841175583810156" lon="17.566537236948793">
		<ele>31.929435909725726</ele>
		<time>2026-04-18T16:44:33Z</time>
	</wpt>
	<wpt lat="59.841331549415784" lon="17.566187821322384">
		<ele>32.16503164265305</ele>
		<time>2026-04-18T16:44:52Z</time>
	</wpt>
	<wpt lat="59.84155750697473" lon="17.566068763182503">
		<ele>30.84651397354901</ele>
		<time>2026-04-18T16:45:12Z</time>
	</wpt>
	<wpt lat="59.841737304753394" lon="17.566344448237327">
		<ele>24.998139332979918</ele>
		<time>2026-04-18T16:45:52Z</time>
	</wpt>
	<wpt lat="59.84196325516811" lon="17.566376278430607">
		<ele>25.478787453845143</ele>
		<time>2026-04-18T16:46:25Z</time>
	</wpt>
	<wpt lat="59.842187988436436" lon="17.566409814586848">
		<ele>21.653552466072142</ele>
		<time>2026-04-18T16:46:58Z</time>
	</wpt>
	<wpt lat="59.84230339014129" lon="17.566025805936366">
		<ele>22.1972599606961</ele>
		<time>2026-04-18T16:47:15Z</time>
	</wpt>
	<wpt lat="59.84246556934175" lon="17.56569967353448">
		<ele>24.36695791594684</ele>
		<time>2026-04-18T16:47:36Z</time>
	</wpt>
	<wpt lat="59.84266042373939" lon="17.565444195492727">
		<ele>27.131255640648305</ele>
		<time>2026-04-18T16:47:58Z</time>
	</wpt>
	<wpt lat="59.84288609372841" lon="17.565337877337523">
		<ele>26.034167586825788</ele>
		<time>2026-04-18T16:48:25Z</time>
	</wpt>
	<wpt lat="59.84310714079388" lon="17.565236223218836">
		<ele>26.467051194049418</ele>
		<time>2026-04-18T16:48:45Z</time>
	</wpt>
	<wpt lat="59.843323190169414" lon="17.565093729539864">
		<ele>28.79632020648569</ele>
		<time>2026-04-18T16:50:26Z</time>
	</wpt>
	<wpt lat="59.84354837803076" lon="17.56498434488598">
		<ele>28.025205281563103</ele>
		<time>2026-04-18T16:50:49Z</time>
	</wpt>
	<wpt lat="59.84377683860863" lon="17.56488959237434">
		<ele>29.109733030200005</ele>
		<time>2026-04-18T16:51:10Z</time>
	</wpt>
	<wpt lat="59.84399766633594" lon="17.56481023330143">
		<ele>28.49461314175278</ele>
		<time>2026-04-18T16:51:30Z</time>
	</wpt>
	<wpt lat="59.844222893319554" lon="17.56471918574655">
		<ele>29.458303538151085</ele>
		<time>2026-04-18T16:51:50Z</time>
	</wpt>
	<wpt lat="59.84445385000689" lon="17.56466444692971">
		<ele>29.27804849948734</ele>
		<time>2026-04-18T16:52:10Z</time>
	</wpt>
	<wpt lat="59.8446773713136" lon="17.56458309028817">
		<ele>29.526959515176713</ele>
		<time>2026-04-18T16:52:28Z</time>
	</wpt>
	<wpt lat="59.84490100067961" lon="17.56449932578534">
		<ele>29.531991228461266</ele>
		<time>2026-04-18T16:52:48Z</time>
	</wpt>
	<wpt lat="59.84512389299291" lon="17.564431825766352">
		<ele>30.378607557155192</ele>
		<time>2026-04-18T16:53:07Z</time>
	</wpt>
	<wpt lat="59.84535399467321" lon="17.564434020982784">
		<ele>29.526710647158325</ele>
		<time>2026-04-18T16:53:40Z</time>
	</wpt>
	<wpt lat="59.84533114482717" lon="17.564467455717658">
		<ele>30.42159687820822</ele>
		<time>2026-04-18T16:53:54Z</time>
	</wpt>
	<trk>
		<trkseg>
			<trkpt lat="59.845148731779034" lon="17.564389375208716">
				<ele>24.469387186691165</ele>
				<time>2026-04-18T15:16:01Z</time>
			</trkpt>
			<trkpt lat="59.84491622759304" lon="17.564415549106155">
				<ele>30.866868559271097</ele>
				<time>2026-04-18T15:16:18Z</time>
			</trkpt>
			<trkpt lat="59.844699821908954" lon="17.564560628762262">
				<ele>29.081125671975315</ele>
				<time>2026-04-18T15:16:55Z</time>
			</trkpt>
			<trkpt lat="59.84447459490251" lon="17.5646383192742">
				<ele>30.30033455044031</ele>
				<time>2026-04-18T15:17:15Z</time>
			</trkpt>
			<trkpt lat="59.84424742289154" lon="17.564707833863608">
				<ele>30.05690372083336</ele>
				<time>2026-04-18T15:17:37Z</time>
			</trkpt>
			<trkpt lat="59.844019816980335" lon="17.564803066346336">
				<ele>30.960814513266087</ele>
				<time>2026-04-18T15:17:57Z</time>
			</trkpt>
			<trkpt lat="59.843796769425175" lon="17.564884217264666">
				<ele>30.085770662873983</ele>
				<time>2026-04-18T15:18:17Z</time>
			</trkpt>
			<trkpt lat="59.84356593941338" lon="17.564978179877812">
				<ele>29.05539790727198</ele>
				<time>2026-04-18T15:18:38Z</time>
			</trkpt>
			<trkpt lat="59.84333519382236" lon="17.565083565452813">
				<ele>27.759111537598073</ele>
				<time>2026-04-18T15:18:58Z</time>
			</trkpt>
			<trkpt lat="59.84311399544799" lon="17.565196811402117">
				<ele>27.023122440092266</ele>
				<time>2026-04-18T15:19:17Z</time>
			</trkpt>
			<trkpt lat="59.84288434594599" lon="17.565274331464433">
				<ele>27.733811220154166</ele>
				<time>2026-04-18T15:19:36Z</time>
			</trkpt>
			<trkpt lat="59.842663678495164" lon="17.565408464221054">
				<ele>26.842072883620858</ele>
				<time>2026-04-18T15:19:54Z</time>
			</trkpt>
			<trkpt lat="59.84248029494997" lon="17.5656760299205">
				<ele>25.554955769330263</ele>
				<time>2026-04-18T15:20:15Z</time>
			</trkpt>
			<trkpt lat="59.84231211561163" lon="17.56599824351577">
				<ele>20.604313442483544</ele>
				<time>2026-04-18T15:20:34Z</time>
			</trkpt>
			<trkpt lat="59.84217236364717" lon="17.566381588855638">
				<ele>20.918841326609254</ele>
				<time>2026-04-18T15:20:50Z</time>
			</trkpt>
			<trkpt lat="59.841946470945025" lon="17.56634952308414">
				<ele>22.598113171756268</ele>
				<time>2026-04-18T15:21:26Z</time>
			</trkpt>
			<trkpt lat="59.84172449066331" lon="17.566277796259104">
				<ele>28.131793413311243</ele>
				<time>2026-04-18T15:23:06Z</time>
			</trkpt>
			<trkpt lat="59.84153233535062" lon="17.56603771502432">
				<ele>36.09328222926706</ele>
				<time>2026-04-18T15:24:20Z</time>
			</trkpt>
			<trkpt lat="59.841314621711746" lon="17.566178557730048">
				<ele>33.207052394747734</ele>
				<time>2026-04-18T15:24:45Z</time>
			</trkpt>
			<trkpt lat="59.84117123893177" lon="17.56652474975651">
				<ele>32.59565026964992</ele>
				<time>2026-04-18T15:25:09Z</time>
			</trkpt>
			<trkpt lat="59.84101857973246" lon="17.56688390518342">
				<ele>34.23053469043225</ele>
				<time>2026-04-18T15:25:30Z</time>
			</trkpt>
			<trkpt lat="59.840824208242665" lon="17.567116644080855">
				<ele>35.00342033803463</ele>
				<time>2026-04-18T15:25:49Z</time>
			</trkpt>
			<trkpt lat="59.8406921980927" lon="17.567486090764728">
				<ele>31.518079727888107</ele>
				<time>2026-04-18T15:27:09Z</time>
			</trkpt>
			<trkpt lat="59.84053518911939" lon="17.567817741982925">
				<ele>31.20837817620486</ele>
				<time>2026-04-18T15:27:48Z</time>
			</trkpt>
			<trkpt lat="59.84036606706593" lon="17.568132675131938">
				<ele>31.768063003197312</ele>
				<time>2026-04-18T15:28:30Z</time>
			</trkpt>
			<trkpt lat="59.84014759190765" lon="17.568323690905764">
				<ele>28.013867902569473</ele>
				<time>2026-04-18T15:29:47Z</time>
			</trkpt>
			<trkpt lat="59.83991276517226" lon="17.568276036356426">
				<ele>29.84982000850141</ele>
				<time>2026-04-18T15:30:05Z</time>
			</trkpt>
			<trkpt lat="59.839719796777494" lon="17.568546163101725">
				<ele>29.588078076019883</ele>
				<time>2026-04-18T15:30:25Z</time>
			</trkpt>
			<trkpt lat="59.8395823963518" lon="17.56890685400032">
				<ele>28.675515854731202</ele>
				<time>2026-04-18T15:30:44Z</time>
			</trkpt>
			<trkpt lat="59.83944787191158" lon="17.569264649854322">
				<ele>30.145023735240102</ele>
				<time>2026-04-18T15:31:03Z</time>
			</trkpt>
			<trkpt lat="59.83937892642238" lon="17.569698408534585">
				<ele>28.60811467282474</ele>
				<time>2026-04-18T15:31:31Z</time>
			</trkpt>
			<trkpt lat="59.83915364829643" lon="17.569667774186318">
				<ele>28.980378017760813</ele>
				<time>2026-04-18T15:31:59Z</time>
			</trkpt>
			<trkpt lat="59.83893465314693" lon="17.569568590141017">
				<ele>29.377813364379108</ele>
				<time>2026-04-18T15:32:20Z</time>
			</trkpt>
			<trkpt lat="59.83870752531018" lon="17.569490324602526">
				<ele>28.452777376398444</ele>
				<time>2026-04-18T15:32:42Z</time>
			</trkpt>
			<trkpt lat="59.83848416857249" lon="17.569406162749136">
				<ele>28.62228910252452</ele>
				<time>2026-04-18T15:33:03Z</time>
			</trkpt>
			<trkpt lat="59.838251868997574" lon="17.569310607428154">
				<ele>29.83657681569457</ele>
				<time>2026-04-18T15:33:25Z</time>
			</trkpt>
			<trkpt lat="59.83801842871995" lon="17.569233088877347">
				<ele>29.676880002953112</ele>
				<time>2026-04-18T15:33:46Z</time>
			</trkpt>
			<trkpt lat="59.83779486104673" lon="17.56914154066779">
				<ele>29.988894453272223</ele>
				<time>2026-04-18T15:34:07Z</time>
			</trkpt>
			<trkpt lat="59.83757518781349" lon="17.569047050127082">
				<ele>30.451305116526783</ele>
				<time>2026-04-18T15:34:27Z</time>
			</trkpt>
			<trkpt lat="59.837350512347335" lon="17.568954799385896">
				<ele>31.89482220914215</ele>
				<time>2026-04-18T15:34:48Z</time>
			</trkpt>
			<trkpt lat="59.83712004169075" lon="17.56886890732059">
				<ele>32.71589419338852</ele>
				<time>2026-04-18T15:35:10Z</time>
			</trkpt>
			<trkpt lat="59.836893247882585" lon="17.56877060291579">
				<ele>33.340875171124935</ele>
				<time>2026-04-18T15:35:30Z</time>
			</trkpt>
			<trkpt lat="59.8366682814003" lon="17.56870636372812">
				<ele>32.939040606841445</ele>
				<time>2026-04-18T15:35:51Z</time>
			</trkpt>
			<trkpt lat="59.836443008929834" lon="17.568587808398654">
				<ele>37.944332061335444</ele>
				<time>2026-04-18T15:36:13Z</time>
			</trkpt>
			<trkpt lat="59.83621704118031" lon="17.568524270669275">
				<ele>43.64945620112121</ele>
				<time>2026-04-18T15:36:36Z</time>
			</trkpt>
			<trkpt lat="59.835984033067014" lon="17.568579451848144">
				<ele>42.74388421885669</ele>
				<time>2026-04-18T15:36:56Z</time>
			</trkpt>
			<trkpt lat="59.8357527744081" lon="17.568681715270433">
				<ele>45.24071949813515</ele>
				<time>2026-04-18T15:38:07Z</time>
			</trkpt>
			<trkpt lat="59.835533700927066" lon="17.56877874885778">
				<ele>49.53113404288888</ele>
				<time>2026-04-18T15:38:28Z</time>
			</trkpt>
			<trkpt lat="59.83532400082259" lon="17.56896406478834">
				<ele>51.5235694097355</ele>
				<time>2026-04-18T15:38:46Z</time>
			</trkpt>
			<trkpt lat="59.83509760248239" lon="17.569024453590018">
				<ele>50.45276427734643</ele>
				<time>2026-04-18T15:39:07Z</time>
			</trkpt>
			<trkpt lat="59.83486895434972" lon="17.569034150975057">
				<ele>50.32771528791636</ele>
				<time>2026-04-18T15:39:30Z</time>
			</trkpt>
			<trkpt lat="59.83464307196212" lon="17.56890606217901">
				<ele>53.9001973727718</ele>
				<time>2026-04-18T15:39:49Z</time>
			</trkpt>
			<trkpt lat="59.834428293978085" lon="17.568761932037336">
				<ele>54.097277669236064</ele>
				<time>2026-04-18T15:40:11Z</time>
			</trkpt>
			<trkpt lat="59.83421236027898" lon="17.568595611062886">
				<ele>52.77414733078331</ele>
				<time>2026-04-18T15:40:59Z</time>
			</trkpt>
			<trkpt lat="59.834023560051406" lon="17.56832962793421">
				<ele>53.141379785723984</ele>
				<time>2026-04-18T15:41:21Z</time>
			</trkpt>
			<trkpt lat="59.83382517177621" lon="17.5681071039445">
				<ele>54.711098411120474</ele>
				<time>2026-04-18T15:41:42Z</time>
			</trkpt>
			<trkpt lat="59.833596766687734" lon="17.56801192855949">
				<ele>49.23382794763893</ele>
				<time>2026-04-18T15:41:58Z</time>
			</trkpt>
			<trkpt lat="59.83337109284735" lon="17.568082186022547">
				<ele>45.57919333036989</ele>
				<time>2026-04-18T15:44:59Z</time>
			</trkpt>
			<trkpt lat="59.83314628530071" lon="17.568114662234162">
				<ele>42.221526838839054</ele>
				<time>2026-04-18T15:45:21Z</time>
			</trkpt>
			<trkpt lat="59.83292093391678" lon="17.568170805166805">
				<ele>45.07760425377637</ele>
				<time>2026-04-18T15:45:40Z</time>
			</trkpt>
			<trkpt lat="59.83269474884035" lon="17.568215422928073">
				<ele>44.05658083036542</ele>
				<time>2026-04-18T15:46:25Z</time>
			</trkpt>
			<trkpt lat="59.83246393435757" lon="17.56829016202355">
				<ele>45.40251948032528</ele>
				<time>2026-04-18T15:46:45Z</time>
			</trkpt>
			<trkpt lat="59.83223085104052" lon="17.568309926665822">
				<ele>48.220445110462606</ele>
				<time>2026-04-18T15:47:05Z</time>
			</trkpt>
			<trkpt lat="59.832001878404355" lon="17.568257838851885">
				<ele>46.56681666895747</ele>
				<time>2026-04-18T15:47:25Z</time>
			</trkpt>
			<trkpt lat="59.831790006528756" lon="17.568085064471">
				<ele>49.42672585416585</ele>
				<time>2026-04-18T15:47:42Z</time>
			</trkpt>
			<trkpt lat="59.831610591100706" lon="17.567804908381003">
				<ele>52.27904925774783</ele>
				<time>2026-04-18T15:48:01Z</time>
			</trkpt>
			<trkpt lat="59.83141689533772" lon="17.56757592138246">
				<ele>53.623152568005025</ele>
				<time>2026-04-18T15:48:21Z</time>
			</trkpt>
			<trkpt lat="59.83120422687978" lon="17.567400747381367">
				<ele>53.47799364477396</ele>
				<time>2026-04-18T15:48:41Z</time>
			</trkpt>
			<trkpt lat="59.83098616540473" lon="17.56721562172201">
				<ele>51.37451491970569</ele>
				<time>2026-04-18T15:49:03Z</time>
			</trkpt>
			<trkpt lat="59.830798372105576" lon="17.56746191720947">
				<ele>56.3859275598079</ele>
				<time>2026-04-18T15:50:14Z</time>
			</trkpt>
			<trkpt lat="59.83059482201197" lon="17.567258187852357">
				<ele>51.68895286228508</ele>
				<time>2026-04-18T15:51:40Z</time>
			</trkpt>
			<trkpt lat="59.8303692025632" lon="17.567271986828384">
				<ele>52.90553185623139</ele>
				<time>2026-04-18T15:52:01Z</time>
			</trkpt>
			<trkpt lat="59.83014223838694" lon="17.567198253739434">
				<ele>53.01434403844178</ele>
				<time>2026-04-18T15:52:23Z</time>
			</trkpt>
			<trkpt lat="59.829939784353634" lon="17.56699384494932">
				<ele>53.74387579038739</ele>
				<time>2026-04-18T15:52:40Z</time>
			</trkpt>
			<trkpt lat="59.82970727311347" lon="17.566974789283506">
				<ele>53.159885103814304</ele>
				<time>2026-04-18T15:53:02Z</time>
			</trkpt>
			<trkpt lat="59.82947534954666" lon="17.566991555893303">
				<ele>52.65476076491177</ele>
				<time>2026-04-18T15:53:23Z</time>
			</trkpt>
			<trkpt lat="59.8292453104016" lon="17.5670034723167">
				<ele>50.108047978021204</ele>
				<time>2026-04-18T15:53:43Z</time>
			</trkpt>
			<trkpt lat="59.82901317196236" lon="17.567026632558715">
				<ele>51.440213459543884</ele>
				<time>2026-04-18T15:54:04Z</time>
			</trkpt>
			<trkpt lat="59.8287838238543" lon="17.56688050904068">
				<ele>55.62034065276384</ele>
				<time>2026-04-18T15:54:23Z</time>
			</trkpt>
			<trkpt lat="59.82861441093459" lon="17.56658783763657">
				<ele>55.40356138441712</ele>
				<time>2026-04-18T15:54:41Z</time>
			</trkpt>
			<trkpt lat="59.828426940343995" lon="17.566329723443367">
				<ele>54.194631330668926</ele>
				<time>2026-04-18T15:55:02Z</time>
			</trkpt>
			<trkpt lat="59.82820097764241" lon="17.56618672376445">
				<ele>57.33561450894922</ele>
				<time>2026-04-18T15:55:21Z</time>
			</trkpt>
			<trkpt lat="59.82797611258915" lon="17.566085530497613">
				<ele>54.73646695818752</ele>
				<time>2026-04-18T15:55:43Z</time>
			</trkpt>
			<trkpt lat="59.82803781950217" lon="17.56564577324191">
				<ele>51.635956722311676</ele>
				<time>2026-04-18T15:56:34Z</time>
			</trkpt>
			<trkpt lat="59.827943280419206" lon="17.56523663269752">
				<ele>51.32007344439626</ele>
				<time>2026-04-18T15:56:58Z</time>
			</trkpt>
			<trkpt lat="59.82787248802962" lon="17.56480964516177">
				<ele>50.510637069121</ele>
				<time>2026-04-18T15:57:28Z</time>
			</trkpt>
			<trkpt lat="59.827793046695994" lon="17.56439200276281">
				<ele>52.984480124898255</ele>
				<time>2026-04-18T15:57:58Z</time>
			</trkpt>
			<trkpt lat="59.82771383809813" lon="17.56396665459802">
				<ele>51.94905250146985</ele>
				<time>2026-04-18T15:58:25Z</time>
			</trkpt>
			<trkpt lat="59.82769138738267" lon="17.563520660260078">
				<ele>49.48986708279699</ele>
				<time>2026-04-18T15:58:59Z</time>
			</trkpt>
			<trkpt lat="59.82771882913343" lon="17.563077969178124">
				<ele>51.27580085210502</ele>
				<time>2026-04-18T15:59:27Z</time>
			</trkpt>
			<trkpt lat="59.82762741269567" lon="17.562660241224922">
				<ele>50.27827063947916</ele>
				<time>2026-04-18T15:59:51Z</time>
			</trkpt>
			<trkpt lat="59.827644435401105" lon="17.562209246126933">
				<ele>48.39945404417813</ele>
				<time>2026-04-18T16:00:28Z</time>
			</trkpt>
			<trkpt lat="59.82781069488907" lon="17.561897972784145">
				<ele>47.77147596236318</ele>
				<time>2026-04-18T16:00:58Z</time>
			</trkpt>
			<trkpt lat="59.82802372131114" lon="17.56169618852649">
				<ele>46.121746180579066</ele>
				<time>2026-04-18T16:01:25Z</time>
			</trkpt>
			<trkpt lat="59.82817223448271" lon="17.561348088316937">
				<ele>48.63503051549196</ele>
				<time>2026-04-18T16:01:54Z</time>
			</trkpt>
			<trkpt lat="59.82828434960768" lon="17.56094144188585">
				<ele>49.63618749473244</ele>
				<time>2026-04-18T16:02:36Z</time>
			</trkpt>
			<trkpt lat="59.82843251918195" lon="17.560589519022752">
				<ele>50.60792678128928</ele>
				<time>2026-04-18T16:03:04Z</time>
			</trkpt>
			<trkpt lat="59.82862997216367" lon="17.56037600602211">
				<ele>52.11681134440005</ele>
				<time>2026-04-18T16:03:32Z</time>
			</trkpt>
			<trkpt lat="59.8288548679278" lon="17.560249990950254">
				<ele>56.44536875654012</ele>
				<time>2026-04-18T16:04:05Z</time>
			</trkpt>
			<trkpt lat="59.82906808765471" lon="17.56010123902709">
				<ele>56.74295416660607</ele>
				<time>2026-04-18T16:04:33Z</time>
			</trkpt>
			<trkpt lat="59.829286973836105" lon="17.559991005387936">
				<ele>51.78912409488112</ele>
				<time>2026-04-18T16:05:18Z</time>
			</trkpt>
			<trkpt lat="59.82948537457286" lon="17.559772623857583">
				<ele>52.2300097970292</ele>
				<time>2026-04-18T16:05:51Z</time>
			</trkpt>
			<trkpt lat="59.82970160044383" lon="17.55964474328772">
				<ele>48.87279966007918</ele>
				<time>2026-04-18T16:06:16Z</time>
			</trkpt>
			<trkpt lat="59.829929729818" lon="17.559631136498247">
				<ele>47.379798672161996</ele>
				<time>2026-04-18T16:06:41Z</time>
			</trkpt>
			<trkpt lat="59.83015273274782" lon="17.559697550641122">
				<ele>47.57213517092168</ele>
				<time>2026-04-18T16:07:06Z</time>
			</trkpt>
			<trkpt lat="59.83037798188826" lon="17.559791596628127">
				<ele>47.540432440117</ele>
				<time>2026-04-18T16:07:36Z</time>
			</trkpt>
			<trkpt lat="59.83060759051277" lon="17.559745776766704">
				<ele>49.437858706340194</ele>
				<time>2026-04-18T16:08:51Z</time>
			</trkpt>
			<trkpt lat="59.830801835697365" lon="17.559517278777253">
				<ele>48.766128421761096</ele>
				<time>2026-04-18T16:09:27Z</time>
			</trkpt>
			<trkpt lat="59.830973016449626" lon="17.559227357323266">
				<ele>48.91530384682119</ele>
				<time>2026-04-18T16:09:56Z</time>
			</trkpt>
			<trkpt lat="59.8311783998071" lon="17.559027491353046">
				<ele>48.07550052553415</ele>
				<time>2026-04-18T16:10:26Z</time>
			</trkpt>
			<trkpt lat="59.83137600863752" lon="17.558794290324713">
				<ele>51.97670064866543</ele>
				<time>2026-04-18T16:11:34Z</time>
			</trkpt>
			<trkpt lat="59.83158406548824" lon="17.558585634523887">
				<ele>48.079096659086645</ele>
				<time>2026-04-18T16:12:10Z</time>
			</trkpt>
			<trkpt lat="59.83177855666042" lon="17.558338233946678">
				<ele>51.89565606974065</ele>
				<time>2026-04-18T16:12:40Z</time>
			</trkpt>
			<trkpt lat="59.831956111789985" lon="17.55805629289405">
				<ele>51.21440341603011</ele>
				<time>2026-04-18T16:13:07Z</time>
			</trkpt>
			<trkpt lat="59.832149338164676" lon="17.55781257047097">
				<ele>49.94919319264591</ele>
				<time>2026-04-18T16:13:48Z</time>
			</trkpt>
			<trkpt lat="59.832375908752766" lon="17.55776133820638">
				<ele>48.03709107730538</ele>
				<time>2026-04-18T16:14:24Z</time>
			</trkpt>
			<trkpt lat="59.832575287536756" lon="17.557520562540226">
				<ele>50.797130414284766</ele>
				<time>2026-04-18T16:15:09Z</time>
			</trkpt>
			<trkpt lat="59.83278088650618" lon="17.557325394165456">
				<ele>45.81031317729503</ele>
				<time>2026-04-18T16:15:48Z</time>
			</trkpt>
			<trkpt lat="59.83300361553969" lon="17.557192153082955">
				<ele>50.129731363616884</ele>
				<time>2026-04-18T16:16:22Z</time>
			</trkpt>
			<trkpt lat="59.833217379591304" lon="17.557354422733688">
				<ele>48.66649777069688</ele>
				<time>2026-04-18T16:16:50Z</time>
			</trkpt>
			<trkpt lat="59.833440992889926" lon="17.55730060041055">
				<ele>51.37002189923078</ele>
				<time>2026-04-18T16:17:15Z</time>
			</trkpt>
			<trkpt lat="59.8336307143662" lon="17.55704798262528">
				<ele>54.27019440662116</ele>
				<time>2026-04-18T16:17:40Z</time>
			</trkpt>
			<trkpt lat="59.833805860061446" lon="17.556733520917874">
				<ele>54.898607253097</ele>
				<time>2026-04-18T16:18:07Z</time>
			</trkpt>
			<trkpt lat="59.833814517168136" lon="17.556278734866726">
				<ele>52.34430534392595</ele>
				<time>2026-04-18T16:18:40Z</time>
			</trkpt>
			<trkpt lat="59.833884151349714" lon="17.555851072223035">
				<ele>55.777079295367</ele>
				<time>2026-04-18T16:19:08Z</time>
			</trkpt>
			<trkpt lat="59.834100891932906" lon="17.555670121643146">
				<ele>50.76928022503853</ele>
				<time>2026-04-18T16:20:10Z</time>
			</trkpt>
			<trkpt lat="59.83433264586511" lon="17.555587382612696">
				<ele>51.46522173285484</ele>
				<time>2026-04-18T16:20:31Z</time>
			</trkpt>
			<trkpt lat="59.83455786488519" lon="17.555544916816622">
				<ele>51.893729030154645</ele>
				<time>2026-04-18T16:21:06Z</time>
			</trkpt>
			<trkpt lat="59.83476393262331" lon="17.555741415334182">
				<ele>52.92203997913748</ele>
				<time>2026-04-18T16:21:27Z</time>
			</trkpt>
			<trkpt lat="59.83491713472969" lon="17.556073213829006">
				<ele>50.921213121153414</ele>
				<time>2026-04-18T16:21:53Z</time>
			</trkpt>
			<trkpt lat="59.835073136235664" lon="17.556412032913297">
				<ele>51.97222837153822</ele>
				<time>2026-04-18T16:22:14Z</time>
			</trkpt>
			<trkpt lat="59.83530228690565" lon="17.5564291179639">
				<ele>50.934318259358406</ele>
				<time>2026-04-18T16:22:35Z</time>
			</trkpt>
			<trkpt lat="59.835519220838506" lon="17.55631366321012">
				<ele>50.962827009148896</ele>
				<time>2026-04-18T16:22:55Z</time>
			</trkpt>
			<trkpt lat="59.8357408624159" lon="17.5564793203387">
				<ele>51.492489444091916</ele>
				<time>2026-04-18T16:23:54Z</time>
			</trkpt>
			<trkpt lat="59.83592573472603" lon="17.556736601613892">
				<ele>50.9411883354187</ele>
				<time>2026-04-18T16:24:27Z</time>
			</trkpt>
			<trkpt lat="59.836140316827276" lon="17.55686955444366">
				<ele>51.241592354141176</ele>
				<time>2026-04-18T16:24:50Z</time>
			</trkpt>
			<trkpt lat="59.836373794003926" lon="17.55695111894781">
				<ele>49.812514351680875</ele>
				<time>2026-04-18T16:25:14Z</time>
			</trkpt>
			<trkpt lat="59.83659818755498" lon="17.556865826841612">
				<ele>50.47633130569011</ele>
				<time>2026-04-18T16:25:38Z</time>
			</trkpt>
			<trkpt lat="59.83682697063332" lon="17.55678064211463">
				<ele>49.7226583706215</ele>
				<time>2026-04-18T16:26:02Z</time>
			</trkpt>
			<trkpt lat="59.83703273135457" lon="17.556553003177">
				<ele>52.644100931473076</ele>
				<time>2026-04-18T16:26:46Z</time>
			</trkpt>
			<trkpt lat="59.83721036522899" lon="17.556262815294073">
				<ele>54.27312410622835</ele>
				<time>2026-04-18T16:27:09Z</time>
			</trkpt>
			<trkpt lat="59.83738485734504" lon="17.555972360446876">
				<ele>52.8426074590534</ele>
				<time>2026-04-18T16:27:32Z</time>
			</trkpt>
			<trkpt lat="59.837581569710395" lon="17.555728906471856">
				<ele>51.37721509486437</ele>
				<time>2026-04-18T16:27:55Z</time>
			</trkpt>
			<trkpt lat="59.83780858835216" lon="17.555701103708902">
				<ele>52.92813129350543</ele>
				<time>2026-04-18T16:28:17Z</time>
			</trkpt>
			<trkpt lat="59.838023705235805" lon="17.555830889155256">
				<ele>48.50158260576427</ele>
				<time>2026-04-18T16:28:44Z</time>
			</trkpt>
			<trkpt lat="59.83825191432441" lon="17.555743120889794">
				<ele>47.62285489309579</ele>
				<time>2026-04-18T16:29:40Z</time>
			</trkpt>
			<trkpt lat="59.838464151840164" lon="17.5559073059311">
				<ele>45.80082605499774</ele>
				<time>2026-04-18T16:30:05Z</time>
			</trkpt>
			<trkpt lat="59.83860937012887" lon="17.556251486893864">
				<ele>43.34569791518152</ele>
				<time>2026-04-18T16:30:34Z</time>
			</trkpt>
			<trkpt lat="59.83878139920174" lon="17.556538753507514">
				<ele>43.33422258589417</ele>
				<time>2026-04-18T16:31:12Z</time>
			</trkpt>
			<trkpt lat="59.838938004031206" lon="17.55688387357435">
				<ele>42.257160602137446</ele>
				<time>2026-04-18T16:31:33Z</time>
			</trkpt>
			<trkpt lat="59.83900041999552" lon="17.557333767354052">
				<ele>42.40259352233261</ele>
				<time>2026-04-18T16:32:03Z</time>
			</trkpt>
			<trkpt lat="59.83900126888384" lon="17.557799634505194">
				<ele>39.35543454065919</ele>
				<time>2026-04-18T16:32:36Z</time>
			</trkpt>
			<trkpt lat="59.83905881003514" lon="17.558237148761883">
				<ele>38.49536159913987</ele>
				<time>2026-04-18T16:32:58Z</time>
			</trkpt>
			<trkpt lat="59.839051426658834" lon="17.558694913708994">
				<ele>41.5294156037271</ele>
				<time>2026-04-18T16:33:19Z</time>
			</trkpt>
			<trkpt lat="59.83906333130347" lon="17.559141281653954">
				<ele>39.96061213500798</ele>
				<time>2026-04-18T16:33:41Z</time>
			</trkpt>
			<trkpt lat="59.83921256762256" lon="17.559507625925704">
				<ele>35.24423926137388</ele>
				<time>2026-04-18T16:34:10Z</time>
			</trkpt>
			<trkpt lat="59.83933828292986" lon="17.55990285358214">
				<ele>31.598772297613323</ele>
				<time>2026-04-18T16:34:34Z</time>
			</trkpt>
			<trkpt lat="59.83935401145717" lon="17.560368909758065">
				<ele>29.572647688910365</ele>
				<time>2026-04-18T16:34:54Z</time>
			</trkpt>
			<trkpt lat="59.839390011140715" lon="17.560811355439505">
				<ele>27.08493346814066</ele>
				<time>2026-04-18T16:35:14Z</time>
			</trkpt>
			<trkpt lat="59.83942804790607" lon="17.561281210421935">
				<ele>24.99574250448495</ele>
				<time>2026-04-18T16:35:35Z</time>
			</trkpt>
			<trkpt lat="59.83947236643222" lon="17.561723235242457">
				<ele>25.280450130812824</ele>
				<time>2026-04-18T16:35:55Z</time>
			</trkpt>
			<trkpt lat="59.83951683151345" lon="17.562165839947937">
				<ele>25.584484776481986</ele>
				<time>2026-04-18T16:36:15Z</time>
			</trkpt>
			<trkpt lat="59.83957382348035" lon="17.562604159343305">
				<ele>25.678176439367235</ele>
				<time>2026-04-18T16:36:35Z</time>
			</trkpt>
			<trkpt lat="59.83966575188598" lon="17.56302894528244">
				<ele>26.763108940795064</ele>
				<time>2026-04-18T16:37:09Z</time>
			</trkpt>
			<trkpt lat="59.83973084667113" lon="17.563468377782616">
				<ele>28.626445221714675</ele>
				<time>2026-04-18T16:37:48Z</time>
			</trkpt>
			<trkpt lat="59.83980296044826" lon="17.563916267267516">
				<ele>27.725950196385384</ele>
				<time>2026-04-18T16:38:10Z</time>
			</trkpt>
			<trkpt lat="59.83986957547279" lon="17.56435276804179">
				<ele>27.01571630872786</ele>
				<time>2026-04-18T16:38:31Z</time>
			</trkpt>
			<trkpt lat="59.839953206331" lon="17.56478030949432">
				<ele>26.635371996089816</ele>
				<time>2026-04-18T16:38:52Z</time>
			</trkpt>
			<trkpt lat="59.84003934605068" lon="17.565200298783207">
				<ele>26.83421584777534</ele>
				<time>2026-04-18T16:39:13Z</time>
			</trkpt>
			<trkpt lat="59.84013149253835" lon="17.56563394989776">
				<ele>27.765598740428686</ele>
				<time>2026-04-18T16:39:34Z</time>
			</trkpt>
			<trkpt lat="59.84021537819274" lon="17.566068589398604">
				<ele>26.792788884602487</ele>
				<time>2026-04-18T16:39:55Z</time>
			</trkpt>
			<trkpt lat="59.84030072226334" lon="17.56649311673347">
				<ele>28.658207329921424</ele>
				<time>2026-04-18T16:40:14Z</time>
			</trkpt>
			<trkpt lat="59.84038148330644" lon="17.566932109625082">
				<ele>28.62000728957355</ele>
				<time>2026-04-18T16:40:34Z</time>
			</trkpt>
			<trkpt lat="59.84046681216569" lon="17.567353477706096">
				<ele>28.978597023524344</ele>
				<time>2026-04-18T16:40:53Z</time>
			</trkpt>
			<trkpt lat="59.840549679137176" lon="17.56777338898578">
				<ele>29.535299817100167</ele>
				<time>2026-04-18T16:41:11Z</time>
			</trkpt>
			<trkpt lat="59.840707798546546" lon="17.56744284318796">
				<ele>32.49666021298617</ele>
				<time>2026-04-18T16:42:52Z</time>
			</trkpt>
			<trkpt lat="59.840816855492776" lon="17.5670364648137">
				<ele>31.43878762423992</ele>
				<time>2026-04-18T16:43:50Z</time>
			</trkpt>
			<trkpt lat="59.84102820944156" lon="17.566876503774903">
				<ele>35.42102817259729</ele>
				<time>2026-04-18T16:44:11Z</time>
			</trkpt>
			<trkpt lat="59.841175583810156" lon="17.566537236948793">
				<ele>31.929435909725726</ele>
				<time>2026-04-18T16:44:33Z</time>
			</trkpt>
			<trkpt lat="59.841331549415784" lon="17.566187821322384">
				<ele>32.16503164265305</ele>
				<time>2026-04-18T16:44:52Z</time>
			</trkpt>
			<trkpt lat="59.84155750697473" lon="17.566068763182503">
				<ele>30.84651397354901</ele>
				<time>2026-04-18T16:45:12Z</time>
			</trkpt>
			<trkpt lat="59.841737304753394" lon="17.566344448237327">
				<ele>24.998139332979918</ele>
				<time>2026-04-18T16:45:52Z</time>
			</trkpt>
			<trkpt lat="59.84196325516811" lon="17.566376278430607">
				<ele>25.478787453845143</ele>
				<time>2026-04-18T16:46:25Z</time>
			</trkpt>
			<trkpt lat="59.842187988436436" lon="17.566409814586848">
				<ele>21.653552466072142</ele>
				<time>2026-04-18T16:46:58Z</time>
			</trkpt>
			<trkpt lat="59.84230339014129" lon="17.566025805936366">
				<ele>22.1972599606961</ele>
				<time>2026-04-18T16:47:15Z</time>
			</trkpt>
			<trkpt lat="59.84246556934175" lon="17.56569967353448">
				<ele>24.36695791594684</ele>
				<time>2026-04-18T16:47:36Z</time>
			</trkpt>
			<trkpt lat="59.84266042373939" lon="17.565444195492727">
				<ele>27.131255640648305</ele>
				<time>2026-04-18T16:47:58Z</time>
			</trkpt>
			<trkpt lat="59.84288609372841" lon="17.565337877337523">
				<ele>26.034167586825788</ele>
				<time>2026-04-18T16:48:25Z</time>
			</trkpt>
			<trkpt lat="59.84310714079388" lon="17.565236223218836">
				<ele>26.467051194049418</ele>
				<time>2026-04-18T16:48:45Z</time>
			</trkpt>
			<trkpt lat="59.843323190169414" lon="17.565093729539864">
				<ele>28.79632020648569</ele>
				<time>2026-04-18T16:50:26Z</time>
			</trkpt>
			<trkpt lat="59.84354837803076" lon="17.56498434488598">
				<ele>28.025205281563103</ele>
				<time>2026-04-18T16:50:49Z</time>
			</trkpt>
			<trkpt lat="59.84377683860863" lon="17.56488959237434">
				<ele>29.109733030200005</ele>
				<time>2026-04-18T16:51:10Z</time>
			</trkpt>
			<trkpt lat="59.84399766633594" lon="17.56481023330143">
				<ele>28.49461314175278</ele>
				<time>2026-04-18T16:51:30Z</time>
			</trkpt>
			<trkpt lat="59.844222893319554" lon="17.56471918574655">
				<ele>29.458303538151085</ele>
				<time>2026-04-18T16:51:50Z</time>
			</trkpt>
			<trkpt lat="59.84445385000689" lon="17.56466444692971">
				<ele>29.27804849948734</ele>
				<time>2026-04-18T16:52:10Z</time>
			</trkpt>
			<trkpt lat="59.8446773713136" lon="17.56458309028817">
				<ele>29.526959515176713</ele>
				<time>2026-04-18T16:52:28Z</time>
			</trkpt>
			<trkpt lat="59.84490100067961" lon="17.56449932578534">
				<ele>29.531991228461266</ele>
				<time>2026-04-18T16:52:48Z</time>
			</trkpt>
			<trkpt lat="59.84512389299291" lon="17.564431825766352">
				<ele>30.378607557155192</ele>
				<time>2026-04-18T16:53:07Z</time>
			</trkpt>
			<trkpt lat="59.84535399467321" lon="17.564434020982784">
				<ele>29.526710647158325</ele>
				<time>2026-04-18T16:53:40Z</time>
			</trkpt>
			<trkpt lat="59.84533114482717" lon="17.564467455717658">
				<ele>30.42159687820822</ele>
				<time>2026-04-18T16:53:54Z</time>
			</trkpt>
		</trkseg>
	</trk>
	<extensions>
	</extensions>
</gpx>
