<?xml version="1.0" encoding="UTF-8"?>
<gpx xmlns:xsi="http://www.w3.org/2001/XMLSchema-instance" xmlns="http://www.topografix.com/GPX/1/1" xsi:schemaLocation="http://www.topografix.com/GPX/1/1 http://www.topografix.com/GPX/1/1/gpx.xsd" version="1.1" creator="FootMark for iOS">
	<metadata>
		<link href="https://itunes.apple.com/us/app/footmark-route-recorder/id1451393033">
			<text>Download link</text>
		</link>
		<time>2026-05-01T23:05:21Z</time>
	</metadata>
	<wpt lat="59.78326250897627" lon="17.753567149587656">
		<ele>42.598416783846915</ele>
		<time>2026-03-06T13:44:02Z</time>
	</wpt>
	<wpt lat="59.78325423233713" lon="17.754014211656838">
		<ele>44.031702962704</ele>
		<time>2026-03-06T13:44:51Z</time>
	</wpt>
	<wpt lat="59.783098597343134" lon="17.753685961119324">
		<ele>41.79595081973821</ele>
		<time>2026-03-06T13:45:37Z</time>
	</wpt>
	<wpt lat="59.78305946393368" lon="17.753231796690567">
		<ele>40.12381559237838</ele>
		<time>2026-03-06T13:46:06Z</time>
	</wpt>
	<wpt lat="59.78302208034465" lon="17.75278054318506">
		<ele>40.96148073952645</ele>
		<time>2026-03-06T13:46:32Z</time>
	</wpt>
	<wpt lat="59.78296475384683" lon="17.75233873967736">
		<ele>40.587989350780845</ele>
		<time>2026-03-06T13:47:03Z</time>
	</wpt>
	<wpt lat="59.78294505215546" lon="17.751892519801903">
		<ele>41.08481736294925</ele>
		<time>2026-03-06T13:48:09Z</time>
	</wpt>
	<wpt lat="59.7829233066178" lon="17.75144730581057">
		<ele>43.99404556769878</ele>
		<time>2026-03-06T13:48:57Z</time>
	</wpt>
	<wpt lat="59.783082054306654" lon="17.751121385511883">
		<ele>49.3576919818297</ele>
		<time>2026-03-06T13:50:12Z</time>
	</wpt>
	<wpt lat="59.78319803000539" lon="17.750735700230695">
		<ele>47.56652141734958</ele>
		<time>2026-03-06T13:50:53Z</time>
	</wpt>
	<wpt lat="59.783329389393685" lon="17.750374146092962">
		<ele>52.41389760468155</ele>
		<time>2026-03-06T13:51:29Z</time>
	</wpt>
	<wpt lat="59.783272421272315" lon="17.749937869546656">
		<ele>53.17753913812339</ele>
		<time>2026-03-06T13:52:07Z</time>
	</wpt>
	<wpt lat="59.783340392709114" lon="17.749501224192787">
		<ele>51.96109237987548</ele>
		<time>2026-03-06T13:54:10Z</time>
	</wpt>
	<wpt lat="59.78357108036087" lon="17.74959355715078">
		<ele>49.9159666094929</ele>
		<time>2026-03-06T13:55:20Z</time>
	</wpt>
	<wpt lat="59.783711693894745" lon="17.749243473112045">
		<ele>52.257826833985746</ele>
		<time>2026-03-06T13:56:07Z</time>
	</wpt>
	<wpt lat="59.78348442684162" lon="17.749122100513006">
		<ele>52.3067867429927</ele>
		<time>2026-03-06T13:56:58Z</time>
	</wpt>
	<wpt lat="59.783264937533446" lon="17.749015282544676">
		<ele>53.983931134454906</ele>
		<time>2026-03-06T13:57:28Z</time>
	</wpt>
	<wpt lat="59.78305062168596" lon="17.7488357116809">
		<ele>49.46788741555065</ele>
		<time>2026-03-06T13:58:06Z</time>
	</wpt>
	<wpt lat="59.782826663695914" lon="17.748769142472515">
		<ele>47.88371726218611</ele>
		<time>2026-03-06T13:58:42Z</time>
	</wpt>
	<wpt lat="59.782729844626104" lon="17.749174985074173">
		<ele>50.45582874584943</ele>
		<time>2026-03-06T13:59:42Z</time>
	</wpt>
	<wpt lat="59.78251367328129" lon="17.74933247021188">
		<ele>50.21535756252706</ele>
		<time>2026-03-06T14:00:12Z</time>
	</wpt>
	<wpt lat="59.782376520790045" lon="17.74970019411337">
		<ele>53.66792343277484</ele>
		<time>2026-03-06T14:01:54Z</time>
	</wpt>
	<wpt lat="59.78215815779506" lon="17.749831907287053">
		<ele>50.69511348102242</ele>
		<time>2026-03-06T14:02:46Z</time>
	</wpt>
	<wpt lat="59.781987655199686" lon="17.750136050991877">
		<ele>52.289734351448715</ele>
		<time>2026-03-06T14:03:19Z</time>
	</wpt>
	<wpt lat="59.781927207332416" lon="17.749694867112854">
		<ele>50.245132830925286</ele>
		<time>2026-03-06T14:04:22Z</time>
	</wpt>
	<wpt lat="59.781711852879496" lon="17.749543616261168">
		<ele>50.092101983726025</ele>
		<time>2026-03-06T14:04:58Z</time>
	</wpt>
	<wpt lat="59.781498428952574" lon="17.749377414689636">
		<ele>52.13439317326993</ele>
		<time>2026-03-06T14:06:28Z</time>
	</wpt>
	<wpt lat="59.78133860399641" lon="17.749058288943797">
		<ele>53.41437258012593</ele>
		<time>2026-03-06T14:07:19Z</time>
	</wpt>
	<wpt lat="59.78113582897567" lon="17.748862395651614">
		<ele>51.27945555560291</ele>
		<time>2026-03-06T14:08:17Z</time>
	</wpt>
	<wpt lat="59.78110547764638" lon="17.748411091271866">
		<ele>52.82763924635947</ele>
		<time>2026-03-06T14:09:22Z</time>
	</wpt>
	<wpt lat="59.781124995322756" lon="17.747960644414942">
		<ele>53.17565006297082</ele>
		<time>2026-03-06T14:10:02Z</time>
	</wpt>
	<wpt lat="59.780908309251224" lon="17.747773297790864">
		<ele>54.69906958658248</ele>
		<time>2026-03-06T14:11:30Z</time>
	</wpt>
	<wpt lat="59.780692255353614" lon="17.74764921095699">
		<ele>53.91147178877145</ele>
		<time>2026-03-06T14:11:51Z</time>
	</wpt>
	<wpt lat="59.78056988738847" lon="17.747275151124736">
		<ele>56.30575313139707</ele>
		<time>2026-03-06T14:12:25Z</time>
	</wpt>
	<wpt lat="59.78065266940323" lon="17.7468522186361">
		<ele>54.10334188491106</ele>
		<time>2026-03-06T14:13:13Z</time>
	</wpt>
	<wpt lat="59.78067773508332" lon="17.74640711722865">
		<ele>53.439961896277964</ele>
		<time>2026-03-06T14:14:05Z</time>
	</wpt>
	<wpt lat="59.78055117896385" lon="17.746037873536647">
		<ele>53.10305081680417</ele>
		<time>2026-03-06T14:14:44Z</time>
	</wpt>
	<wpt lat="59.78031653596971" lon="17.746007070631713">
		<ele>54.83320139721036</ele>
		<time>2026-03-06T14:15:34Z</time>
	</wpt>
	<wpt lat="59.78011780047882" lon="17.745785329708013">
		<ele>55.162288673222065</ele>
		<time>2026-03-06T14:16:10Z</time>
	</wpt>
	<wpt lat="59.779888846819425" lon="17.745750195601126">
		<ele>51.25461004767567</ele>
		<time>2026-03-06T14:16:48Z</time>
	</wpt>
	<wpt lat="59.779662910129524" lon="17.74576003162224">
		<ele>54.706149764359</ele>
		<time>2026-03-06T14:17:13Z</time>
	</wpt>
	<wpt lat="59.77943805549752" lon="17.74576358432802">
		<ele>55.07304102554917</ele>
		<time>2026-03-06T14:18:19Z</time>
	</wpt>
	<wpt lat="59.77925949786456" lon="17.74604258457878">
		<ele>51.435141045600176</ele>
		<time>2026-03-06T14:19:00Z</time>
	</wpt>
	<wpt lat="59.77907045495749" lon="17.74628488134236">
		<ele>52.474528077058494</ele>
		<time>2026-03-06T14:20:24Z</time>
	</wpt>
	<wpt lat="59.778997335634116" lon="17.745861899937893">
		<ele>51.89250717032701</ele>
		<time>2026-03-06T14:21:04Z</time>
	</wpt>
	<wpt lat="59.7790478540175" lon="17.746300606634296">
		<ele>52.001260291785</ele>
		<time>2026-03-06T14:21:53Z</time>
	</wpt>
	<wpt lat="59.77911062833774" lon="17.74675088939435">
		<ele>49.80850561428815</ele>
		<time>2026-03-06T14:22:16Z</time>
	</wpt>
	<wpt lat="59.77896610036784" lon="17.747094162577696">
		<ele>51.45138476137072</ele>
		<time>2026-03-06T14:23:14Z</time>
	</wpt>
	<wpt lat="59.77916101206401" lon="17.746840297381407">
		<ele>54.28540488425642</ele>
		<time>2026-03-06T14:25:18Z</time>
	</wpt>
	<wpt lat="59.77912341552087" lon="17.74638958555502">
		<ele>52.89547841437161</ele>
		<time>2026-03-06T14:25:47Z</time>
	</wpt>
	<wpt lat="59.77905167168054" lon="17.745965281410907">
		<ele>54.895447104237974</ele>
		<time>2026-03-06T14:26:18Z</time>
	</wpt>
	<wpt lat="59.77890952728544" lon="17.74560944286112">
		<ele>52.43059082143009</ele>
		<time>2026-03-06T14:27:12Z</time>
	</wpt>
	<wpt lat="59.77876082275707" lon="17.745276045806083">
		<ele>51.769659543409944</ele>
		<time>2026-03-06T14:27:42Z</time>
	</wpt>
	<wpt lat="59.77863983972213" lon="17.744896798273235">
		<ele>55.01046244241297</ele>
		<time>2026-03-06T14:28:28Z</time>
	</wpt>
	<wpt lat="59.77856721848658" lon="17.744461798854573">
		<ele>52.44689479097724</ele>
		<time>2026-03-06T14:29:12Z</time>
	</wpt>
	<wpt lat="59.778455671363815" lon="17.74405247877066">
		<ele>53.38461836054921</ele>
		<time>2026-03-06T14:29:36Z</time>
	</wpt>
	<wpt lat="59.77831045123474" lon="17.74370314177991">
		<ele>52.706196322105825</ele>
		<time>2026-03-06T14:30:30Z</time>
	</wpt>
	<wpt lat="59.77840717809017" lon="17.7432960318358">
		<ele>54.878324278630316</ele>
		<time>2026-03-06T14:31:19Z</time>
	</wpt>
	<wpt lat="59.778201755934624" lon="17.74306282379842">
		<ele>51.93377572670579</ele>
		<time>2026-03-06T14:32:03Z</time>
	</wpt>
	<wpt lat="59.77816607629133" lon="17.742618456018477">
		<ele>50.96231953706592</ele>
		<time>2026-03-06T14:33:04Z</time>
	</wpt>
	<wpt lat="59.778083935758865" lon="17.74219550238062">
		<ele>50.849258253350854</ele>
		<time>2026-03-06T14:33:31Z</time>
	</wpt>
	<wpt lat="59.77792736400668" lon="17.741873844264585">
		<ele>54.35245210304856</ele>
		<time>2026-03-06T14:34:51Z</time>
	</wpt>
	<wpt lat="59.77776829482466" lon="17.74154600630002">
		<ele>54.78860725928098</ele>
		<time>2026-03-06T14:35:19Z</time>
	</wpt>
	<wpt lat="59.777714560866066" lon="17.74110233737051">
		<ele>51.06794530618936</ele>
		<time>2026-03-06T14:35:55Z</time>
	</wpt>
	<wpt lat="59.77752965916521" lon="17.74083849966789">
		<ele>50.71051382739097</ele>
		<time>2026-03-06T14:36:15Z</time>
	</wpt>
	<wpt lat="59.77773678861028" lon="17.741012473207896">
		<ele>53.620078556239605</ele>
		<time>2026-03-06T14:37:49Z</time>
	</wpt>
	<wpt lat="59.777926169595155" lon="17.741254787646685">
		<ele>54.03746953140944</ele>
		<time>2026-03-06T14:38:28Z</time>
	</wpt>
	<wpt lat="59.778029248898825" lon="17.741673771366212">
		<ele>54.77049584873021</ele>
		<time>2026-03-06T14:38:57Z</time>
	</wpt>
	<wpt lat="59.77820221393815" lon="17.741964987391228">
		<ele>54.50762258190662</ele>
		<time>2026-03-06T14:39:28Z</time>
	</wpt>
	<wpt lat="59.77841609067603" lon="17.741810595954384">
		<ele>52.8398589650169</ele>
		<time>2026-03-06T14:39:50Z</time>
	</wpt>
	<wpt lat="59.77864347004098" lon="17.741786240163933">
		<ele>53.90157506521791</ele>
		<time>2026-03-06T14:40:14Z</time>
	</wpt>
	<wpt lat="59.77886582330391" lon="17.741903826832115">
		<ele>53.00978765077889</ele>
		<time>2026-03-06T14:40:48Z</time>
	</wpt>
	<wpt lat="59.77908567321276" lon="17.742002664159013">
		<ele>53.193810620345175</ele>
		<time>2026-03-06T14:41:10Z</time>
	</wpt>
	<wpt lat="59.77931800753852" lon="17.74201304595697">
		<ele>53.59207414928824</ele>
		<time>2026-03-06T14:41:34Z</time>
	</wpt>
	<wpt lat="59.77951978448322" lon="17.742210574481383">
		<ele>53.95599767472595</ele>
		<time>2026-03-06T14:42:17Z</time>
	</wpt>
	<wpt lat="59.77963137674585" lon="17.742599875761766">
		<ele>52.93541717156768</ele>
		<time>2026-03-06T14:42:41Z</time>
	</wpt>
	<wpt lat="59.77986508243019" lon="17.74269158786741">
		<ele>52.560353455133736</ele>
		<time>2026-03-06T14:43:09Z</time>
	</wpt>
	<wpt lat="59.78002502390948" lon="17.743041454894588">
		<ele>53.71379709336907</ele>
		<time>2026-03-06T14:43:36Z</time>
	</wpt>
	<wpt lat="59.78015262109087" lon="17.74344654158606">
		<ele>51.5388323571533</ele>
		<time>2026-03-06T14:44:00Z</time>
	</wpt>
	<wpt lat="59.78028574921132" lon="17.743820671422263">
		<ele>52.756803354248405</ele>
		<time>2026-03-06T14:44:40Z</time>
	</wpt>
	<wpt lat="59.78047165549497" lon="17.744072210877004">
		<ele>56.32496957294643</ele>
		<time>2026-03-06T14:45:06Z</time>
	</wpt>
	<wpt lat="59.7806754984424" lon="17.744320649049996">
		<ele>54.26797559298575</ele>
		<time>2026-03-06T14:45:28Z</time>
	</wpt>
	<wpt lat="59.7808431259949" lon="17.744021115343617">
		<ele>55.32475432381034</ele>
		<time>2026-03-06T14:45:53Z</time>
	</wpt>
	<wpt lat="59.7809095671399" lon="17.743588362982468">
		<ele>53.70845318958163</ele>
		<time>2026-03-06T14:46:27Z</time>
	</wpt>
	<wpt lat="59.780835834271315" lon="17.7431607989739">
		<ele>52.131473349407315</ele>
		<time>2026-03-06T14:46:51Z</time>
	</wpt>
	<wpt lat="59.7808606783312" lon="17.743620113969207">
		<ele>49.42023248039186</ele>
		<time>2026-03-06T14:48:10Z</time>
	</wpt>
	<wpt lat="59.78108189451749" lon="17.74350083121837">
		<ele>52.42371455207467</ele>
		<time>2026-03-06T14:48:39Z</time>
	</wpt>
	<wpt lat="59.78129474215348" lon="17.743337334664016">
		<ele>51.833306533284485</ele>
		<time>2026-03-06T14:49:13Z</time>
	</wpt>
	<wpt lat="59.781522478370306" lon="17.743296587187714">
		<ele>51.25194630026817</ele>
		<time>2026-03-06T14:49:43Z</time>
	</wpt>
	<wpt lat="59.78174611699603" lon="17.743191967577744">
		<ele>52.148306131362915</ele>
		<time>2026-03-06T14:50:09Z</time>
	</wpt>
	<wpt lat="59.781967611767506" lon="17.7430726300614">
		<ele>52.54141420125961</ele>
		<time>2026-03-06T14:50:38Z</time>
	</wpt>
	<wpt lat="59.782118111577354" lon="17.74273886970945">
		<ele>53.65504239872098</ele>
		<time>2026-03-06T14:50:57Z</time>
	</wpt>
	<wpt lat="59.78233622473731" lon="17.74285498116873">
		<ele>61.05124497227371</ele>
		<time>2026-03-06T14:53:16Z</time>
	</wpt>
	<wpt lat="59.78248276992859" lon="17.74319246239777">
		<ele>61.93439126107842</ele>
		<time>2026-03-06T14:53:44Z</time>
	</wpt>
	<wpt lat="59.78266492841958" lon="17.743468125005528">
		<ele>59.804681146517396</ele>
		<time>2026-03-06T14:54:07Z</time>
	</wpt>
	<wpt lat="59.782849089083996" lon="17.74372997920943">
		<ele>58.43662120681256</ele>
		<time>2026-03-06T14:54:33Z</time>
	</wpt>
	<wpt lat="59.78302820348119" lon="17.74400194516952">
		<ele>56.94707422144711</ele>
		<time>2026-03-06T14:55:15Z</time>
	</wpt>
	<wpt lat="59.78320848512059" lon="17.744281966413535">
		<ele>56.53169329371303</ele>
		<time>2026-03-06T14:56:03Z</time>
	</wpt>
	<wpt lat="59.78342459029401" lon="17.744416441244233">
		<ele>58.67785400245339</ele>
		<time>2026-03-06T14:56:49Z</time>
	</wpt>
	<wpt lat="59.78341133067218" lon="17.74487200155071">
		<ele>57.31610142812133</ele>
		<time>2026-03-06T14:57:28Z</time>
	</wpt>
	<wpt lat="59.783459862698905" lon="17.74530677859948">
		<ele>58.0309819644317</ele>
		<time>2026-03-06T14:58:06Z</time>
	</wpt>
	<wpt lat="59.78356269371101" lon="17.74570983539526">
		<ele>56.772325097583234</ele>
		<time>2026-03-06T14:58:49Z</time>
	</wpt>
	<wpt lat="59.78367480095714" lon="17.74610106943536">
		<ele>56.8739664060995</ele>
		<time>2026-03-06T14:59:29Z</time>
	</wpt>
	<wpt lat="59.78355551320925" lon="17.746487328116157">
		<ele>58.801083859056234</ele>
		<time>2026-03-06T14:59:58Z</time>
	</wpt>
	<wpt lat="59.78339878366489" lon="17.746808809877066">
		<ele>57.137543154880404</ele>
		<time>2026-03-06T15:00:32Z</time>
	</wpt>
	<wpt lat="59.78336440779912" lon="17.747260146447484">
		<ele>58.72163509391248</ele>
		<time>2026-03-06T15:01:05Z</time>
	</wpt>
	<wpt lat="59.783311142620256" lon="17.747721580052474">
		<ele>59.249816137366</ele>
		<time>2026-03-06T15:01:26Z</time>
	</wpt>
	<wpt lat="59.7832191175342" lon="17.748157330996285">
		<ele>58.82104112394154</ele>
		<time>2026-03-06T15:01:49Z</time>
	</wpt>
	<wpt lat="59.78312680119306" lon="17.748589832084015">
		<ele>58.72767775133252</ele>
		<time>2026-03-06T15:02:12Z</time>
	</wpt>
	<wpt lat="59.78322685138746" lon="17.749000918268155">
		<ele>56.75861111283302</ele>
		<time>2026-03-06T15:02:42Z</time>
	</wpt>
	<wpt lat="59.78345574553484" lon="17.749074436204598">
		<ele>56.59067575260997</ele>
		<time>2026-03-06T15:03:12Z</time>
	</wpt>
	<wpt lat="59.78367430055858" lon="17.749192677595012">
		<ele>54.020236456766725</ele>
		<time>2026-03-06T15:03:56Z</time>
	</wpt>
	<wpt lat="59.78353766613743" lon="17.749561981836017">
		<ele>55.01047247555107</ele>
		<time>2026-03-06T15:04:33Z</time>
	</wpt>
	<wpt lat="59.78334184918926" lon="17.749786514868156">
		<ele>55.446490104310215</ele>
		<time>2026-03-06T15:05:04Z</time>
	</wpt>
	<wpt lat="59.783287044254806" lon="17.750228008001663">
		<ele>52.86490298155695</ele>
		<time>2026-03-06T15:05:31Z</time>
	</wpt>
	<wpt lat="59.78325211597958" lon="17.75067035832024">
		<ele>53.132211905904114</ele>
		<time>2026-03-06T15:06:02Z</time>
	</wpt>
	<wpt lat="59.783098591832534" lon="17.751000730787272">
		<ele>51.37643446587026</ele>
		<time>2026-03-06T15:06:39Z</time>
	</wpt>
	<wpt lat="59.78294121822272" lon="17.751325169669553">
		<ele>50.295325523242354</ele>
		<time>2026-03-06T15:07:21Z</time>
	</wpt>
	<wpt lat="59.782981930243174" lon="17.75177035444864">
		<ele>46.49974266439676</ele>
		<time>2026-03-06T15:08:03Z</time>
	</wpt>
	<wpt lat="59.78290824206386" lon="17.75219692014869">
		<ele>45.564629735425115</ele>
		<time>2026-03-06T15:08:33Z</time>
	</wpt>
	<wpt lat="59.78299956196035" lon="17.75261489386246">
		<ele>42.835986466147006</ele>
		<time>2026-03-06T15:08:55Z</time>
	</wpt>
	<wpt lat="59.78303547809177" lon="17.753060372088257">
		<ele>41.15466860122979</ele>
		<time>2026-03-06T15:09:14Z</time>
	</wpt>
	<wpt lat="59.78307553583016" lon="17.753504288189195">
		<ele>42.88774880953133</ele>
		<time>2026-03-06T15:09:34Z</time>
	</wpt>
	<wpt lat="59.78312728258849" lon="17.753953090178307">
		<ele>43.575509160757065</ele>
		<time>2026-03-06T15:09:58Z</time>
	</wpt>
	<wpt lat="59.783255104121885" lon="17.75362439488788">
		<ele>44.362690762616694</ele>
		<time>2026-03-06T15:10:31Z</time>
	</wpt>
	<trk>
		<trkseg>
			<trkpt lat="59.78326250897627" lon="17.753567149587656">
				<ele>42.598416783846915</ele>
				<time>2026-03-06T13:44:02Z</time>
			</trkpt>
			<trkpt lat="59.78325423233713" lon="17.754014211656838">
				<ele>44.031702962704</ele>
				<time>2026-03-06T13:44:51Z</time>
			</trkpt>
			<trkpt lat="59.783098597343134" lon="17.753685961119324">
				<ele>41.79595081973821</ele>
				<time>2026-03-06T13:45:37Z</time>
			</trkpt>
			<trkpt lat="59.78305946393368" lon="17.753231796690567">
				<ele>40.12381559237838</ele>
				<time>2026-03-06T13:46:06Z</time>
			</trkpt>
			<trkpt lat="59.78302208034465" lon="17.75278054318506">
				<ele>40.96148073952645</ele>
				<time>2026-03-06T13:46:32Z</time>
			</trkpt>
			<trkpt lat="59.78296475384683" lon="17.75233873967736">
				<ele>40.587989350780845</ele>
				<time>2026-03-06T13:47:03Z</time>
			</trkpt>
			<trkpt lat="59.78294505215546" lon="17.751892519801903">
				<ele>41.08481736294925</ele>
				<time>2026-03-06T13:48:09Z</time>
			</trkpt>
			<trkpt lat="59.7829233066178" lon="17.75144730581057">
				<ele>43.99404556769878</ele>
				<time>2026-03-06T13:48:57Z</time>
			</trkpt>
			<trkpt lat="59.783082054306654" lon="17.751121385511883">
				<ele>49.3576919818297</ele>
				<time>2026-03-06T13:50:12Z</time>
			</trkpt>
			<trkpt lat="59.78319803000539" lon="17.750735700230695">
				<ele>47.56652141734958</ele>
				<time>2026-03-06T13:50:53Z</time>
			</trkpt>
			<trkpt lat="59.783329389393685" lon="17.750374146092962">
				<ele>52.41389760468155</ele>
				<time>2026-03-06T13:51:29Z</time>
			</trkpt>
			<trkpt lat="59.783272421272315" lon="17.749937869546656">
				<ele>53.17753913812339</ele>
				<time>2026-03-06T13:52:07Z</time>
			</trkpt>
			<trkpt lat="59.783340392709114" lon="17.749501224192787">
				<ele>51.96109237987548</ele>
				<time>2026-03-06T13:54:10Z</time>
			</trkpt>
			<trkpt lat="59.78357108036087" lon="17.74959355715078">
				<ele>49.9159666094929</ele>
				<time>2026-03-06T13:55:20Z</time>
			</trkpt>
			<trkpt lat="59.783711693894745" lon="17.749243473112045">
				<ele>52.257826833985746</ele>
				<time>2026-03-06T13:56:07Z</time>
			</trkpt>
			<trkpt lat="59.78348442684162" lon="17.749122100513006">
				<ele>52.3067867429927</ele>
				<time>2026-03-06T13:56:58Z</time>
			</trkpt>
			<trkpt lat="59.783264937533446" lon="17.749015282544676">
				<ele>53.983931134454906</ele>
				<time>2026-03-06T13:57:28Z</time>
			</trkpt>
			<trkpt lat="59.78305062168596" lon="17.7488357116809">
				<ele>49.46788741555065</ele>
				<time>2026-03-06T13:58:06Z</time>
			</trkpt>
			<trkpt lat="59.782826663695914" lon="17.748769142472515">
				<ele>47.88371726218611</ele>
				<time>2026-03-06T13:58:42Z</time>
			</trkpt>
			<trkpt lat="59.782729844626104" lon="17.749174985074173">
				<ele>50.45582874584943</ele>
				<time>2026-03-06T13:59:42Z</time>
			</trkpt>
			<trkpt lat="59.78251367328129" lon="17.74933247021188">
				<ele>50.21535756252706</ele>
				<time>2026-03-06T14:00:12Z</time>
			</trkpt>
			<trkpt lat="59.782376520790045" lon="17.74970019411337">
				<ele>53.66792343277484</ele>
				<time>2026-03-06T14:01:54Z</time>
			</trkpt>
			<trkpt lat="59.78215815779506" lon="17.749831907287053">
				<ele>50.69511348102242</ele>
				<time>2026-03-06T14:02:46Z</time>
			</trkpt>
			<trkpt lat="59.781987655199686" lon="17.750136050991877">
				<ele>52.289734351448715</ele>
				<time>2026-03-06T14:03:19Z</time>
			</trkpt>
			<trkpt lat="59.781927207332416" lon="17.749694867112854">
				<ele>50.245132830925286</ele>
				<time>2026-03-06T14:04:22Z</time>
			</trkpt>
			<trkpt lat="59.781711852879496" lon="17.749543616261168">
				<ele>50.092101983726025</ele>
				<time>2026-03-06T14:04:58Z</time>
			</trkpt>
			<trkpt lat="59.781498428952574" lon="17.749377414689636">
				<ele>52.13439317326993</ele>
				<time>2026-03-06T14:06:28Z</time>
			</trkpt>
			<trkpt lat="59.78133860399641" lon="17.749058288943797">
				<ele>53.41437258012593</ele>
				<time>2026-03-06T14:07:19Z</time>
			</trkpt>
			<trkpt lat="59.78113582897567" lon="17.748862395651614">
				<ele>51.27945555560291</ele>
				<time>2026-03-06T14:08:17Z</time>
			</trkpt>
			<trkpt lat="59.78110547764638" lon="17.748411091271866">
				<ele>52.82763924635947</ele>
				<time>2026-03-06T14:09:22Z</time>
			</trkpt>
			<trkpt lat="59.781124995322756" lon="17.747960644414942">
				<ele>53.17565006297082</ele>
				<time>2026-03-06T14:10:02Z</time>
			</trkpt>
			<trkpt lat="59.780908309251224" lon="17.747773297790864">
				<ele>54.69906958658248</ele>
				<time>2026-03-06T14:11:30Z</time>
			</trkpt>
			<trkpt lat="59.780692255353614" lon="17.74764921095699">
				<ele>53.91147178877145</ele>
				<time>2026-03-06T14:11:51Z</time>
			</trkpt>
			<trkpt lat="59.78056988738847" lon="17.747275151124736">
				<ele>56.30575313139707</ele>
				<time>2026-03-06T14:12:25Z</time>
			</trkpt>
			<trkpt lat="59.78065266940323" lon="17.7468522186361">
				<ele>54.10334188491106</ele>
				<time>2026-03-06T14:13:13Z</time>
			</trkpt>
			<trkpt lat="59.78067773508332" lon="17.74640711722865">
				<ele>53.439961896277964</ele>
				<time>2026-03-06T14:14:05Z</time>
			</trkpt>
			<trkpt lat="59.78055117896385" lon="17.746037873536647">
				<ele>53.10305081680417</ele>
				<time>2026-03-06T14:14:44Z</time>
			</trkpt>
			<trkpt lat="59.78031653596971" lon="17.746007070631713">
				<ele>54.83320139721036</ele>
				<time>2026-03-06T14:15:34Z</time>
			</trkpt>
			<trkpt lat="59.78011780047882" lon="17.745785329708013">
				<ele>55.162288673222065</ele>
				<time>2026-03-06T14:16:10Z</time>
			</trkpt>
			<trkpt lat="59.779888846819425" lon="17.745750195601126">
				<ele>51.25461004767567</ele>
				<time>2026-03-06T14:16:48Z</time>
			</trkpt>
			<trkpt lat="59.779662910129524" lon="17.74576003162224">
				<ele>54.706149764359</ele>
				<time>2026-03-06T14:17:13Z</time>
			</trkpt>
			<trkpt lat="59.77943805549752" lon="17.74576358432802">
				<ele>55.07304102554917</ele>
				<time>2026-03-06T14:18:19Z</time>
			</trkpt>
			<trkpt lat="59.77925949786456" lon="17.74604258457878">
				<ele>51.435141045600176</ele>
				<time>2026-03-06T14:19:00Z</time>
			</trkpt>
			<trkpt lat="59.77907045495749" lon="17.74628488134236">
				<ele>52.474528077058494</ele>
				<time>2026-03-06T14:20:24Z</time>
			</trkpt>
			<trkpt lat="59.778997335634116" lon="17.745861899937893">
				<ele>51.89250717032701</ele>
				<time>2026-03-06T14:21:04Z</time>
			</trkpt>
			<trkpt lat="59.7790478540175" lon="17.746300606634296">
				<ele>52.001260291785</ele>
				<time>2026-03-06T14:21:53Z</time>
			</trkpt>
			<trkpt lat="59.77911062833774" lon="17.74675088939435">
				<ele>49.80850561428815</ele>
				<time>2026-03-06T14:22:16Z</time>
			</trkpt>
			<trkpt lat="59.77896610036784" lon="17.747094162577696">
				<ele>51.45138476137072</ele>
				<time>2026-03-06T14:23:14Z</time>
			</trkpt>
			<trkpt lat="59.77916101206401" lon="17.746840297381407">
				<ele>54.28540488425642</ele>
				<time>2026-03-06T14:25:18Z</time>
			</trkpt>
			<trkpt lat="59.77912341552087" lon="17.74638958555502">
				<ele>52.89547841437161</ele>
				<time>2026-03-06T14:25:47Z</time>
			</trkpt>
			<trkpt lat="59.77905167168054" lon="17.745965281410907">
				<ele>54.895447104237974</ele>
				<time>2026-03-06T14:26:18Z</time>
			</trkpt>
			<trkpt lat="59.77890952728544" lon="17.74560944286112">
				<ele>52.43059082143009</ele>
				<time>2026-03-06T14:27:12Z</time>
			</trkpt>
			<trkpt lat="59.77876082275707" lon="17.745276045806083">
				<ele>51.769659543409944</ele>
				<time>2026-03-06T14:27:42Z</time>
			</trkpt>
			<trkpt lat="59.77863983972213" lon="17.744896798273235">
				<ele>55.01046244241297</ele>
				<time>2026-03-06T14:28:28Z</time>
			</trkpt>
			<trkpt lat="59.77856721848658" lon="17.744461798854573">
				<ele>52.44689479097724</ele>
				<time>2026-03-06T14:29:12Z</time>
			</trkpt>
			<trkpt lat="59.778455671363815" lon="17.74405247877066">
				<ele>53.38461836054921</ele>
				<time>2026-03-06T14:29:36Z</time>
			</trkpt>
			<trkpt lat="59.77831045123474" lon="17.74370314177991">
				<ele>52.706196322105825</ele>
				<time>2026-03-06T14:30:30Z</time>
			</trkpt>
			<trkpt lat="59.77840717809017" lon="17.7432960318358">
				<ele>54.878324278630316</ele>
				<time>2026-03-06T14:31:19Z</time>
			</trkpt>
			<trkpt lat="59.778201755934624" lon="17.74306282379842">
				<ele>51.93377572670579</ele>
				<time>2026-03-06T14:32:03Z</time>
			</trkpt>
			<trkpt lat="59.77816607629133" lon="17.742618456018477">
				<ele>50.96231953706592</ele>
				<time>2026-03-06T14:33:04Z</time>
			</trkpt>
			<trkpt lat="59.778083935758865" lon="17.74219550238062">
				<ele>50.849258253350854</ele>
				<time>2026-03-06T14:33:31Z</time>
			</trkpt>
			<trkpt lat="59.77792736400668" lon="17.741873844264585">
				<ele>54.35245210304856</ele>
				<time>2026-03-06T14:34:51Z</time>
			</trkpt>
			<trkpt lat="59.77776829482466" lon="17.74154600630002">
				<ele>54.78860725928098</ele>
				<time>2026-03-06T14:35:19Z</time>
			</trkpt>
			<trkpt lat="59.777714560866066" lon="17.74110233737051">
				<ele>51.06794530618936</ele>
				<time>2026-03-06T14:35:55Z</time>
			</trkpt>
			<trkpt lat="59.77752965916521" lon="17.74083849966789">
				<ele>50.71051382739097</ele>
				<time>2026-03-06T14:36:15Z</time>
			</trkpt>
			<trkpt lat="59.77773678861028" lon="17.741012473207896">
				<ele>53.620078556239605</ele>
				<time>2026-03-06T14:37:49Z</time>
			</trkpt>
			<trkpt lat="59.777926169595155" lon="17.741254787646685">
				<ele>54.03746953140944</ele>
				<time>2026-03-06T14:38:28Z</time>
			</trkpt>
			<trkpt lat="59.778029248898825" lon="17.741673771366212">
				<ele>54.77049584873021</ele>
				<time>2026-03-06T14:38:57Z</time>
			</trkpt>
			<trkpt lat="59.77820221393815" lon="17.741964987391228">
				<ele>54.50762258190662</ele>
				<time>2026-03-06T14:39:28Z</time>
			</trkpt>
			<trkpt lat="59.77841609067603" lon="17.741810595954384">
				<ele>52.8398589650169</ele>
				<time>2026-03-06T14:39:50Z</time>
			</trkpt>
			<trkpt lat="59.77864347004098" lon="17.741786240163933">
				<ele>53.90157506521791</ele>
				<time>2026-03-06T14:40:14Z</time>
			</trkpt>
			<trkpt lat="59.77886582330391" lon="17.741903826832115">
				<ele>53.00978765077889</ele>
				<time>2026-03-06T14:40:48Z</time>
			</trkpt>
			<trkpt lat="59.77908567321276" lon="17.742002664159013">
				<ele>53.193810620345175</ele>
				<time>2026-03-06T14:41:10Z</time>
			</trkpt>
			<trkpt lat="59.77931800753852" lon="17.74201304595697">
				<ele>53.59207414928824</ele>
				<time>2026-03-06T14:41:34Z</time>
			</trkpt>
			<trkpt lat="59.77951978448322" lon="17.742210574481383">
				<ele>53.95599767472595</ele>
				<time>2026-03-06T14:42:17Z</time>
			</trkpt>
			<trkpt lat="59.77963137674585" lon="17.742599875761766">
				<ele>52.93541717156768</ele>
				<time>2026-03-06T14:42:41Z</time>
			</trkpt>
			<trkpt lat="59.77986508243019" lon="17.74269158786741">
				<ele>52.560353455133736</ele>
				<time>2026-03-06T14:43:09Z</time>
			</trkpt>
			<trkpt lat="59.78002502390948" lon="17.743041454894588">
				<ele>53.71379709336907</ele>
				<time>2026-03-06T14:43:36Z</time>
			</trkpt>
			<trkpt lat="59.78015262109087" lon="17.74344654158606">
				<ele>51.5388323571533</ele>
				<time>2026-03-06T14:44:00Z</time>
			</trkpt>
			<trkpt lat="59.78028574921132" lon="17.743820671422263">
				<ele>52.756803354248405</ele>
				<time>2026-03-06T14:44:40Z</time>
			</trkpt>
			<trkpt lat="59.78047165549497" lon="17.744072210877004">
				<ele>56.32496957294643</ele>
				<time>2026-03-06T14:45:06Z</time>
			</trkpt>
			<trkpt lat="59.7806754984424" lon="17.744320649049996">
				<ele>54.26797559298575</ele>
				<time>2026-03-06T14:45:28Z</time>
			</trkpt>
			<trkpt lat="59.7808431259949" lon="17.744021115343617">
				<ele>55.32475432381034</ele>
				<time>2026-03-06T14:45:53Z</time>
			</trkpt>
			<trkpt lat="59.7809095671399" lon="17.743588362982468">
				<ele>53.70845318958163</ele>
				<time>2026-03-06T14:46:27Z</time>
			</trkpt>
			<trkpt lat="59.780835834271315" lon="17.7431607989739">
				<ele>52.131473349407315</ele>
				<time>2026-03-06T14:46:51Z</time>
			</trkpt>
			<trkpt lat="59.7808606783312" lon="17.743620113969207">
				<ele>49.42023248039186</ele>
				<time>2026-03-06T14:48:10Z</time>
			</trkpt>
			<trkpt lat="59.78108189451749" lon="17.74350083121837">
				<ele>52.42371455207467</ele>
				<time>2026-03-06T14:48:39Z</time>
			</trkpt>
			<trkpt lat="59.78129474215348" lon="17.743337334664016">
				<ele>51.833306533284485</ele>
				<time>2026-03-06T14:49:13Z</time>
			</trkpt>
			<trkpt lat="59.781522478370306" lon="17.743296587187714">
				<ele>51.25194630026817</ele>
				<time>2026-03-06T14:49:43Z</time>
			</trkpt>
			<trkpt lat="59.78174611699603" lon="17.743191967577744">
				<ele>52.148306131362915</ele>
				<time>2026-03-06T14:50:09Z</time>
			</trkpt>
			<trkpt lat="59.781967611767506" lon="17.7430726300614">
				<ele>52.54141420125961</ele>
				<time>2026-03-06T14:50:38Z</time>
			</trkpt>
			<trkpt lat="59.782118111577354" lon="17.74273886970945">
				<ele>53.65504239872098</ele>
				<time>2026-03-06T14:50:57Z</time>
			</trkpt>
			<trkpt lat="59.78233622473731" lon="17.74285498116873">
				<ele>61.05124497227371</ele>
				<time>2026-03-06T14:53:16Z</time>
			</trkpt>
			<trkpt lat="59.78248276992859" lon="17.74319246239777">
				<ele>61.93439126107842</ele>
				<time>2026-03-06T14:53:44Z</time>
			</trkpt>
			<trkpt lat="59.78266492841958" lon="17.743468125005528">
				<ele>59.804681146517396</ele>
				<time>2026-03-06T14:54:07Z</time>
			</trkpt>
			<trkpt lat="59.782849089083996" lon="17.74372997920943">
				<ele>58.43662120681256</ele>
				<time>2026-03-06T14:54:33Z</time>
			</trkpt>
			<trkpt lat="59.78302820348119" lon="17.74400194516952">
				<ele>56.94707422144711</ele>
				<time>2026-03-06T14:55:15Z</time>
			</trkpt>
			<trkpt lat="59.78320848512059" lon="17.744281966413535">
				<ele>56.53169329371303</ele>
				<time>2026-03-06T14:56:03Z</time>
			</trkpt>
			<trkpt lat="59.78342459029401" lon="17.744416441244233">
				<ele>58.67785400245339</ele>
				<time>2026-03-06T14:56:49Z</time>
			</trkpt>
			<trkpt lat="59.78341133067218" lon="17.74487200155071">
				<ele>57.31610142812133</ele>
				<time>2026-03-06T14:57:28Z</time>
			</trkpt>
			<trkpt lat="59.783459862698905" lon="17.74530677859948">
				<ele>58.0309819644317</ele>
				<time>2026-03-06T14:58:06Z</time>
			</trkpt>
			<trkpt lat="59.78356269371101" lon="17.74570983539526">
				<ele>56.772325097583234</ele>
				<time>2026-03-06T14:58:49Z</time>
			</trkpt>
			<trkpt lat="59.78367480095714" lon="17.74610106943536">
				<ele>56.8739664060995</ele>
				<time>2026-03-06T14:59:29Z</time>
			</trkpt>
			<trkpt lat="59.78355551320925" lon="17.746487328116157">
				<ele>58.801083859056234</ele>
				<time>2026-03-06T14:59:58Z</time>
			</trkpt>
			<trkpt lat="59.78339878366489" lon="17.746808809877066">
				<ele>57.137543154880404</ele>
				<time>2026-03-06T15:00:32Z</time>
			</trkpt>
			<trkpt lat="59.78336440779912" lon="17.747260146447484">
				<ele>58.72163509391248</ele>
				<time>2026-03-06T15:01:05Z</time>
			</trkpt>
			<trkpt lat="59.783311142620256" lon="17.747721580052474">
				<ele>59.249816137366</ele>
				<time>2026-03-06T15:01:26Z</time>
			</trkpt>
			<trkpt lat="59.7832191175342" lon="17.748157330996285">
				<ele>58.82104112394154</ele>
				<time>2026-03-06T15:01:49Z</time>
			</trkpt>
			<trkpt lat="59.78312680119306" lon="17.748589832084015">
				<ele>58.72767775133252</ele>
				<time>2026-03-06T15:02:12Z</time>
			</trkpt>
			<trkpt lat="59.78322685138746" lon="17.749000918268155">
				<ele>56.75861111283302</ele>
				<time>2026-03-06T15:02:42Z</time>
			</trkpt>
			<trkpt lat="59.78345574553484" lon="17.749074436204598">
				<ele>56.59067575260997</ele>
				<time>2026-03-06T15:03:12Z</time>
			</trkpt>
			<trkpt lat="59.78367430055858" lon="17.749192677595012">
				<ele>54.020236456766725</ele>
				<time>2026-03-06T15:03:56Z</time>
			</trkpt>
			<trkpt lat="59.78353766613743" lon="17.749561981836017">
				<ele>55.01047247555107</ele>
				<time>2026-03-06T15:04:33Z</time>
			</trkpt>
			<trkpt lat="59.78334184918926" lon="17.749786514868156">
				<ele>55.446490104310215</ele>
				<time>2026-03-06T15:05:04Z</time>
			</trkpt>
			<trkpt lat="59.783287044254806" lon="17.750228008001663">
				<ele>52.86490298155695</ele>
				<time>2026-03-06T15:05:31Z</time>
			</trkpt>
			<trkpt lat="59.78325211597958" lon="17.75067035832024">
				<ele>53.132211905904114</ele>
				<time>2026-03-06T15:06:02Z</time>
			</trkpt>
			<trkpt lat="59.783098591832534" lon="17.751000730787272">
				<ele>51.37643446587026</ele>
				<time>2026-03-06T15:06:39Z</time>
			</trkpt>
			<trkpt lat="59.78294121822272" lon="17.751325169669553">
				<ele>50.295325523242354</ele>
				<time>2026-03-06T15:07:21Z</time>
			</trkpt>
			<trkpt lat="59.782981930243174" lon="17.75177035444864">
				<ele>46.49974266439676</ele>
				<time>2026-03-06T15:08:03Z</time>
			</trkpt>
			<trkpt lat="59.78290824206386" lon="17.75219692014869">
				<ele>45.564629735425115</ele>
				<time>2026-03-06T15:08:33Z</time>
			</trkpt>
			<trkpt lat="59.78299956196035" lon="17.75261489386246">
				<ele>42.835986466147006</ele>
				<time>2026-03-06T15:08:55Z</time>
			</trkpt>
			<trkpt lat="59.78303547809177" lon="17.753060372088257">
				<ele>41.15466860122979</ele>
				<time>2026-03-06T15:09:14Z</time>
			</trkpt>
			<trkpt lat="59.78307553583016" lon="17.753504288189195">
				<ele>42.88774880953133</ele>
				<time>2026-03-06T15:09:34Z</time>
			</trkpt>
			<trkpt lat="59.78312728258849" lon="17.753953090178307">
				<ele>43.575509160757065</ele>
				<time>2026-03-06T15:09:58Z</time>
			</trkpt>
			<trkpt lat="59.783255104121885" lon="17.75362439488788">
				<ele>44.362690762616694</ele>
				<time>2026-03-06T15:10:31Z</time>
			</trkpt>
		</trkseg>
	</trk>
	<extensions>
	</extensions>
</gpx>
