<?xml version="1.0" encoding="UTF-8"?>
<gpx xmlns:xsi="http://www.w3.org/2001/XMLSchema-instance" xmlns="http://www.topografix.com/GPX/1/1" xsi:schemaLocation="http://www.topografix.com/GPX/1/1 http://www.topografix.com/GPX/1/1/gpx.xsd" version="1.1" creator="FootMark for iOS">
	<metadata>
		<link href="https://itunes.apple.com/us/app/footmark-route-recorder/id1451393033">
			<text>Download link</text>
		</link>
		<time>2026-05-01T23:07:14Z</time>
	</metadata>
	<wpt lat="59.75831111898623" lon="17.646244307996376">
		<ele>27.260862350463867</ele>
		<time>2026-03-15T12:53:42Z</time>
	</wpt>
	<wpt lat="59.75828229024841" lon="17.645791812607598">
		<ele>32.58641561679542</ele>
		<time>2026-03-15T12:55:21Z</time>
	</wpt>
	<wpt lat="59.758164618661375" lon="17.64539623824094">
		<ele>38.62291011400521</ele>
		<time>2026-03-15T12:55:43Z</time>
	</wpt>
	<wpt lat="59.75804614293986" lon="17.645006905911803">
		<ele>39.15402032621205</ele>
		<time>2026-03-15T12:56:07Z</time>
	</wpt>
	<wpt lat="59.75790565977851" lon="17.644640797288854">
		<ele>39.540191968902946</ele>
		<time>2026-03-15T12:56:25Z</time>
	</wpt>
	<wpt lat="59.75778145815669" lon="17.644266355371286">
		<ele>39.703779973089695</ele>
		<time>2026-03-15T12:56:43Z</time>
	</wpt>
	<wpt lat="59.757692501016066" lon="17.643844896630934">
		<ele>36.17396095022559</ele>
		<time>2026-03-15T12:57:02Z</time>
	</wpt>
	<wpt lat="59.75753016891319" lon="17.643513882587417">
		<ele>32.16519443877041</ele>
		<time>2026-03-15T12:57:24Z</time>
	</wpt>
	<wpt lat="59.75733392272667" lon="17.643282660887277">
		<ele>29.91545638628304</ele>
		<time>2026-03-15T12:57:40Z</time>
	</wpt>
	<wpt lat="59.75724555541343" lon="17.64285152589932">
		<ele>26.67292430717498</ele>
		<time>2026-03-15T12:57:59Z</time>
	</wpt>
	<wpt lat="59.75718858455551" lon="17.64240102165881">
		<ele>22.968565945513546</ele>
		<time>2026-03-15T12:58:18Z</time>
	</wpt>
	<wpt lat="59.75716020668413" lon="17.641935497000503">
		<ele>17.72339812014252</ele>
		<time>2026-03-15T12:59:40Z</time>
	</wpt>
	<wpt lat="59.757094387520546" lon="17.641495133768455">
		<ele>15.635970318689942</ele>
		<time>2026-03-15T13:00:01Z</time>
	</wpt>
	<wpt lat="59.757052926530434" lon="17.641056011444775">
		<ele>10.619924057275057</ele>
		<time>2026-03-15T13:00:45Z</time>
	</wpt>
	<wpt lat="59.756885741931356" lon="17.640736113730004">
		<ele>9.157706146128476</ele>
		<time>2026-03-15T13:01:11Z</time>
	</wpt>
	<wpt lat="59.75671871998739" lon="17.640423800333703">
		<ele>8.50821197964251</ele>
		<time>2026-03-15T13:01:47Z</time>
	</wpt>
	<wpt lat="59.75649616641404" lon="17.64029248587302">
		<ele>5.460163499228656</ele>
		<time>2026-03-15T13:02:09Z</time>
	</wpt>
	<wpt lat="59.756297309209366" lon="17.640061996569205">
		<ele>3.4135359209030867</ele>
		<time>2026-03-15T13:03:02Z</time>
	</wpt>
	<wpt lat="59.75607144053343" lon="17.639996057827208">
		<ele>3.331657249480486</ele>
		<time>2026-03-15T13:03:42Z</time>
	</wpt>
	<wpt lat="59.755847094557545" lon="17.639949580446928">
		<ele>4.22188348416239</ele>
		<time>2026-03-15T13:04:14Z</time>
	</wpt>
	<wpt lat="59.7556210085453" lon="17.639997229175727">
		<ele>4.845087930560112</ele>
		<time>2026-03-15T13:04:44Z</time>
	</wpt>
	<wpt lat="59.75540417099681" lon="17.639814571092206">
		<ele>4.304397811181843</ele>
		<time>2026-03-15T13:05:17Z</time>
	</wpt>
	<wpt lat="59.75521021977622" lon="17.639559464439778">
		<ele>5.244489166885614</ele>
		<time>2026-03-15T13:05:49Z</time>
	</wpt>
	<wpt lat="59.75511206715906" lon="17.639158159696684">
		<ele>3.9229686679318547</ele>
		<time>2026-03-15T13:06:15Z</time>
	</wpt>
	<wpt lat="59.75497085381888" lon="17.63879513635774">
		<ele>3.1031267354264855</ele>
		<time>2026-03-15T13:06:43Z</time>
	</wpt>
	<wpt lat="59.75490274629541" lon="17.638361781169927">
		<ele>4.159114462323487</ele>
		<time>2026-03-15T13:07:12Z</time>
	</wpt>
	<wpt lat="59.75476127126683" lon="17.637994106154416">
		<ele>4.8341350788250566</ele>
		<time>2026-03-15T13:07:39Z</time>
	</wpt>
	<wpt lat="59.75467063966137" lon="17.637573766176477">
		<ele>5.258502108044922</ele>
		<time>2026-03-15T13:08:03Z</time>
	</wpt>
	<wpt lat="59.75455937010915" lon="17.637182068063314">
		<ele>4.933916738256812</ele>
		<time>2026-03-15T13:08:46Z</time>
	</wpt>
	<wpt lat="59.7544403052733" lon="17.636802036638905">
		<ele>9.753866856917739</ele>
		<time>2026-03-15T13:09:20Z</time>
	</wpt>
	<wpt lat="59.75421262499529" lon="17.63683446722933">
		<ele>10.204021505080163</ele>
		<time>2026-03-15T13:10:02Z</time>
	</wpt>
	<wpt lat="59.75398624695609" lon="17.636787665801382">
		<ele>11.099870823323727</ele>
		<time>2026-03-15T13:11:34Z</time>
	</wpt>
	<wpt lat="59.75417536579168" lon="17.63707874932087">
		<ele>9.33210875093937</ele>
		<time>2026-03-15T13:12:23Z</time>
	</wpt>
	<wpt lat="59.75403436972992" lon="17.637429548255763">
		<ele>9.788942745886743</ele>
		<time>2026-03-15T13:12:47Z</time>
	</wpt>
	<wpt lat="59.75381303552548" lon="17.637560809863547">
		<ele>8.52089863922447</ele>
		<time>2026-03-15T13:13:10Z</time>
	</wpt>
	<wpt lat="59.75358124374393" lon="17.637630817900774">
		<ele>7.680321213789284</ele>
		<time>2026-03-15T13:13:30Z</time>
	</wpt>
	<wpt lat="59.75337711850713" lon="17.63741897998576">
		<ele>6.130686556920409</ele>
		<time>2026-03-15T13:15:08Z</time>
	</wpt>
	<wpt lat="59.753161144780925" lon="17.637578123167636">
		<ele>6.922871882095933</ele>
		<time>2026-03-15T13:16:01Z</time>
	</wpt>
	<wpt lat="59.752957316410715" lon="17.637774863821917">
		<ele>7.375095942057669</ele>
		<time>2026-03-15T13:17:07Z</time>
	</wpt>
	<wpt lat="59.75287363007667" lon="17.63818894395024">
		<ele>6.759151509962976</ele>
		<time>2026-03-15T13:17:28Z</time>
	</wpt>
	<wpt lat="59.75278554434671" lon="17.63860526997106">
		<ele>7.300217595882714</ele>
		<time>2026-03-15T13:17:52Z</time>
	</wpt>
	<wpt lat="59.75272545024196" lon="17.63903475802962">
		<ele>8.280646053142846</ele>
		<time>2026-03-15T13:18:15Z</time>
	</wpt>
	<wpt lat="59.752658010195105" lon="17.639462309078027">
		<ele>11.415771927684546</ele>
		<time>2026-03-15T13:19:20Z</time>
	</wpt>
	<wpt lat="59.752624995520684" lon="17.639913504839715">
		<ele>13.571305378340185</ele>
		<time>2026-03-15T13:19:47Z</time>
	</wpt>
	<wpt lat="59.7525181664251" lon="17.639518697522117">
		<ele>14.485180526040494</ele>
		<time>2026-03-15T13:20:27Z</time>
	</wpt>
	<wpt lat="59.752409627350616" lon="17.63912731591581">
		<ele>12.056525289081037</ele>
		<time>2026-03-15T13:20:52Z</time>
	</wpt>
	<wpt lat="59.75223167103858" lon="17.63884331031171">
		<ele>14.486427446827292</ele>
		<time>2026-03-15T13:21:20Z</time>
	</wpt>
	<wpt lat="59.75201292811582" lon="17.63874180440186">
		<ele>16.005532999522984</ele>
		<time>2026-03-15T13:21:50Z</time>
	</wpt>
	<wpt lat="59.751828950322626" lon="17.638473664755683">
		<ele>16.456525249406695</ele>
		<time>2026-03-15T13:22:24Z</time>
	</wpt>
	<wpt lat="59.75164812311187" lon="17.638204269541085">
		<ele>16.859404677525163</ele>
		<time>2026-03-15T13:22:54Z</time>
	</wpt>
	<wpt lat="59.75144993588548" lon="17.637974925552818">
		<ele>16.668337215669453</ele>
		<time>2026-03-15T13:25:49Z</time>
	</wpt>
	<wpt lat="59.75124630522496" lon="17.63778220144578">
		<ele>19.203075224533677</ele>
		<time>2026-03-15T13:26:19Z</time>
	</wpt>
	<wpt lat="59.7510659328102" lon="17.63750070242597">
		<ele>18.601545196026564</ele>
		<time>2026-03-15T13:27:05Z</time>
	</wpt>
	<wpt lat="59.75097971345732" lon="17.63706912181627">
		<ele>15.156924097798765</ele>
		<time>2026-03-15T13:27:34Z</time>
	</wpt>
	<wpt lat="59.75081367608952" lon="17.636767981923654">
		<ele>13.304394224658608</ele>
		<time>2026-03-15T13:27:58Z</time>
	</wpt>
	<wpt lat="59.75062722907293" lon="17.63651020305607">
		<ele>15.399424080736935</ele>
		<time>2026-03-15T13:28:21Z</time>
	</wpt>
	<wpt lat="59.75045757475564" lon="17.63617497185992">
		<ele>15.263073774985969</ele>
		<time>2026-03-15T13:28:44Z</time>
	</wpt>
	<wpt lat="59.75023176692633" lon="17.63613914214384">
		<ele>17.560225201770663</ele>
		<time>2026-03-15T13:29:16Z</time>
	</wpt>
	<wpt lat="59.7500126705512" lon="17.63602621711753">
		<ele>17.624037651345134</ele>
		<time>2026-03-15T13:30:20Z</time>
	</wpt>
	<wpt lat="59.749818656711085" lon="17.6362553666424">
		<ele>20.406729938462377</ele>
		<time>2026-03-15T13:30:49Z</time>
	</wpt>
	<wpt lat="59.74962167513904" lon="17.636026678646246">
		<ele>17.061269379220903</ele>
		<time>2026-03-15T13:31:45Z</time>
	</wpt>
	<wpt lat="59.74941649036931" lon="17.63581405570962">
		<ele>12.645137751474977</ele>
		<time>2026-03-15T13:32:29Z</time>
	</wpt>
	<wpt lat="59.749446415231446" lon="17.636260220364722">
		<ele>18.630073700100183</ele>
		<time>2026-03-15T13:35:38Z</time>
	</wpt>
	<wpt lat="59.74923282396994" lon="17.63641362517766">
		<ele>15.414548487402499</ele>
		<time>2026-03-15T13:37:59Z</time>
	</wpt>
	<wpt lat="59.749004100781754" lon="17.636350283917636">
		<ele>7.7664929125458</ele>
		<time>2026-03-15T13:40:37Z</time>
	</wpt>
	<wpt lat="59.748824936244375" lon="17.636631052720368">
		<ele>4.787768393754959</ele>
		<time>2026-03-15T13:42:22Z</time>
	</wpt>
	<wpt lat="59.7486922560493" lon="17.637008095647417">
		<ele>5.327985587529838</ele>
		<time>2026-03-15T13:44:09Z</time>
	</wpt>
	<wpt lat="59.74848992046833" lon="17.637211215091742">
		<ele>5.048715418204665</ele>
		<time>2026-03-15T13:45:25Z</time>
	</wpt>
	<wpt lat="59.74827084416522" lon="17.637314722339703">
		<ele>5.1143740164116025</ele>
		<time>2026-03-15T13:45:59Z</time>
	</wpt>
	<wpt lat="59.74805318088266" lon="17.637441908469945">
		<ele>7.497861046344042</ele>
		<time>2026-03-15T13:46:57Z</time>
	</wpt>
	<wpt lat="59.74787433736164" lon="17.637718049868116">
		<ele>9.434938853606582</ele>
		<time>2026-03-15T13:47:47Z</time>
	</wpt>
	<wpt lat="59.74769214622073" lon="17.637993061184723">
		<ele>13.737596402876079</ele>
		<time>2026-03-15T13:48:25Z</time>
	</wpt>
	<wpt lat="59.74747303149098" lon="17.63816563621778">
		<ele>13.86202340759337</ele>
		<time>2026-03-15T13:48:55Z</time>
	</wpt>
	<wpt lat="59.74730959374281" lon="17.638472178898926">
		<ele>16.59394793678075</ele>
		<time>2026-03-15T13:50:10Z</time>
	</wpt>
	<wpt lat="59.747097521590966" lon="17.63864488328918">
		<ele>16.459496770054102</ele>
		<time>2026-03-15T13:50:34Z</time>
	</wpt>
	<wpt lat="59.74688521903379" lon="17.638461339940935">
		<ele>14.12475373223424</ele>
		<time>2026-03-15T13:51:27Z</time>
	</wpt>
	<wpt lat="59.74706306634656" lon="17.638745693230515">
		<ele>17.73217563237995</ele>
		<time>2026-03-15T13:56:08Z</time>
	</wpt>
	<wpt lat="59.74700085976556" lon="17.639175574183028">
		<ele>22.370739442296326</ele>
		<time>2026-03-15T13:56:48Z</time>
	</wpt>
	<wpt lat="59.74696911379505" lon="17.63962825370097">
		<ele>26.71993486676365</ele>
		<time>2026-03-15T13:57:24Z</time>
	</wpt>
	<wpt lat="59.74716776292753" lon="17.639866922849386">
		<ele>32.65807694476098</ele>
		<time>2026-03-15T13:59:00Z</time>
	</wpt>
	<wpt lat="59.747393399333305" lon="17.63984801901507">
		<ele>34.94629743415862</ele>
		<time>2026-03-15T13:59:36Z</time>
	</wpt>
	<wpt lat="59.74761561241136" lon="17.639772463510926">
		<ele>35.74322136398405</ele>
		<time>2026-03-15T14:00:05Z</time>
	</wpt>
	<wpt lat="59.74778864369641" lon="17.640060086722603">
		<ele>39.35114879440516</ele>
		<time>2026-03-15T14:01:26Z</time>
	</wpt>
	<wpt lat="59.74801097453719" lon="17.640185845571306">
		<ele>41.7117171054706</ele>
		<time>2026-03-15T14:02:13Z</time>
	</wpt>
	<wpt lat="59.74823075479772" lon="17.64005527564555">
		<ele>40.44755870569497</ele>
		<time>2026-03-15T14:02:50Z</time>
	</wpt>
	<wpt lat="59.748455993425985" lon="17.64006355470278">
		<ele>39.68877335079014</ele>
		<time>2026-03-15T14:03:56Z</time>
	</wpt>
	<wpt lat="59.748654714153815" lon="17.639848693763746">
		<ele>39.058268495835364</ele>
		<time>2026-03-15T14:04:23Z</time>
	</wpt>
	<wpt lat="59.748877894404735" lon="17.63976253056482">
		<ele>40.22321823146194</ele>
		<time>2026-03-15T14:04:58Z</time>
	</wpt>
	<wpt lat="59.74909002487545" lon="17.639601759136298">
		<ele>42.18412390444428</ele>
		<time>2026-03-15T14:05:23Z</time>
	</wpt>
	<wpt lat="59.749026319492636" lon="17.639163969304963">
		<ele>37.60325397644192</ele>
		<time>2026-03-15T14:05:46Z</time>
	</wpt>
	<wpt lat="59.74902200860679" lon="17.63871686607094">
		<ele>34.8407271578908</ele>
		<time>2026-03-15T14:06:28Z</time>
	</wpt>
	<wpt lat="59.74915920594134" lon="17.63835449562187">
		<ele>33.93126120232046</ele>
		<time>2026-03-15T14:08:37Z</time>
	</wpt>
	<wpt lat="59.74915115109476" lon="17.637909815688314">
		<ele>34.01904411055148</ele>
		<time>2026-03-15T14:09:16Z</time>
	</wpt>
	<wpt lat="59.74921166342285" lon="17.63747461832828">
		<ele>33.39795921370387</ele>
		<time>2026-03-15T14:09:58Z</time>
	</wpt>
	<wpt lat="59.74943904560883" lon="17.63744487808236">
		<ele>35.07720393780619</ele>
		<time>2026-03-15T14:13:08Z</time>
	</wpt>
	<wpt lat="59.74965828162702" lon="17.637338907312518">
		<ele>33.81305162329227</ele>
		<time>2026-03-15T14:16:49Z</time>
	</wpt>
	<wpt lat="59.74987472471929" lon="17.637181127237437">
		<ele>31.8608876215294</ele>
		<time>2026-03-15T14:17:27Z</time>
	</wpt>
	<wpt lat="59.75009975611115" lon="17.637122737300995">
		<ele>30.329765365459025</ele>
		<time>2026-03-15T14:21:33Z</time>
	</wpt>
	<wpt lat="59.75031890287114" lon="17.63723988085437">
		<ele>28.94764709006995</ele>
		<time>2026-03-15T14:22:44Z</time>
	</wpt>
	<wpt lat="59.75053152916153" lon="17.637406687360013">
		<ele>28.33989361859858</ele>
		<time>2026-03-15T14:23:13Z</time>
	</wpt>
	<wpt lat="59.750753635950154" lon="17.63747918912392">
		<ele>26.78964931704104</ele>
		<time>2026-03-15T14:23:39Z</time>
	</wpt>
	<wpt lat="59.75097516701464" lon="17.63737921041308">
		<ele>21.05263484455645</ele>
		<time>2026-03-15T14:25:04Z</time>
	</wpt>
	<wpt lat="59.751130143881795" lon="17.637710946006383">
		<ele>21.167064263485372</ele>
		<time>2026-03-15T14:25:57Z</time>
	</wpt>
	<wpt lat="59.75132943585922" lon="17.637931911526294">
		<ele>19.903246854431927</ele>
		<time>2026-03-15T14:26:38Z</time>
	</wpt>
	<wpt lat="59.75150564440121" lon="17.638222909101934">
		<ele>19.085565675981343</ele>
		<time>2026-03-15T14:27:41Z</time>
	</wpt>
	<wpt lat="59.75170903782146" lon="17.638424631672518">
		<ele>18.23401232622564</ele>
		<time>2026-03-15T14:28:13Z</time>
	</wpt>
	<wpt lat="59.75189699747625" lon="17.638678848465986">
		<ele>17.327293371781707</ele>
		<time>2026-03-15T14:28:48Z</time>
	</wpt>
	<wpt lat="59.75210612588893" lon="17.63889404516963">
		<ele>16.489722463302314</ele>
		<time>2026-03-15T14:29:13Z</time>
	</wpt>
	<wpt lat="59.75231700128868" lon="17.639076127130096">
		<ele>14.580740225501359</ele>
		<time>2026-03-15T14:29:50Z</time>
	</wpt>
	<wpt lat="59.75246438804417" lon="17.639422686251383">
		<ele>15.01462340541184</ele>
		<time>2026-03-15T14:30:57Z</time>
	</wpt>
	<wpt lat="59.75250699888864" lon="17.63986581801683">
		<ele>17.33004088047892</ele>
		<time>2026-03-15T14:31:26Z</time>
	</wpt>
	<wpt lat="59.752699211488604" lon="17.640104427814062">
		<ele>15.319660296663642</ele>
		<time>2026-03-15T14:31:51Z</time>
	</wpt>
	<wpt lat="59.7529089169993" lon="17.640277254823765">
		<ele>11.883493327535689</ele>
		<time>2026-03-15T14:32:19Z</time>
	</wpt>
	<wpt lat="59.75311695422216" lon="17.640452182277272">
		<ele>10.919636566191912</ele>
		<time>2026-03-15T14:32:43Z</time>
	</wpt>
	<wpt lat="59.75333508242028" lon="17.640610365897277">
		<ele>9.891753531992435</ele>
		<time>2026-03-15T14:33:07Z</time>
	</wpt>
	<wpt lat="59.753552652335046" lon="17.6407659252131">
		<ele>10.36601869482547</ele>
		<time>2026-03-15T14:33:32Z</time>
	</wpt>
	<wpt lat="59.75376709145686" lon="17.640938041358062">
		<ele>10.784368860535324</ele>
		<time>2026-03-15T14:33:55Z</time>
	</wpt>
	<wpt lat="59.75398399046471" lon="17.641086772154967">
		<ele>9.82459983881563</ele>
		<time>2026-03-15T14:34:25Z</time>
	</wpt>
	<wpt lat="59.75419401429394" lon="17.641255240255806">
		<ele>10.29964186437428</ele>
		<time>2026-03-15T14:34:48Z</time>
	</wpt>
	<wpt lat="59.75440241457145" lon="17.641425685677728">
		<ele>10.046427478082478</ele>
		<time>2026-03-15T14:35:10Z</time>
	</wpt>
	<wpt lat="59.7546155235187" lon="17.64157724398218">
		<ele>9.378655998967588</ele>
		<time>2026-03-15T14:35:35Z</time>
	</wpt>
	<wpt lat="59.75482394557431" lon="17.641765110118524">
		<ele>10.507404663600028</ele>
		<time>2026-03-15T14:36:08Z</time>
	</wpt>
	<wpt lat="59.755040241903565" lon="17.641911701752132">
		<ele>10.97284676041454</ele>
		<time>2026-03-15T14:36:33Z</time>
	</wpt>
	<wpt lat="59.755245050479104" lon="17.64209899953675">
		<ele>10.93071767501533</ele>
		<time>2026-03-15T14:36:55Z</time>
	</wpt>
	<wpt lat="59.75545617050588" lon="17.64226360487616">
		<ele>11.723743012174964</ele>
		<time>2026-03-15T14:37:16Z</time>
	</wpt>
	<wpt lat="59.755674950337074" lon="17.642414616218446">
		<ele>10.993254807777703</ele>
		<time>2026-03-15T14:38:09Z</time>
	</wpt>
	<wpt lat="59.7558899119543" lon="17.642579385746227">
		<ele>14.188580627553165</ele>
		<time>2026-03-15T14:38:38Z</time>
	</wpt>
	<wpt lat="59.756095664925" lon="17.642772340760697">
		<ele>15.010560407303274</ele>
		<time>2026-03-15T14:39:04Z</time>
	</wpt>
	<wpt lat="59.756300376611186" lon="17.642966896038768">
		<ele>16.878191898576915</ele>
		<time>2026-03-15T14:39:30Z</time>
	</wpt>
	<wpt lat="59.756512298776556" lon="17.64313666323298">
		<ele>20.16933442465961</ele>
		<time>2026-03-15T14:39:56Z</time>
	</wpt>
	<wpt lat="59.75672790035794" lon="17.642995841834082">
		<ele>26.422536321915686</ele>
		<time>2026-03-15T14:40:58Z</time>
	</wpt>
	<wpt lat="59.756929439648374" lon="17.642761260243823">
		<ele>25.60204805713147</ele>
		<time>2026-03-15T14:41:25Z</time>
	</wpt>
	<wpt lat="59.75712528772191" lon="17.64254205001237">
		<ele>24.80085007380694</ele>
		<time>2026-03-15T14:41:48Z</time>
	</wpt>
	<wpt lat="59.75726047145206" lon="17.64293023769584">
		<ele>28.556527082808316</ele>
		<time>2026-03-15T14:42:17Z</time>
	</wpt>
	<wpt lat="59.757389968207896" lon="17.643300080949782">
		<ele>29.511093034408987</ele>
		<time>2026-03-15T14:42:34Z</time>
	</wpt>
	<wpt lat="59.757563635213415" lon="17.64358591776303">
		<ele>33.509611188434064</ele>
		<time>2026-03-15T14:42:54Z</time>
	</wpt>
	<wpt lat="59.75772041577916" lon="17.643906867501066">
		<ele>36.40068447031081</ele>
		<time>2026-03-15T14:43:16Z</time>
	</wpt>
	<wpt lat="59.75782109256494" lon="17.644310729250545">
		<ele>38.137682661414146</ele>
		<time>2026-03-15T14:43:37Z</time>
	</wpt>
	<wpt lat="59.75796109117005" lon="17.644665637486174">
		<ele>39.8550194343552</ele>
		<time>2026-03-15T14:43:59Z</time>
	</wpt>
	<wpt lat="59.75809803007311" lon="17.645019810556782">
		<ele>39.819029283709824</ele>
		<time>2026-03-15T14:44:21Z</time>
	</wpt>
	<wpt lat="59.75819886998132" lon="17.645427344210777">
		<ele>38.88206352107227</ele>
		<time>2026-03-15T14:44:46Z</time>
	</wpt>
	<wpt lat="59.758311173042976" lon="17.645825144370015">
		<ele>37.091076754033566</ele>
		<time>2026-03-15T14:45:09Z</time>
	</wpt>
	<wpt lat="59.75832294498421" lon="17.646277156252207">
		<ele>33.63331317342818</ele>
		<time>2026-03-15T14:45:36Z</time>
	</wpt>
	<wpt lat="59.75825728475382" lon="17.646206497222558">
		<ele>33.4589838469401</ele>
		<time>2026-03-15T14:50:02Z</time>
	</wpt>
	<trk>
		<trkseg>
			<trkpt lat="59.75831111898623" lon="17.646244307996376">
				<ele>27.260862350463867</ele>
				<time>2026-03-15T12:53:42Z</time>
			</trkpt>
			<trkpt lat="59.75828229024841" lon="17.645791812607598">
				<ele>32.58641561679542</ele>
				<time>2026-03-15T12:55:21Z</time>
			</trkpt>
			<trkpt lat="59.758164618661375" lon="17.64539623824094">
				<ele>38.62291011400521</ele>
				<time>2026-03-15T12:55:43Z</time>
			</trkpt>
			<trkpt lat="59.75804614293986" lon="17.645006905911803">
				<ele>39.15402032621205</ele>
				<time>2026-03-15T12:56:07Z</time>
			</trkpt>
			<trkpt lat="59.75790565977851" lon="17.644640797288854">
				<ele>39.540191968902946</ele>
				<time>2026-03-15T12:56:25Z</time>
			</trkpt>
			<trkpt lat="59.75778145815669" lon="17.644266355371286">
				<ele>39.703779973089695</ele>
				<time>2026-03-15T12:56:43Z</time>
			</trkpt>
			<trkpt lat="59.757692501016066" lon="17.643844896630934">
				<ele>36.17396095022559</ele>
				<time>2026-03-15T12:57:02Z</time>
			</trkpt>
			<trkpt lat="59.75753016891319" lon="17.643513882587417">
				<ele>32.16519443877041</ele>
				<time>2026-03-15T12:57:24Z</time>
			</trkpt>
			<trkpt lat="59.75733392272667" lon="17.643282660887277">
				<ele>29.91545638628304</ele>
				<time>2026-03-15T12:57:40Z</time>
			</trkpt>
			<trkpt lat="59.75724555541343" lon="17.64285152589932">
				<ele>26.67292430717498</ele>
				<time>2026-03-15T12:57:59Z</time>
			</trkpt>
			<trkpt lat="59.75718858455551" lon="17.64240102165881">
				<ele>22.968565945513546</ele>
				<time>2026-03-15T12:58:18Z</time>
			</trkpt>
			<trkpt lat="59.75716020668413" lon="17.641935497000503">
				<ele>17.72339812014252</ele>
				<time>2026-03-15T12:59:40Z</time>
			</trkpt>
			<trkpt lat="59.757094387520546" lon="17.641495133768455">
				<ele>15.635970318689942</ele>
				<time>2026-03-15T13:00:01Z</time>
			</trkpt>
			<trkpt lat="59.757052926530434" lon="17.641056011444775">
				<ele>10.619924057275057</ele>
				<time>2026-03-15T13:00:45Z</time>
			</trkpt>
			<trkpt lat="59.756885741931356" lon="17.640736113730004">
				<ele>9.157706146128476</ele>
				<time>2026-03-15T13:01:11Z</time>
			</trkpt>
			<trkpt lat="59.75671871998739" lon="17.640423800333703">
				<ele>8.50821197964251</ele>
				<time>2026-03-15T13:01:47Z</time>
			</trkpt>
			<trkpt lat="59.75649616641404" lon="17.64029248587302">
				<ele>5.460163499228656</ele>
				<time>2026-03-15T13:02:09Z</time>
			</trkpt>
			<trkpt lat="59.756297309209366" lon="17.640061996569205">
				<ele>3.4135359209030867</ele>
				<time>2026-03-15T13:03:02Z</time>
			</trkpt>
			<trkpt lat="59.75607144053343" lon="17.639996057827208">
				<ele>3.331657249480486</ele>
				<time>2026-03-15T13:03:42Z</time>
			</trkpt>
			<trkpt lat="59.755847094557545" lon="17.639949580446928">
				<ele>4.22188348416239</ele>
				<time>2026-03-15T13:04:14Z</time>
			</trkpt>
			<trkpt lat="59.7556210085453" lon="17.639997229175727">
				<ele>4.845087930560112</ele>
				<time>2026-03-15T13:04:44Z</time>
			</trkpt>
			<trkpt lat="59.75540417099681" lon="17.639814571092206">
				<ele>4.304397811181843</ele>
				<time>2026-03-15T13:05:17Z</time>
			</trkpt>
			<trkpt lat="59.75521021977622" lon="17.639559464439778">
				<ele>5.244489166885614</ele>
				<time>2026-03-15T13:05:49Z</time>
			</trkpt>
			<trkpt lat="59.75511206715906" lon="17.639158159696684">
				<ele>3.9229686679318547</ele>
				<time>2026-03-15T13:06:15Z</time>
			</trkpt>
			<trkpt lat="59.75497085381888" lon="17.63879513635774">
				<ele>3.1031267354264855</ele>
				<time>2026-03-15T13:06:43Z</time>
			</trkpt>
			<trkpt lat="59.75490274629541" lon="17.638361781169927">
				<ele>4.159114462323487</ele>
				<time>2026-03-15T13:07:12Z</time>
			</trkpt>
			<trkpt lat="59.75476127126683" lon="17.637994106154416">
				<ele>4.8341350788250566</ele>
				<time>2026-03-15T13:07:39Z</time>
			</trkpt>
			<trkpt lat="59.75467063966137" lon="17.637573766176477">
				<ele>5.258502108044922</ele>
				<time>2026-03-15T13:08:03Z</time>
			</trkpt>
			<trkpt lat="59.75455937010915" lon="17.637182068063314">
				<ele>4.933916738256812</ele>
				<time>2026-03-15T13:08:46Z</time>
			</trkpt>
			<trkpt lat="59.7544403052733" lon="17.636802036638905">
				<ele>9.753866856917739</ele>
				<time>2026-03-15T13:09:20Z</time>
			</trkpt>
			<trkpt lat="59.75421262499529" lon="17.63683446722933">
				<ele>10.204021505080163</ele>
				<time>2026-03-15T13:10:02Z</time>
			</trkpt>
			<trkpt lat="59.75398624695609" lon="17.636787665801382">
				<ele>11.099870823323727</ele>
				<time>2026-03-15T13:11:34Z</time>
			</trkpt>
			<trkpt lat="59.75417536579168" lon="17.63707874932087">
				<ele>9.33210875093937</ele>
				<time>2026-03-15T13:12:23Z</time>
			</trkpt>
			<trkpt lat="59.75403436972992" lon="17.637429548255763">
				<ele>9.788942745886743</ele>
				<time>2026-03-15T13:12:47Z</time>
			</trkpt>
			<trkpt lat="59.75381303552548" lon="17.637560809863547">
				<ele>8.52089863922447</ele>
				<time>2026-03-15T13:13:10Z</time>
			</trkpt>
			<trkpt lat="59.75358124374393" lon="17.637630817900774">
				<ele>7.680321213789284</ele>
				<time>2026-03-15T13:13:30Z</time>
			</trkpt>
			<trkpt lat="59.75337711850713" lon="17.63741897998576">
				<ele>6.130686556920409</ele>
				<time>2026-03-15T13:15:08Z</time>
			</trkpt>
			<trkpt lat="59.753161144780925" lon="17.637578123167636">
				<ele>6.922871882095933</ele>
				<time>2026-03-15T13:16:01Z</time>
			</trkpt>
			<trkpt lat="59.752957316410715" lon="17.637774863821917">
				<ele>7.375095942057669</ele>
				<time>2026-03-15T13:17:07Z</time>
			</trkpt>
			<trkpt lat="59.75287363007667" lon="17.63818894395024">
				<ele>6.759151509962976</ele>
				<time>2026-03-15T13:17:28Z</time>
			</trkpt>
			<trkpt lat="59.75278554434671" lon="17.63860526997106">
				<ele>7.300217595882714</ele>
				<time>2026-03-15T13:17:52Z</time>
			</trkpt>
			<trkpt lat="59.75272545024196" lon="17.63903475802962">
				<ele>8.280646053142846</ele>
				<time>2026-03-15T13:18:15Z</time>
			</trkpt>
			<trkpt lat="59.752658010195105" lon="17.639462309078027">
				<ele>11.415771927684546</ele>
				<time>2026-03-15T13:19:20Z</time>
			</trkpt>
			<trkpt lat="59.752624995520684" lon="17.639913504839715">
				<ele>13.571305378340185</ele>
				<time>2026-03-15T13:19:47Z</time>
			</trkpt>
			<trkpt lat="59.7525181664251" lon="17.639518697522117">
				<ele>14.485180526040494</ele>
				<time>2026-03-15T13:20:27Z</time>
			</trkpt>
			<trkpt lat="59.752409627350616" lon="17.63912731591581">
				<ele>12.056525289081037</ele>
				<time>2026-03-15T13:20:52Z</time>
			</trkpt>
			<trkpt lat="59.75223167103858" lon="17.63884331031171">
				<ele>14.486427446827292</ele>
				<time>2026-03-15T13:21:20Z</time>
			</trkpt>
			<trkpt lat="59.75201292811582" lon="17.63874180440186">
				<ele>16.005532999522984</ele>
				<time>2026-03-15T13:21:50Z</time>
			</trkpt>
			<trkpt lat="59.751828950322626" lon="17.638473664755683">
				<ele>16.456525249406695</ele>
				<time>2026-03-15T13:22:24Z</time>
			</trkpt>
			<trkpt lat="59.75164812311187" lon="17.638204269541085">
				<ele>16.859404677525163</ele>
				<time>2026-03-15T13:22:54Z</time>
			</trkpt>
			<trkpt lat="59.75144993588548" lon="17.637974925552818">
				<ele>16.668337215669453</ele>
				<time>2026-03-15T13:25:49Z</time>
			</trkpt>
			<trkpt lat="59.75124630522496" lon="17.63778220144578">
				<ele>19.203075224533677</ele>
				<time>2026-03-15T13:26:19Z</time>
			</trkpt>
			<trkpt lat="59.7510659328102" lon="17.63750070242597">
				<ele>18.601545196026564</ele>
				<time>2026-03-15T13:27:05Z</time>
			</trkpt>
			<trkpt lat="59.75097971345732" lon="17.63706912181627">
				<ele>15.156924097798765</ele>
				<time>2026-03-15T13:27:34Z</time>
			</trkpt>
			<trkpt lat="59.75081367608952" lon="17.636767981923654">
				<ele>13.304394224658608</ele>
				<time>2026-03-15T13:27:58Z</time>
			</trkpt>
			<trkpt lat="59.75062722907293" lon="17.63651020305607">
				<ele>15.399424080736935</ele>
				<time>2026-03-15T13:28:21Z</time>
			</trkpt>
			<trkpt lat="59.75045757475564" lon="17.63617497185992">
				<ele>15.263073774985969</ele>
				<time>2026-03-15T13:28:44Z</time>
			</trkpt>
			<trkpt lat="59.75023176692633" lon="17.63613914214384">
				<ele>17.560225201770663</ele>
				<time>2026-03-15T13:29:16Z</time>
			</trkpt>
			<trkpt lat="59.7500126705512" lon="17.63602621711753">
				<ele>17.624037651345134</ele>
				<time>2026-03-15T13:30:20Z</time>
			</trkpt>
			<trkpt lat="59.749818656711085" lon="17.6362553666424">
				<ele>20.406729938462377</ele>
				<time>2026-03-15T13:30:49Z</time>
			</trkpt>
			<trkpt lat="59.74962167513904" lon="17.636026678646246">
				<ele>17.061269379220903</ele>
				<time>2026-03-15T13:31:45Z</time>
			</trkpt>
			<trkpt lat="59.74941649036931" lon="17.63581405570962">
				<ele>12.645137751474977</ele>
				<time>2026-03-15T13:32:29Z</time>
			</trkpt>
			<trkpt lat="59.749446415231446" lon="17.636260220364722">
				<ele>18.630073700100183</ele>
				<time>2026-03-15T13:35:38Z</time>
			</trkpt>
			<trkpt lat="59.74923282396994" lon="17.63641362517766">
				<ele>15.414548487402499</ele>
				<time>2026-03-15T13:37:59Z</time>
			</trkpt>
			<trkpt lat="59.749004100781754" lon="17.636350283917636">
				<ele>7.7664929125458</ele>
				<time>2026-03-15T13:40:37Z</time>
			</trkpt>
			<trkpt lat="59.748824936244375" lon="17.636631052720368">
				<ele>4.787768393754959</ele>
				<time>2026-03-15T13:42:22Z</time>
			</trkpt>
			<trkpt lat="59.7486922560493" lon="17.637008095647417">
				<ele>5.327985587529838</ele>
				<time>2026-03-15T13:44:09Z</time>
			</trkpt>
			<trkpt lat="59.74848992046833" lon="17.637211215091742">
				<ele>5.048715418204665</ele>
				<time>2026-03-15T13:45:25Z</time>
			</trkpt>
			<trkpt lat="59.74827084416522" lon="17.637314722339703">
				<ele>5.1143740164116025</ele>
				<time>2026-03-15T13:45:59Z</time>
			</trkpt>
			<trkpt lat="59.74805318088266" lon="17.637441908469945">
				<ele>7.497861046344042</ele>
				<time>2026-03-15T13:46:57Z</time>
			</trkpt>
			<trkpt lat="59.74787433736164" lon="17.637718049868116">
				<ele>9.434938853606582</ele>
				<time>2026-03-15T13:47:47Z</time>
			</trkpt>
			<trkpt lat="59.74769214622073" lon="17.637993061184723">
				<ele>13.737596402876079</ele>
				<time>2026-03-15T13:48:25Z</time>
			</trkpt>
			<trkpt lat="59.74747303149098" lon="17.63816563621778">
				<ele>13.86202340759337</ele>
				<time>2026-03-15T13:48:55Z</time>
			</trkpt>
			<trkpt lat="59.74730959374281" lon="17.638472178898926">
				<ele>16.59394793678075</ele>
				<time>2026-03-15T13:50:10Z</time>
			</trkpt>
			<trkpt lat="59.747097521590966" lon="17.63864488328918">
				<ele>16.459496770054102</ele>
				<time>2026-03-15T13:50:34Z</time>
			</trkpt>
			<trkpt lat="59.74688521903379" lon="17.638461339940935">
				<ele>14.12475373223424</ele>
				<time>2026-03-15T13:51:27Z</time>
			</trkpt>
			<trkpt lat="59.74706306634656" lon="17.638745693230515">
				<ele>17.73217563237995</ele>
				<time>2026-03-15T13:56:08Z</time>
			</trkpt>
			<trkpt lat="59.74700085976556" lon="17.639175574183028">
				<ele>22.370739442296326</ele>
				<time>2026-03-15T13:56:48Z</time>
			</trkpt>
			<trkpt lat="59.74696911379505" lon="17.63962825370097">
				<ele>26.71993486676365</ele>
				<time>2026-03-15T13:57:24Z</time>
			</trkpt>
			<trkpt lat="59.74716776292753" lon="17.639866922849386">
				<ele>32.65807694476098</ele>
				<time>2026-03-15T13:59:00Z</time>
			</trkpt>
			<trkpt lat="59.747393399333305" lon="17.63984801901507">
				<ele>34.94629743415862</ele>
				<time>2026-03-15T13:59:36Z</time>
			</trkpt>
			<trkpt lat="59.74761561241136" lon="17.639772463510926">
				<ele>35.74322136398405</ele>
				<time>2026-03-15T14:00:05Z</time>
			</trkpt>
			<trkpt lat="59.74778864369641" lon="17.640060086722603">
				<ele>39.35114879440516</ele>
				<time>2026-03-15T14:01:26Z</time>
			</trkpt>
			<trkpt lat="59.74801097453719" lon="17.640185845571306">
				<ele>41.7117171054706</ele>
				<time>2026-03-15T14:02:13Z</time>
			</trkpt>
			<trkpt lat="59.74823075479772" lon="17.64005527564555">
				<ele>40.44755870569497</ele>
				<time>2026-03-15T14:02:50Z</time>
			</trkpt>
			<trkpt lat="59.748455993425985" lon="17.64006355470278">
				<ele>39.68877335079014</ele>
				<time>2026-03-15T14:03:56Z</time>
			</trkpt>
			<trkpt lat="59.748654714153815" lon="17.639848693763746">
				<ele>39.058268495835364</ele>
				<time>2026-03-15T14:04:23Z</time>
			</trkpt>
			<trkpt lat="59.748877894404735" lon="17.63976253056482">
				<ele>40.22321823146194</ele>
				<time>2026-03-15T14:04:58Z</time>
			</trkpt>
			<trkpt lat="59.74909002487545" lon="17.639601759136298">
				<ele>42.18412390444428</ele>
				<time>2026-03-15T14:05:23Z</time>
			</trkpt>
			<trkpt lat="59.749026319492636" lon="17.639163969304963">
				<ele>37.60325397644192</ele>
				<time>2026-03-15T14:05:46Z</time>
			</trkpt>
			<trkpt lat="59.74902200860679" lon="17.63871686607094">
				<ele>34.8407271578908</ele>
				<time>2026-03-15T14:06:28Z</time>
			</trkpt>
			<trkpt lat="59.74915920594134" lon="17.63835449562187">
				<ele>33.93126120232046</ele>
				<time>2026-03-15T14:08:37Z</time>
			</trkpt>
			<trkpt lat="59.74915115109476" lon="17.637909815688314">
				<ele>34.01904411055148</ele>
				<time>2026-03-15T14:09:16Z</time>
			</trkpt>
			<trkpt lat="59.74921166342285" lon="17.63747461832828">
				<ele>33.39795921370387</ele>
				<time>2026-03-15T14:09:58Z</time>
			</trkpt>
			<trkpt lat="59.74943904560883" lon="17.63744487808236">
				<ele>35.07720393780619</ele>
				<time>2026-03-15T14:13:08Z</time>
			</trkpt>
			<trkpt lat="59.74965828162702" lon="17.637338907312518">
				<ele>33.81305162329227</ele>
				<time>2026-03-15T14:16:49Z</time>
			</trkpt>
			<trkpt lat="59.74987472471929" lon="17.637181127237437">
				<ele>31.8608876215294</ele>
				<time>2026-03-15T14:17:27Z</time>
			</trkpt>
			<trkpt lat="59.75009975611115" lon="17.637122737300995">
				<ele>30.329765365459025</ele>
				<time>2026-03-15T14:21:33Z</time>
			</trkpt>
			<trkpt lat="59.75031890287114" lon="17.63723988085437">
				<ele>28.94764709006995</ele>
				<time>2026-03-15T14:22:44Z</time>
			</trkpt>
			<trkpt lat="59.75053152916153" lon="17.637406687360013">
				<ele>28.33989361859858</ele>
				<time>2026-03-15T14:23:13Z</time>
			</trkpt>
			<trkpt lat="59.750753635950154" lon="17.63747918912392">
				<ele>26.78964931704104</ele>
				<time>2026-03-15T14:23:39Z</time>
			</trkpt>
			<trkpt lat="59.75097516701464" lon="17.63737921041308">
				<ele>21.05263484455645</ele>
				<time>2026-03-15T14:25:04Z</time>
			</trkpt>
			<trkpt lat="59.751130143881795" lon="17.637710946006383">
				<ele>21.167064263485372</ele>
				<time>2026-03-15T14:25:57Z</time>
			</trkpt>
			<trkpt lat="59.75132943585922" lon="17.637931911526294">
				<ele>19.903246854431927</ele>
				<time>2026-03-15T14:26:38Z</time>
			</trkpt>
			<trkpt lat="59.75150564440121" lon="17.638222909101934">
				<ele>19.085565675981343</ele>
				<time>2026-03-15T14:27:41Z</time>
			</trkpt>
			<trkpt lat="59.75170903782146" lon="17.638424631672518">
				<ele>18.23401232622564</ele>
				<time>2026-03-15T14:28:13Z</time>
			</trkpt>
			<trkpt lat="59.75189699747625" lon="17.638678848465986">
				<ele>17.327293371781707</ele>
				<time>2026-03-15T14:28:48Z</time>
			</trkpt>
			<trkpt lat="59.75210612588893" lon="17.63889404516963">
				<ele>16.489722463302314</ele>
				<time>2026-03-15T14:29:13Z</time>
			</trkpt>
			<trkpt lat="59.75231700128868" lon="17.639076127130096">
				<ele>14.580740225501359</ele>
				<time>2026-03-15T14:29:50Z</time>
			</trkpt>
			<trkpt lat="59.75246438804417" lon="17.639422686251383">
				<ele>15.01462340541184</ele>
				<time>2026-03-15T14:30:57Z</time>
			</trkpt>
			<trkpt lat="59.75250699888864" lon="17.63986581801683">
				<ele>17.33004088047892</ele>
				<time>2026-03-15T14:31:26Z</time>
			</trkpt>
			<trkpt lat="59.752699211488604" lon="17.640104427814062">
				<ele>15.319660296663642</ele>
				<time>2026-03-15T14:31:51Z</time>
			</trkpt>
			<trkpt lat="59.7529089169993" lon="17.640277254823765">
				<ele>11.883493327535689</ele>
				<time>2026-03-15T14:32:19Z</time>
			</trkpt>
			<trkpt lat="59.75311695422216" lon="17.640452182277272">
				<ele>10.919636566191912</ele>
				<time>2026-03-15T14:32:43Z</time>
			</trkpt>
			<trkpt lat="59.75333508242028" lon="17.640610365897277">
				<ele>9.891753531992435</ele>
				<time>2026-03-15T14:33:07Z</time>
			</trkpt>
			<trkpt lat="59.753552652335046" lon="17.6407659252131">
				<ele>10.36601869482547</ele>
				<time>2026-03-15T14:33:32Z</time>
			</trkpt>
			<trkpt lat="59.75376709145686" lon="17.640938041358062">
				<ele>10.784368860535324</ele>
				<time>2026-03-15T14:33:55Z</time>
			</trkpt>
			<trkpt lat="59.75398399046471" lon="17.641086772154967">
				<ele>9.82459983881563</ele>
				<time>2026-03-15T14:34:25Z</time>
			</trkpt>
			<trkpt lat="59.75419401429394" lon="17.641255240255806">
				<ele>10.29964186437428</ele>
				<time>2026-03-15T14:34:48Z</time>
			</trkpt>
			<trkpt lat="59.75440241457145" lon="17.641425685677728">
				<ele>10.046427478082478</ele>
				<time>2026-03-15T14:35:10Z</time>
			</trkpt>
			<trkpt lat="59.7546155235187" lon="17.64157724398218">
				<ele>9.378655998967588</ele>
				<time>2026-03-15T14:35:35Z</time>
			</trkpt>
			<trkpt lat="59.75482394557431" lon="17.641765110118524">
				<ele>10.507404663600028</ele>
				<time>2026-03-15T14:36:08Z</time>
			</trkpt>
			<trkpt lat="59.755040241903565" lon="17.641911701752132">
				<ele>10.97284676041454</ele>
				<time>2026-03-15T14:36:33Z</time>
			</trkpt>
			<trkpt lat="59.755245050479104" lon="17.64209899953675">
				<ele>10.93071767501533</ele>
				<time>2026-03-15T14:36:55Z</time>
			</trkpt>
			<trkpt lat="59.75545617050588" lon="17.64226360487616">
				<ele>11.723743012174964</ele>
				<time>2026-03-15T14:37:16Z</time>
			</trkpt>
			<trkpt lat="59.755674950337074" lon="17.642414616218446">
				<ele>10.993254807777703</ele>
				<time>2026-03-15T14:38:09Z</time>
			</trkpt>
			<trkpt lat="59.7558899119543" lon="17.642579385746227">
				<ele>14.188580627553165</ele>
				<time>2026-03-15T14:38:38Z</time>
			</trkpt>
			<trkpt lat="59.756095664925" lon="17.642772340760697">
				<ele>15.010560407303274</ele>
				<time>2026-03-15T14:39:04Z</time>
			</trkpt>
			<trkpt lat="59.756300376611186" lon="17.642966896038768">
				<ele>16.878191898576915</ele>
				<time>2026-03-15T14:39:30Z</time>
			</trkpt>
			<trkpt lat="59.756512298776556" lon="17.64313666323298">
				<ele>20.16933442465961</ele>
				<time>2026-03-15T14:39:56Z</time>
			</trkpt>
			<trkpt lat="59.75672790035794" lon="17.642995841834082">
				<ele>26.422536321915686</ele>
				<time>2026-03-15T14:40:58Z</time>
			</trkpt>
			<trkpt lat="59.756929439648374" lon="17.642761260243823">
				<ele>25.60204805713147</ele>
				<time>2026-03-15T14:41:25Z</time>
			</trkpt>
			<trkpt lat="59.75712528772191" lon="17.64254205001237">
				<ele>24.80085007380694</ele>
				<time>2026-03-15T14:41:48Z</time>
			</trkpt>
			<trkpt lat="59.75726047145206" lon="17.64293023769584">
				<ele>28.556527082808316</ele>
				<time>2026-03-15T14:42:17Z</time>
			</trkpt>
			<trkpt lat="59.757389968207896" lon="17.643300080949782">
				<ele>29.511093034408987</ele>
				<time>2026-03-15T14:42:34Z</time>
			</trkpt>
			<trkpt lat="59.757563635213415" lon="17.64358591776303">
				<ele>33.509611188434064</ele>
				<time>2026-03-15T14:42:54Z</time>
			</trkpt>
			<trkpt lat="59.75772041577916" lon="17.643906867501066">
				<ele>36.40068447031081</ele>
				<time>2026-03-15T14:43:16Z</time>
			</trkpt>
			<trkpt lat="59.75782109256494" lon="17.644310729250545">
				<ele>38.137682661414146</ele>
				<time>2026-03-15T14:43:37Z</time>
			</trkpt>
			<trkpt lat="59.75796109117005" lon="17.644665637486174">
				<ele>39.8550194343552</ele>
				<time>2026-03-15T14:43:59Z</time>
			</trkpt>
			<trkpt lat="59.75809803007311" lon="17.645019810556782">
				<ele>39.819029283709824</ele>
				<time>2026-03-15T14:44:21Z</time>
			</trkpt>
			<trkpt lat="59.75819886998132" lon="17.645427344210777">
				<ele>38.88206352107227</ele>
				<time>2026-03-15T14:44:46Z</time>
			</trkpt>
			<trkpt lat="59.758311173042976" lon="17.645825144370015">
				<ele>37.091076754033566</ele>
				<time>2026-03-15T14:45:09Z</time>
			</trkpt>
			<trkpt lat="59.75832294498421" lon="17.646277156252207">
				<ele>33.63331317342818</ele>
				<time>2026-03-15T14:45:36Z</time>
			</trkpt>
			<trkpt lat="59.75825728475382" lon="17.646206497222558">
				<ele>33.4589838469401</ele>
				<time>2026-03-15T14:50:02Z</time>
			</trkpt>
		</trkseg>
	</trk>
	<extensions>
	</extensions>
</gpx>
