<?xml version="1.0" encoding="UTF-8"?>
<gpx xmlns:xsi="http://www.w3.org/2001/XMLSchema-instance" xmlns="http://www.topografix.com/GPX/1/1" xsi:schemaLocation="http://www.topografix.com/GPX/1/1 http://www.topografix.com/GPX/1/1/gpx.xsd" version="1.1" creator="FootMark for iOS">
	<metadata>
		<link href="https://itunes.apple.com/us/app/footmark-route-recorder/id1451393033">
			<text>Download link</text>
		</link>
		<time>2026-05-01T23:00:22Z</time>
	</metadata>
	<wpt lat="59.771119616974445" lon="17.72189076376193">
		<ele>51.075081661343575</ele>
		<time>2026-03-02T15:06:09Z</time>
	</wpt>
	<wpt lat="59.771212330392935" lon="17.722310419333898">
		<ele>54.217850285582244</ele>
		<time>2026-03-02T15:08:43Z</time>
	</wpt>
	<wpt lat="59.77140325133911" lon="17.7225514398294">
		<ele>53.259731186553836</ele>
		<time>2026-03-02T15:09:10Z</time>
	</wpt>
	<wpt lat="59.771631721944956" lon="17.722540433022214">
		<ele>56.4664338901639</ele>
		<time>2026-03-02T15:09:35Z</time>
	</wpt>
	<wpt lat="59.77186097264485" lon="17.722569470439144">
		<ele>56.25952813401818</ele>
		<time>2026-03-02T15:09:58Z</time>
	</wpt>
	<wpt lat="59.772087693012175" lon="17.722608997861272">
		<ele>53.9747204547748</ele>
		<time>2026-03-02T15:10:31Z</time>
	</wpt>
	<wpt lat="59.77230747088686" lon="17.72271981213378">
		<ele>54.62270999047905</ele>
		<time>2026-03-02T15:10:52Z</time>
	</wpt>
	<wpt lat="59.772526512745245" lon="17.722834225693692">
		<ele>54.19553207047284</ele>
		<time>2026-03-02T15:11:14Z</time>
	</wpt>
	<wpt lat="59.7727566078666" lon="17.722895089506597">
		<ele>55.08619200438261</ele>
		<time>2026-03-02T15:11:36Z</time>
	</wpt>
	<wpt lat="59.77298834384101" lon="17.72283349469498">
		<ele>57.694097897037864</ele>
		<time>2026-03-02T15:11:56Z</time>
	</wpt>
	<wpt lat="59.77321531306975" lon="17.722902956861798">
		<ele>55.83800901286304</ele>
		<time>2026-03-02T15:12:24Z</time>
	</wpt>
	<wpt lat="59.77342361136986" lon="17.722709807232444">
		<ele>55.28452856838703</ele>
		<time>2026-03-02T15:12:49Z</time>
	</wpt>
	<wpt lat="59.773648363224304" lon="17.72276862776047">
		<ele>54.18351563997567</ele>
		<time>2026-03-02T15:13:23Z</time>
	</wpt>
	<wpt lat="59.77381317705299" lon="17.72308287627211">
		<ele>55.49576878454536</ele>
		<time>2026-03-02T15:13:47Z</time>
	</wpt>
	<wpt lat="59.774015430851435" lon="17.723284674752385">
		<ele>57.414286863058805</ele>
		<time>2026-03-02T15:14:11Z</time>
	</wpt>
	<wpt lat="59.77420830627712" lon="17.723516578022455">
		<ele>57.28318777307868</ele>
		<time>2026-03-02T15:14:37Z</time>
	</wpt>
	<wpt lat="59.77443409050435" lon="17.72360554528694">
		<ele>56.45624072197825</ele>
		<time>2026-03-02T15:15:01Z</time>
	</wpt>
	<wpt lat="59.77466700400894" lon="17.723685748892173">
		<ele>57.77783829718828</ele>
		<time>2026-03-02T15:15:24Z</time>
	</wpt>
	<wpt lat="59.77489267780837" lon="17.723796587722454">
		<ele>54.85273242741823</ele>
		<time>2026-03-02T15:15:47Z</time>
	</wpt>
	<wpt lat="59.77506790498412" lon="17.72408784808666">
		<ele>57.285986276343465</ele>
		<time>2026-03-02T15:16:11Z</time>
	</wpt>
	<wpt lat="59.77495616937025" lon="17.724485293094055">
		<ele>58.32505956385285</ele>
		<time>2026-03-02T15:16:48Z</time>
	</wpt>
	<wpt lat="59.77495791352334" lon="17.72493551142132">
		<ele>59.72764442767948</ele>
		<time>2026-03-02T15:17:30Z</time>
	</wpt>
	<wpt lat="59.77487279194842" lon="17.72535037562518">
		<ele>57.39379312470555</ele>
		<time>2026-03-02T15:17:58Z</time>
	</wpt>
	<wpt lat="59.77491444396249" lon="17.72579632317702">
		<ele>55.03455456160009</ele>
		<time>2026-03-02T15:18:27Z</time>
	</wpt>
	<wpt lat="59.774974512380844" lon="17.72623977010689">
		<ele>53.3353058649227</ele>
		<time>2026-03-02T15:18:51Z</time>
	</wpt>
	<wpt lat="59.775102567821264" lon="17.726622181347803">
		<ele>51.744072349742055</ele>
		<time>2026-03-02T15:19:14Z</time>
	</wpt>
	<wpt lat="59.77529685900288" lon="17.72637828551402">
		<ele>53.3308565299958</ele>
		<time>2026-03-02T15:19:39Z</time>
	</wpt>
	<wpt lat="59.77549380689757" lon="17.726100890619364">
		<ele>58.4581313515082</ele>
		<time>2026-03-02T15:20:01Z</time>
	</wpt>
	<wpt lat="59.77570106319624" lon="17.72628499565822">
		<ele>58.63048042263836</ele>
		<time>2026-03-02T15:20:24Z</time>
	</wpt>
	<wpt lat="59.77591220477246" lon="17.72644885988033">
		<ele>59.18540058564395</ele>
		<time>2026-03-02T15:20:50Z</time>
	</wpt>
	<wpt lat="59.77613910843845" lon="17.72647747358543">
		<ele>59.33611496351659</ele>
		<time>2026-03-02T15:21:14Z</time>
	</wpt>
	<wpt lat="59.776343089947765" lon="17.72666953884099">
		<ele>55.14266558922827</ele>
		<time>2026-03-02T15:21:41Z</time>
	</wpt>
	<wpt lat="59.77641655259409" lon="17.72710562794143">
		<ele>57.66473806463182</ele>
		<time>2026-03-02T15:22:07Z</time>
	</wpt>
	<wpt lat="59.77642754944599" lon="17.7275559957835">
		<ele>55.117274744436145</ele>
		<time>2026-03-02T15:22:38Z</time>
	</wpt>
	<wpt lat="59.77643534585042" lon="17.728001475344843">
		<ele>53.129691595211625</ele>
		<time>2026-03-02T15:23:07Z</time>
	</wpt>
	<wpt lat="59.77651596913544" lon="17.728433182606473">
		<ele>52.049996541813016</ele>
		<time>2026-03-02T15:23:32Z</time>
	</wpt>
	<wpt lat="59.77671469484424" lon="17.728685957039353">
		<ele>51.80450851842761</ele>
		<time>2026-03-02T15:25:04Z</time>
	</wpt>
	<wpt lat="59.776913251676966" lon="17.728900035271227">
		<ele>55.56938209850341</ele>
		<time>2026-03-02T15:26:01Z</time>
	</wpt>
	<wpt lat="59.77712514767212" lon="17.728750635811057">
		<ele>53.05308192409575</ele>
		<time>2026-03-02T15:26:35Z</time>
	</wpt>
	<wpt lat="59.777284278563826" lon="17.72842703465263">
		<ele>53.6968580307439</ele>
		<time>2026-03-02T15:27:00Z</time>
	</wpt>
	<wpt lat="59.777456295537945" lon="17.728125588626266">
		<ele>53.43262928724289</ele>
		<time>2026-03-02T15:27:24Z</time>
	</wpt>
	<wpt lat="59.77765014511176" lon="17.727888047579732">
		<ele>55.65292982943356</ele>
		<time>2026-03-02T15:27:52Z</time>
	</wpt>
	<wpt lat="59.77783879351192" lon="17.728166615134434">
		<ele>56.114976393058896</ele>
		<time>2026-03-02T15:28:14Z</time>
	</wpt>
	<wpt lat="59.778058906858426" lon="17.728054689632906">
		<ele>57.58043345902115</ele>
		<time>2026-03-02T15:28:39Z</time>
	</wpt>
	<wpt lat="59.77827243101738" lon="17.727886651903216">
		<ele>58.8977917265147</ele>
		<time>2026-03-02T15:29:03Z</time>
	</wpt>
	<wpt lat="59.77848568944525" lon="17.727739470126846">
		<ele>58.83454712014645</ele>
		<time>2026-03-02T15:29:27Z</time>
	</wpt>
	<wpt lat="59.77871045900378" lon="17.72759905569713">
		<ele>57.21104596648365</ele>
		<time>2026-03-02T15:29:50Z</time>
	</wpt>
	<wpt lat="59.778920673072406" lon="17.727391316848177">
		<ele>57.968201166950166</ele>
		<time>2026-03-02T15:30:16Z</time>
	</wpt>
	<wpt lat="59.779126440190105" lon="17.727213246330496">
		<ele>60.40687491558492</ele>
		<time>2026-03-02T15:30:45Z</time>
	</wpt>
	<wpt lat="59.779343030059266" lon="17.727072226772485">
		<ele>61.402405825443566</ele>
		<time>2026-03-02T15:31:07Z</time>
	</wpt>
	<wpt lat="59.779569286559294" lon="17.727099063061083">
		<ele>59.56779325567186</ele>
		<time>2026-03-02T15:31:29Z</time>
	</wpt>
	<wpt lat="59.77978655594759" lon="17.72695301274715">
		<ele>60.187666630372405</ele>
		<time>2026-03-02T15:31:48Z</time>
	</wpt>
	<wpt lat="59.780006288094945" lon="17.726811309346548">
		<ele>61.699824751354754</ele>
		<time>2026-03-02T15:32:12Z</time>
	</wpt>
	<wpt lat="59.780224722233605" lon="17.726698381072154">
		<ele>58.23727692384273</ele>
		<time>2026-03-02T15:32:37Z</time>
	</wpt>
	<wpt lat="59.78044885477768" lon="17.726814135834623">
		<ele>62.23219951335341</ele>
		<time>2026-03-02T15:32:57Z</time>
	</wpt>
	<wpt lat="59.78067530094784" lon="17.726846490869853">
		<ele>62.84764618612826</ele>
		<time>2026-03-02T15:33:19Z</time>
	</wpt>
	<wpt lat="59.78089129769959" lon="17.726988753003557">
		<ele>65.56554725766182</ele>
		<time>2026-03-02T15:33:43Z</time>
	</wpt>
	<wpt lat="59.78095715567158" lon="17.72744395192867">
		<ele>67.41239255480468</ele>
		<time>2026-03-02T15:34:12Z</time>
	</wpt>
	<wpt lat="59.78114214555878" lon="17.727710516339165">
		<ele>64.3240460883826</ele>
		<time>2026-03-02T15:34:39Z</time>
	</wpt>
	<wpt lat="59.78125773906699" lon="17.72810726479453">
		<ele>64.75882425531745</ele>
		<time>2026-03-02T15:35:05Z</time>
	</wpt>
	<wpt lat="59.78137899690656" lon="17.72849089379168">
		<ele>63.30696496646851</ele>
		<time>2026-03-02T15:35:33Z</time>
	</wpt>
	<wpt lat="59.78158423328838" lon="17.728695641234864">
		<ele>62.56494574341923</ele>
		<time>2026-03-02T15:35:57Z</time>
	</wpt>
	<wpt lat="59.78173547346649" lon="17.72903152320677">
		<ele>63.682486350648105</ele>
		<time>2026-03-02T15:36:21Z</time>
	</wpt>
	<wpt lat="59.78195620022707" lon="17.72912864537911">
		<ele>66.46730595361441</ele>
		<time>2026-03-02T15:36:40Z</time>
	</wpt>
	<wpt lat="59.78218677593505" lon="17.72918572394781">
		<ele>61.30560659058392</ele>
		<time>2026-03-02T15:37:01Z</time>
	</wpt>
	<wpt lat="59.78240056597136" lon="17.72938223413705">
		<ele>63.22047323640436</ele>
		<time>2026-03-02T15:37:27Z</time>
	</wpt>
	<wpt lat="59.782603466313525" lon="17.72962140404014">
		<ele>62.11926426831633</ele>
		<time>2026-03-02T15:37:56Z</time>
	</wpt>
	<wpt lat="59.78281115509152" lon="17.729840601274365">
		<ele>61.264536692760885</ele>
		<time>2026-03-02T15:38:24Z</time>
	</wpt>
	<wpt lat="59.7830180241203" lon="17.730043975806332">
		<ele>60.00281602144241</ele>
		<time>2026-03-02T15:38:50Z</time>
	</wpt>
	<wpt lat="59.78317507078053" lon="17.730386691571425">
		<ele>59.548869953490794</ele>
		<time>2026-03-02T15:39:19Z</time>
	</wpt>
	<wpt lat="59.78329200169166" lon="17.730799129650862">
		<ele>61.409465262666345</ele>
		<time>2026-03-02T15:39:40Z</time>
	</wpt>
	<wpt lat="59.783257745417565" lon="17.73128186757909">
		<ele>61.48240920994431</ele>
		<time>2026-03-02T15:40:26Z</time>
	</wpt>
	<wpt lat="59.78336551354941" lon="17.73169666085062">
		<ele>59.4499393729493</ele>
		<time>2026-03-02T15:40:50Z</time>
	</wpt>
	<wpt lat="59.7834201050891" lon="17.732130171916527">
		<ele>60.1453388184309</ele>
		<time>2026-03-02T15:41:15Z</time>
	</wpt>
	<wpt lat="59.783542021897134" lon="17.73252396128744">
		<ele>57.77125144936144</ele>
		<time>2026-03-02T15:41:39Z</time>
	</wpt>
	<wpt lat="59.78372712513548" lon="17.73281404130352">
		<ele>57.91608926933259</ele>
		<time>2026-03-02T15:42:02Z</time>
	</wpt>
	<wpt lat="59.783905960829685" lon="17.733106063340188">
		<ele>57.5065143359825</ele>
		<time>2026-03-02T15:42:23Z</time>
	</wpt>
	<wpt lat="59.784104959669406" lon="17.733344058746244">
		<ele>59.387385186739266</ele>
		<time>2026-03-02T15:43:59Z</time>
	</wpt>
	<wpt lat="59.784269673353826" lon="17.73365390376276">
		<ele>62.12978365458548</ele>
		<time>2026-03-02T15:44:23Z</time>
	</wpt>
	<wpt lat="59.78446348870155" lon="17.733900025832884">
		<ele>61.971028921194375</ele>
		<time>2026-03-02T15:44:50Z</time>
	</wpt>
	<wpt lat="59.784660230870294" lon="17.734153897631877">
		<ele>58.28314144350588</ele>
		<time>2026-03-02T15:45:46Z</time>
	</wpt>
	<wpt lat="59.78484312472197" lon="17.734425698320763">
		<ele>57.54006884153932</ele>
		<time>2026-03-02T15:46:24Z</time>
	</wpt>
	<wpt lat="59.785001975773795" lon="17.73475305724229">
		<ele>60.33382245898247</ele>
		<time>2026-03-02T15:46:49Z</time>
	</wpt>
	<wpt lat="59.78514671618288" lon="17.735105463908795">
		<ele>59.37128423433751</ele>
		<time>2026-03-02T15:47:13Z</time>
	</wpt>
	<wpt lat="59.78527558151131" lon="17.73548410410351">
		<ele>60.574331410229206</ele>
		<time>2026-03-02T15:48:01Z</time>
	</wpt>
	<wpt lat="59.78540343655643" lon="17.735853120675475">
		<ele>61.59590496867895</ele>
		<time>2026-03-02T15:48:26Z</time>
	</wpt>
	<wpt lat="59.78558859695231" lon="17.736133269670766">
		<ele>61.87334282696247</ele>
		<time>2026-03-02T15:48:49Z</time>
	</wpt>
	<wpt lat="59.78577109103179" lon="17.736437826266332">
		<ele>62.87003045901656</ele>
		<time>2026-03-02T15:49:11Z</time>
	</wpt>
	<wpt lat="59.78599137348247" lon="17.736571845737593">
		<ele>61.71911193802953</ele>
		<time>2026-03-02T15:49:43Z</time>
	</wpt>
	<wpt lat="59.78620786456056" lon="17.73670314516289">
		<ele>60.070027247071266</ele>
		<time>2026-03-02T15:50:10Z</time>
	</wpt>
	<wpt lat="59.78643145639818" lon="17.73663020300645">
		<ele>63.57323049288243</ele>
		<time>2026-03-02T15:50:31Z</time>
	</wpt>
	<wpt lat="59.78665532472787" lon="17.73656352865421">
		<ele>63.38983776420355</ele>
		<time>2026-03-02T15:50:57Z</time>
	</wpt>
	<wpt lat="59.786871458029864" lon="17.736690635608262">
		<ele>66.12416714709252</ele>
		<time>2026-03-02T15:51:35Z</time>
	</wpt>
	<wpt lat="59.7870864099649" lon="17.736835868125443">
		<ele>65.47283897455782</ele>
		<time>2026-03-02T15:52:17Z</time>
	</wpt>
	<wpt lat="59.787308335942484" lon="17.736944637878302">
		<ele>66.08818280883133</ele>
		<time>2026-03-02T15:52:44Z</time>
	</wpt>
	<wpt lat="59.78754555385146" lon="17.73698271476948">
		<ele>62.922392608597875</ele>
		<time>2026-03-02T15:53:11Z</time>
	</wpt>
	<wpt lat="59.78777415727889" lon="17.73692005902565">
		<ele>61.95985112991184</ele>
		<time>2026-03-02T15:53:35Z</time>
	</wpt>
	<wpt lat="59.78800088998868" lon="17.736878493178214">
		<ele>61.368896037340164</ele>
		<time>2026-03-02T15:54:02Z</time>
	</wpt>
	<wpt lat="59.78824395493395" lon="17.736892627618204">
		<ele>61.36315609887242</ele>
		<time>2026-03-02T15:54:31Z</time>
	</wpt>
	<wpt lat="59.78844744051961" lon="17.73709988056376">
		<ele>60.47584275342524</ele>
		<time>2026-03-02T15:55:01Z</time>
	</wpt>
	<wpt lat="59.788673933707415" lon="17.737222756416468">
		<ele>60.435674734413624</ele>
		<time>2026-03-02T15:55:31Z</time>
	</wpt>
	<wpt lat="59.78889964687273" lon="17.73713243427826">
		<ele>58.595307199284434</ele>
		<time>2026-03-02T15:55:55Z</time>
	</wpt>
	<wpt lat="59.789128888708916" lon="17.73708667113971">
		<ele>57.7471923250705</ele>
		<time>2026-03-02T15:57:16Z</time>
	</wpt>
	<wpt lat="59.78933800492047" lon="17.736897445252097">
		<ele>61.43848153017461</ele>
		<time>2026-03-02T15:58:40Z</time>
	</wpt>
	<wpt lat="59.789562984232056" lon="17.73693350098961">
		<ele>61.38624384440482</ele>
		<time>2026-03-02T15:59:31Z</time>
	</wpt>
	<wpt lat="59.789777074921" lon="17.73707141367056">
		<ele>62.067852539010346</ele>
		<time>2026-03-02T16:00:03Z</time>
	</wpt>
	<wpt lat="59.790004077292174" lon="17.737005126224755">
		<ele>61.731550238095224</ele>
		<time>2026-03-02T16:00:25Z</time>
	</wpt>
	<wpt lat="59.79017620994039" lon="17.73730422998608">
		<ele>61.04072459600866</ele>
		<time>2026-03-02T16:01:00Z</time>
	</wpt>
	<wpt lat="59.79025006767899" lon="17.73773145508487">
		<ele>61.89255626872182</ele>
		<time>2026-03-02T16:01:32Z</time>
	</wpt>
	<wpt lat="59.79031159559162" lon="17.73815972504149">
		<ele>63.24259748123586</ele>
		<time>2026-03-02T16:01:58Z</time>
	</wpt>
	<wpt lat="59.79046611448268" lon="17.738495096192075">
		<ele>63.881189085543156</ele>
		<time>2026-03-02T16:02:28Z</time>
	</wpt>
	<wpt lat="59.79067750349882" lon="17.73869211260327">
		<ele>60.86024819500744</ele>
		<time>2026-03-02T16:02:56Z</time>
	</wpt>
	<wpt lat="59.79086422362581" lon="17.738947308928374">
		<ele>58.83067626785487</ele>
		<time>2026-03-02T16:03:24Z</time>
	</wpt>
	<wpt lat="59.79107955875995" lon="17.739082998399763">
		<ele>59.612638499587774</ele>
		<time>2026-03-02T16:04:05Z</time>
	</wpt>
	<wpt lat="59.79130588380703" lon="17.73920445432937">
		<ele>58.64215534646064</ele>
		<time>2026-03-02T16:04:28Z</time>
	</wpt>
	<wpt lat="59.79153554632479" lon="17.739300746577825">
		<ele>59.294633471406996</ele>
		<time>2026-03-02T16:04:53Z</time>
	</wpt>
	<wpt lat="59.79175149806921" lon="17.739469767494555">
		<ele>59.6210745414719</ele>
		<time>2026-03-02T16:05:25Z</time>
	</wpt>
	<wpt lat="59.791974881382465" lon="17.73957983762616">
		<ele>59.70213804766536</ele>
		<time>2026-03-02T16:05:51Z</time>
	</wpt>
	<wpt lat="59.79218765247207" lon="17.73974476263481">
		<ele>58.0108895720914</ele>
		<time>2026-03-02T16:06:14Z</time>
	</wpt>
	<wpt lat="59.792408724316914" lon="17.739862383852337">
		<ele>56.28413423523307</ele>
		<time>2026-03-02T16:06:48Z</time>
	</wpt>
	<wpt lat="59.7926307635881" lon="17.74000368581485">
		<ele>57.864484280347824</ele>
		<time>2026-03-02T16:07:09Z</time>
	</wpt>
	<wpt lat="59.79282433896411" lon="17.740247945939135">
		<ele>53.69813924562186</ele>
		<time>2026-03-02T16:07:35Z</time>
	</wpt>
	<wpt lat="59.792977445538085" lon="17.740574271977284">
		<ele>56.18976297136396</ele>
		<time>2026-03-02T16:08:13Z</time>
	</wpt>
	<wpt lat="59.79320002465817" lon="17.74064765485694">
		<ele>53.02499871421605</ele>
		<time>2026-03-02T16:10:11Z</time>
	</wpt>
	<wpt lat="59.79342312013615" lon="17.740726653025646">
		<ele>52.17842215672135</ele>
		<time>2026-03-02T16:10:41Z</time>
	</wpt>
	<wpt lat="59.79361032976602" lon="17.740991606868473">
		<ele>51.30279461015016</ele>
		<time>2026-03-02T16:12:34Z</time>
	</wpt>
	<wpt lat="59.79370418877367" lon="17.741400627714864">
		<ele>46.31261251028627</ele>
		<time>2026-03-02T16:14:20Z</time>
	</wpt>
	<wpt lat="59.79389841111808" lon="17.74164808820994">
		<ele>48.31241419259459</ele>
		<time>2026-03-02T16:14:46Z</time>
	</wpt>
	<wpt lat="59.79412349654203" lon="17.7418028251611">
		<ele>45.2732807258144</ele>
		<time>2026-03-02T16:15:14Z</time>
	</wpt>
	<wpt lat="59.79432532013447" lon="17.742012671765416">
		<ele>46.05413085781038</ele>
		<time>2026-03-02T16:15:45Z</time>
	</wpt>
	<wpt lat="59.79456004385518" lon="17.74203418845098">
		<ele>46.755108423531055</ele>
		<time>2026-03-02T16:16:11Z</time>
	</wpt>
	<wpt lat="59.79478136337136" lon="17.74216911190144">
		<ele>44.56382011342794</ele>
		<time>2026-03-02T16:16:34Z</time>
	</wpt>
	<wpt lat="59.794955745600724" lon="17.742452754612444">
		<ele>42.362628139555454</ele>
		<time>2026-03-02T16:17:00Z</time>
	</wpt>
	<wpt lat="59.79517617506665" lon="17.7426350622223">
		<ele>40.624736316502094</ele>
		<time>2026-03-02T16:17:25Z</time>
	</wpt>
	<wpt lat="59.79540417452399" lon="17.742738119482496">
		<ele>41.07932982221246</ele>
		<time>2026-03-02T16:17:47Z</time>
	</wpt>
	<wpt lat="59.79562853706635" lon="17.742746705569186">
		<ele>41.175982845947146</ele>
		<time>2026-03-02T16:18:12Z</time>
	</wpt>
	<wpt lat="59.7958514707447" lon="17.742680090746564">
		<ele>38.071213660761714</ele>
		<time>2026-03-02T16:18:38Z</time>
	</wpt>
	<wpt lat="59.7960749424796" lon="17.74262523737076">
		<ele>41.26599375717342</ele>
		<time>2026-03-02T16:19:03Z</time>
	</wpt>
	<wpt lat="59.79630462263872" lon="17.742606751607703">
		<ele>38.07447097543627</ele>
		<time>2026-03-02T16:19:30Z</time>
	</wpt>
	<wpt lat="59.796532632557216" lon="17.742607692352504">
		<ele>40.95190322957933</ele>
		<time>2026-03-02T16:19:59Z</time>
	</wpt>
	<wpt lat="59.79676115917483" lon="17.742625385314252">
		<ele>36.22287635039538</ele>
		<time>2026-03-02T16:20:23Z</time>
	</wpt>
	<wpt lat="59.79699421085985" lon="17.742650812364204">
		<ele>36.031125095672905</ele>
		<time>2026-03-02T16:20:46Z</time>
	</wpt>
	<wpt lat="59.797221393288254" lon="17.742670163345487">
		<ele>36.33887977153063</ele>
		<time>2026-03-02T16:21:11Z</time>
	</wpt>
	<wpt lat="59.797445109948754" lon="17.742708983031378">
		<ele>35.15296257380396</ele>
		<time>2026-03-02T16:21:39Z</time>
	</wpt>
	<wpt lat="59.797676478539195" lon="17.742732028697304">
		<ele>35.82731025479734</ele>
		<time>2026-03-02T16:22:04Z</time>
	</wpt>
	<wpt lat="59.797900709579494" lon="17.742770568613704">
		<ele>34.78304347768426</ele>
		<time>2026-03-02T16:22:28Z</time>
	</wpt>
	<wpt lat="59.797994037237835" lon="17.74320235663749">
		<ele>36.689835391938686</ele>
		<time>2026-03-02T16:23:16Z</time>
	</wpt>
	<wpt lat="59.798069900878225" lon="17.743633502784025">
		<ele>36.5228630611673</ele>
		<time>2026-03-02T16:23:43Z</time>
	</wpt>
	<wpt lat="59.79811478784625" lon="17.74407827642172">
		<ele>30.499918775632977</ele>
		<time>2026-03-02T16:24:12Z</time>
	</wpt>
	<wpt lat="59.79806758297314" lon="17.74422455907999">
		<ele>36.54342202283442</ele>
		<time>2026-03-02T16:25:53Z</time>
	</wpt>
	<trk>
		<trkseg>
			<trkpt lat="59.771119616974445" lon="17.72189076376193">
				<ele>51.075081661343575</ele>
				<time>2026-03-02T15:06:09Z</time>
			</trkpt>
			<trkpt lat="59.771212330392935" lon="17.722310419333898">
				<ele>54.217850285582244</ele>
				<time>2026-03-02T15:08:43Z</time>
			</trkpt>
			<trkpt lat="59.77140325133911" lon="17.7225514398294">
				<ele>53.259731186553836</ele>
				<time>2026-03-02T15:09:10Z</time>
			</trkpt>
			<trkpt lat="59.771631721944956" lon="17.722540433022214">
				<ele>56.4664338901639</ele>
				<time>2026-03-02T15:09:35Z</time>
			</trkpt>
			<trkpt lat="59.77186097264485" lon="17.722569470439144">
				<ele>56.25952813401818</ele>
				<time>2026-03-02T15:09:58Z</time>
			</trkpt>
			<trkpt lat="59.772087693012175" lon="17.722608997861272">
				<ele>53.9747204547748</ele>
				<time>2026-03-02T15:10:31Z</time>
			</trkpt>
			<trkpt lat="59.77230747088686" lon="17.72271981213378">
				<ele>54.62270999047905</ele>
				<time>2026-03-02T15:10:52Z</time>
			</trkpt>
			<trkpt lat="59.772526512745245" lon="17.722834225693692">
				<ele>54.19553207047284</ele>
				<time>2026-03-02T15:11:14Z</time>
			</trkpt>
			<trkpt lat="59.7727566078666" lon="17.722895089506597">
				<ele>55.08619200438261</ele>
				<time>2026-03-02T15:11:36Z</time>
			</trkpt>
			<trkpt lat="59.77298834384101" lon="17.72283349469498">
				<ele>57.694097897037864</ele>
				<time>2026-03-02T15:11:56Z</time>
			</trkpt>
			<trkpt lat="59.77321531306975" lon="17.722902956861798">
				<ele>55.83800901286304</ele>
				<time>2026-03-02T15:12:24Z</time>
			</trkpt>
			<trkpt lat="59.77342361136986" lon="17.722709807232444">
				<ele>55.28452856838703</ele>
				<time>2026-03-02T15:12:49Z</time>
			</trkpt>
			<trkpt lat="59.773648363224304" lon="17.72276862776047">
				<ele>54.18351563997567</ele>
				<time>2026-03-02T15:13:23Z</time>
			</trkpt>
			<trkpt lat="59.77381317705299" lon="17.72308287627211">
				<ele>55.49576878454536</ele>
				<time>2026-03-02T15:13:47Z</time>
			</trkpt>
			<trkpt lat="59.774015430851435" lon="17.723284674752385">
				<ele>57.414286863058805</ele>
				<time>2026-03-02T15:14:11Z</time>
			</trkpt>
			<trkpt lat="59.77420830627712" lon="17.723516578022455">
				<ele>57.28318777307868</ele>
				<time>2026-03-02T15:14:37Z</time>
			</trkpt>
			<trkpt lat="59.77443409050435" lon="17.72360554528694">
				<ele>56.45624072197825</ele>
				<time>2026-03-02T15:15:01Z</time>
			</trkpt>
			<trkpt lat="59.77466700400894" lon="17.723685748892173">
				<ele>57.77783829718828</ele>
				<time>2026-03-02T15:15:24Z</time>
			</trkpt>
			<trkpt lat="59.77489267780837" lon="17.723796587722454">
				<ele>54.85273242741823</ele>
				<time>2026-03-02T15:15:47Z</time>
			</trkpt>
			<trkpt lat="59.77506790498412" lon="17.72408784808666">
				<ele>57.285986276343465</ele>
				<time>2026-03-02T15:16:11Z</time>
			</trkpt>
			<trkpt lat="59.77495616937025" lon="17.724485293094055">
				<ele>58.32505956385285</ele>
				<time>2026-03-02T15:16:48Z</time>
			</trkpt>
			<trkpt lat="59.77495791352334" lon="17.72493551142132">
				<ele>59.72764442767948</ele>
				<time>2026-03-02T15:17:30Z</time>
			</trkpt>
			<trkpt lat="59.77487279194842" lon="17.72535037562518">
				<ele>57.39379312470555</ele>
				<time>2026-03-02T15:17:58Z</time>
			</trkpt>
			<trkpt lat="59.77491444396249" lon="17.72579632317702">
				<ele>55.03455456160009</ele>
				<time>2026-03-02T15:18:27Z</time>
			</trkpt>
			<trkpt lat="59.774974512380844" lon="17.72623977010689">
				<ele>53.3353058649227</ele>
				<time>2026-03-02T15:18:51Z</time>
			</trkpt>
			<trkpt lat="59.775102567821264" lon="17.726622181347803">
				<ele>51.744072349742055</ele>
				<time>2026-03-02T15:19:14Z</time>
			</trkpt>
			<trkpt lat="59.77529685900288" lon="17.72637828551402">
				<ele>53.3308565299958</ele>
				<time>2026-03-02T15:19:39Z</time>
			</trkpt>
			<trkpt lat="59.77549380689757" lon="17.726100890619364">
				<ele>58.4581313515082</ele>
				<time>2026-03-02T15:20:01Z</time>
			</trkpt>
			<trkpt lat="59.77570106319624" lon="17.72628499565822">
				<ele>58.63048042263836</ele>
				<time>2026-03-02T15:20:24Z</time>
			</trkpt>
			<trkpt lat="59.77591220477246" lon="17.72644885988033">
				<ele>59.18540058564395</ele>
				<time>2026-03-02T15:20:50Z</time>
			</trkpt>
			<trkpt lat="59.77613910843845" lon="17.72647747358543">
				<ele>59.33611496351659</ele>
				<time>2026-03-02T15:21:14Z</time>
			</trkpt>
			<trkpt lat="59.776343089947765" lon="17.72666953884099">
				<ele>55.14266558922827</ele>
				<time>2026-03-02T15:21:41Z</time>
			</trkpt>
			<trkpt lat="59.77641655259409" lon="17.72710562794143">
				<ele>57.66473806463182</ele>
				<time>2026-03-02T15:22:07Z</time>
			</trkpt>
			<trkpt lat="59.77642754944599" lon="17.7275559957835">
				<ele>55.117274744436145</ele>
				<time>2026-03-02T15:22:38Z</time>
			</trkpt>
			<trkpt lat="59.77643534585042" lon="17.728001475344843">
				<ele>53.129691595211625</ele>
				<time>2026-03-02T15:23:07Z</time>
			</trkpt>
			<trkpt lat="59.77651596913544" lon="17.728433182606473">
				<ele>52.049996541813016</ele>
				<time>2026-03-02T15:23:32Z</time>
			</trkpt>
			<trkpt lat="59.77671469484424" lon="17.728685957039353">
				<ele>51.80450851842761</ele>
				<time>2026-03-02T15:25:04Z</time>
			</trkpt>
			<trkpt lat="59.776913251676966" lon="17.728900035271227">
				<ele>55.56938209850341</ele>
				<time>2026-03-02T15:26:01Z</time>
			</trkpt>
			<trkpt lat="59.77712514767212" lon="17.728750635811057">
				<ele>53.05308192409575</ele>
				<time>2026-03-02T15:26:35Z</time>
			</trkpt>
			<trkpt lat="59.777284278563826" lon="17.72842703465263">
				<ele>53.6968580307439</ele>
				<time>2026-03-02T15:27:00Z</time>
			</trkpt>
			<trkpt lat="59.777456295537945" lon="17.728125588626266">
				<ele>53.43262928724289</ele>
				<time>2026-03-02T15:27:24Z</time>
			</trkpt>
			<trkpt lat="59.77765014511176" lon="17.727888047579732">
				<ele>55.65292982943356</ele>
				<time>2026-03-02T15:27:52Z</time>
			</trkpt>
			<trkpt lat="59.77783879351192" lon="17.728166615134434">
				<ele>56.114976393058896</ele>
				<time>2026-03-02T15:28:14Z</time>
			</trkpt>
			<trkpt lat="59.778058906858426" lon="17.728054689632906">
				<ele>57.58043345902115</ele>
				<time>2026-03-02T15:28:39Z</time>
			</trkpt>
			<trkpt lat="59.77827243101738" lon="17.727886651903216">
				<ele>58.8977917265147</ele>
				<time>2026-03-02T15:29:03Z</time>
			</trkpt>
			<trkpt lat="59.77848568944525" lon="17.727739470126846">
				<ele>58.83454712014645</ele>
				<time>2026-03-02T15:29:27Z</time>
			</trkpt>
			<trkpt lat="59.77871045900378" lon="17.72759905569713">
				<ele>57.21104596648365</ele>
				<time>2026-03-02T15:29:50Z</time>
			</trkpt>
			<trkpt lat="59.778920673072406" lon="17.727391316848177">
				<ele>57.968201166950166</ele>
				<time>2026-03-02T15:30:16Z</time>
			</trkpt>
			<trkpt lat="59.779126440190105" lon="17.727213246330496">
				<ele>60.40687491558492</ele>
				<time>2026-03-02T15:30:45Z</time>
			</trkpt>
			<trkpt lat="59.779343030059266" lon="17.727072226772485">
				<ele>61.402405825443566</ele>
				<time>2026-03-02T15:31:07Z</time>
			</trkpt>
			<trkpt lat="59.779569286559294" lon="17.727099063061083">
				<ele>59.56779325567186</ele>
				<time>2026-03-02T15:31:29Z</time>
			</trkpt>
			<trkpt lat="59.77978655594759" lon="17.72695301274715">
				<ele>60.187666630372405</ele>
				<time>2026-03-02T15:31:48Z</time>
			</trkpt>
			<trkpt lat="59.780006288094945" lon="17.726811309346548">
				<ele>61.699824751354754</ele>
				<time>2026-03-02T15:32:12Z</time>
			</trkpt>
			<trkpt lat="59.780224722233605" lon="17.726698381072154">
				<ele>58.23727692384273</ele>
				<time>2026-03-02T15:32:37Z</time>
			</trkpt>
			<trkpt lat="59.78044885477768" lon="17.726814135834623">
				<ele>62.23219951335341</ele>
				<time>2026-03-02T15:32:57Z</time>
			</trkpt>
			<trkpt lat="59.78067530094784" lon="17.726846490869853">
				<ele>62.84764618612826</ele>
				<time>2026-03-02T15:33:19Z</time>
			</trkpt>
			<trkpt lat="59.78089129769959" lon="17.726988753003557">
				<ele>65.56554725766182</ele>
				<time>2026-03-02T15:33:43Z</time>
			</trkpt>
			<trkpt lat="59.78095715567158" lon="17.72744395192867">
				<ele>67.41239255480468</ele>
				<time>2026-03-02T15:34:12Z</time>
			</trkpt>
			<trkpt lat="59.78114214555878" lon="17.727710516339165">
				<ele>64.3240460883826</ele>
				<time>2026-03-02T15:34:39Z</time>
			</trkpt>
			<trkpt lat="59.78125773906699" lon="17.72810726479453">
				<ele>64.75882425531745</ele>
				<time>2026-03-02T15:35:05Z</time>
			</trkpt>
			<trkpt lat="59.78137899690656" lon="17.72849089379168">
				<ele>63.30696496646851</ele>
				<time>2026-03-02T15:35:33Z</time>
			</trkpt>
			<trkpt lat="59.78158423328838" lon="17.728695641234864">
				<ele>62.56494574341923</ele>
				<time>2026-03-02T15:35:57Z</time>
			</trkpt>
			<trkpt lat="59.78173547346649" lon="17.72903152320677">
				<ele>63.682486350648105</ele>
				<time>2026-03-02T15:36:21Z</time>
			</trkpt>
			<trkpt lat="59.78195620022707" lon="17.72912864537911">
				<ele>66.46730595361441</ele>
				<time>2026-03-02T15:36:40Z</time>
			</trkpt>
			<trkpt lat="59.78218677593505" lon="17.72918572394781">
				<ele>61.30560659058392</ele>
				<time>2026-03-02T15:37:01Z</time>
			</trkpt>
			<trkpt lat="59.78240056597136" lon="17.72938223413705">
				<ele>63.22047323640436</ele>
				<time>2026-03-02T15:37:27Z</time>
			</trkpt>
			<trkpt lat="59.782603466313525" lon="17.72962140404014">
				<ele>62.11926426831633</ele>
				<time>2026-03-02T15:37:56Z</time>
			</trkpt>
			<trkpt lat="59.78281115509152" lon="17.729840601274365">
				<ele>61.264536692760885</ele>
				<time>2026-03-02T15:38:24Z</time>
			</trkpt>
			<trkpt lat="59.7830180241203" lon="17.730043975806332">
				<ele>60.00281602144241</ele>
				<time>2026-03-02T15:38:50Z</time>
			</trkpt>
			<trkpt lat="59.78317507078053" lon="17.730386691571425">
				<ele>59.548869953490794</ele>
				<time>2026-03-02T15:39:19Z</time>
			</trkpt>
			<trkpt lat="59.78329200169166" lon="17.730799129650862">
				<ele>61.409465262666345</ele>
				<time>2026-03-02T15:39:40Z</time>
			</trkpt>
			<trkpt lat="59.783257745417565" lon="17.73128186757909">
				<ele>61.48240920994431</ele>
				<time>2026-03-02T15:40:26Z</time>
			</trkpt>
			<trkpt lat="59.78336551354941" lon="17.73169666085062">
				<ele>59.4499393729493</ele>
				<time>2026-03-02T15:40:50Z</time>
			</trkpt>
			<trkpt lat="59.7834201050891" lon="17.732130171916527">
				<ele>60.1453388184309</ele>
				<time>2026-03-02T15:41:15Z</time>
			</trkpt>
			<trkpt lat="59.783542021897134" lon="17.73252396128744">
				<ele>57.77125144936144</ele>
				<time>2026-03-02T15:41:39Z</time>
			</trkpt>
			<trkpt lat="59.78372712513548" lon="17.73281404130352">
				<ele>57.91608926933259</ele>
				<time>2026-03-02T15:42:02Z</time>
			</trkpt>
			<trkpt lat="59.783905960829685" lon="17.733106063340188">
				<ele>57.5065143359825</ele>
				<time>2026-03-02T15:42:23Z</time>
			</trkpt>
			<trkpt lat="59.784104959669406" lon="17.733344058746244">
				<ele>59.387385186739266</ele>
				<time>2026-03-02T15:43:59Z</time>
			</trkpt>
			<trkpt lat="59.784269673353826" lon="17.73365390376276">
				<ele>62.12978365458548</ele>
				<time>2026-03-02T15:44:23Z</time>
			</trkpt>
			<trkpt lat="59.78446348870155" lon="17.733900025832884">
				<ele>61.971028921194375</ele>
				<time>2026-03-02T15:44:50Z</time>
			</trkpt>
			<trkpt lat="59.784660230870294" lon="17.734153897631877">
				<ele>58.28314144350588</ele>
				<time>2026-03-02T15:45:46Z</time>
			</trkpt>
			<trkpt lat="59.78484312472197" lon="17.734425698320763">
				<ele>57.54006884153932</ele>
				<time>2026-03-02T15:46:24Z</time>
			</trkpt>
			<trkpt lat="59.785001975773795" lon="17.73475305724229">
				<ele>60.33382245898247</ele>
				<time>2026-03-02T15:46:49Z</time>
			</trkpt>
			<trkpt lat="59.78514671618288" lon="17.735105463908795">
				<ele>59.37128423433751</ele>
				<time>2026-03-02T15:47:13Z</time>
			</trkpt>
			<trkpt lat="59.78527558151131" lon="17.73548410410351">
				<ele>60.574331410229206</ele>
				<time>2026-03-02T15:48:01Z</time>
			</trkpt>
			<trkpt lat="59.78540343655643" lon="17.735853120675475">
				<ele>61.59590496867895</ele>
				<time>2026-03-02T15:48:26Z</time>
			</trkpt>
			<trkpt lat="59.78558859695231" lon="17.736133269670766">
				<ele>61.87334282696247</ele>
				<time>2026-03-02T15:48:49Z</time>
			</trkpt>
			<trkpt lat="59.78577109103179" lon="17.736437826266332">
				<ele>62.87003045901656</ele>
				<time>2026-03-02T15:49:11Z</time>
			</trkpt>
			<trkpt lat="59.78599137348247" lon="17.736571845737593">
				<ele>61.71911193802953</ele>
				<time>2026-03-02T15:49:43Z</time>
			</trkpt>
			<trkpt lat="59.78620786456056" lon="17.73670314516289">
				<ele>60.070027247071266</ele>
				<time>2026-03-02T15:50:10Z</time>
			</trkpt>
			<trkpt lat="59.78643145639818" lon="17.73663020300645">
				<ele>63.57323049288243</ele>
				<time>2026-03-02T15:50:31Z</time>
			</trkpt>
			<trkpt lat="59.78665532472787" lon="17.73656352865421">
				<ele>63.38983776420355</ele>
				<time>2026-03-02T15:50:57Z</time>
			</trkpt>
			<trkpt lat="59.786871458029864" lon="17.736690635608262">
				<ele>66.12416714709252</ele>
				<time>2026-03-02T15:51:35Z</time>
			</trkpt>
			<trkpt lat="59.7870864099649" lon="17.736835868125443">
				<ele>65.47283897455782</ele>
				<time>2026-03-02T15:52:17Z</time>
			</trkpt>
			<trkpt lat="59.787308335942484" lon="17.736944637878302">
				<ele>66.08818280883133</ele>
				<time>2026-03-02T15:52:44Z</time>
			</trkpt>
			<trkpt lat="59.78754555385146" lon="17.73698271476948">
				<ele>62.922392608597875</ele>
				<time>2026-03-02T15:53:11Z</time>
			</trkpt>
			<trkpt lat="59.78777415727889" lon="17.73692005902565">
				<ele>61.95985112991184</ele>
				<time>2026-03-02T15:53:35Z</time>
			</trkpt>
			<trkpt lat="59.78800088998868" lon="17.736878493178214">
				<ele>61.368896037340164</ele>
				<time>2026-03-02T15:54:02Z</time>
			</trkpt>
			<trkpt lat="59.78824395493395" lon="17.736892627618204">
				<ele>61.36315609887242</ele>
				<time>2026-03-02T15:54:31Z</time>
			</trkpt>
			<trkpt lat="59.78844744051961" lon="17.73709988056376">
				<ele>60.47584275342524</ele>
				<time>2026-03-02T15:55:01Z</time>
			</trkpt>
			<trkpt lat="59.788673933707415" lon="17.737222756416468">
				<ele>60.435674734413624</ele>
				<time>2026-03-02T15:55:31Z</time>
			</trkpt>
			<trkpt lat="59.78889964687273" lon="17.73713243427826">
				<ele>58.595307199284434</ele>
				<time>2026-03-02T15:55:55Z</time>
			</trkpt>
			<trkpt lat="59.789128888708916" lon="17.73708667113971">
				<ele>57.7471923250705</ele>
				<time>2026-03-02T15:57:16Z</time>
			</trkpt>
			<trkpt lat="59.78933800492047" lon="17.736897445252097">
				<ele>61.43848153017461</ele>
				<time>2026-03-02T15:58:40Z</time>
			</trkpt>
			<trkpt lat="59.789562984232056" lon="17.73693350098961">
				<ele>61.38624384440482</ele>
				<time>2026-03-02T15:59:31Z</time>
			</trkpt>
			<trkpt lat="59.789777074921" lon="17.73707141367056">
				<ele>62.067852539010346</ele>
				<time>2026-03-02T16:00:03Z</time>
			</trkpt>
			<trkpt lat="59.790004077292174" lon="17.737005126224755">
				<ele>61.731550238095224</ele>
				<time>2026-03-02T16:00:25Z</time>
			</trkpt>
			<trkpt lat="59.79017620994039" lon="17.73730422998608">
				<ele>61.04072459600866</ele>
				<time>2026-03-02T16:01:00Z</time>
			</trkpt>
			<trkpt lat="59.79025006767899" lon="17.73773145508487">
				<ele>61.89255626872182</ele>
				<time>2026-03-02T16:01:32Z</time>
			</trkpt>
			<trkpt lat="59.79031159559162" lon="17.73815972504149">
				<ele>63.24259748123586</ele>
				<time>2026-03-02T16:01:58Z</time>
			</trkpt>
			<trkpt lat="59.79046611448268" lon="17.738495096192075">
				<ele>63.881189085543156</ele>
				<time>2026-03-02T16:02:28Z</time>
			</trkpt>
			<trkpt lat="59.79067750349882" lon="17.73869211260327">
				<ele>60.86024819500744</ele>
				<time>2026-03-02T16:02:56Z</time>
			</trkpt>
			<trkpt lat="59.79086422362581" lon="17.738947308928374">
				<ele>58.83067626785487</ele>
				<time>2026-03-02T16:03:24Z</time>
			</trkpt>
			<trkpt lat="59.79107955875995" lon="17.739082998399763">
				<ele>59.612638499587774</ele>
				<time>2026-03-02T16:04:05Z</time>
			</trkpt>
			<trkpt lat="59.79130588380703" lon="17.73920445432937">
				<ele>58.64215534646064</ele>
				<time>2026-03-02T16:04:28Z</time>
			</trkpt>
			<trkpt lat="59.79153554632479" lon="17.739300746577825">
				<ele>59.294633471406996</ele>
				<time>2026-03-02T16:04:53Z</time>
			</trkpt>
			<trkpt lat="59.79175149806921" lon="17.739469767494555">
				<ele>59.6210745414719</ele>
				<time>2026-03-02T16:05:25Z</time>
			</trkpt>
			<trkpt lat="59.791974881382465" lon="17.73957983762616">
				<ele>59.70213804766536</ele>
				<time>2026-03-02T16:05:51Z</time>
			</trkpt>
			<trkpt lat="59.79218765247207" lon="17.73974476263481">
				<ele>58.0108895720914</ele>
				<time>2026-03-02T16:06:14Z</time>
			</trkpt>
			<trkpt lat="59.792408724316914" lon="17.739862383852337">
				<ele>56.28413423523307</ele>
				<time>2026-03-02T16:06:48Z</time>
			</trkpt>
			<trkpt lat="59.7926307635881" lon="17.74000368581485">
				<ele>57.864484280347824</ele>
				<time>2026-03-02T16:07:09Z</time>
			</trkpt>
			<trkpt lat="59.79282433896411" lon="17.740247945939135">
				<ele>53.69813924562186</ele>
				<time>2026-03-02T16:07:35Z</time>
			</trkpt>
			<trkpt lat="59.792977445538085" lon="17.740574271977284">
				<ele>56.18976297136396</ele>
				<time>2026-03-02T16:08:13Z</time>
			</trkpt>
			<trkpt lat="59.79320002465817" lon="17.74064765485694">
				<ele>53.02499871421605</ele>
				<time>2026-03-02T16:10:11Z</time>
			</trkpt>
			<trkpt lat="59.79342312013615" lon="17.740726653025646">
				<ele>52.17842215672135</ele>
				<time>2026-03-02T16:10:41Z</time>
			</trkpt>
			<trkpt lat="59.79361032976602" lon="17.740991606868473">
				<ele>51.30279461015016</ele>
				<time>2026-03-02T16:12:34Z</time>
			</trkpt>
			<trkpt lat="59.79370418877367" lon="17.741400627714864">
				<ele>46.31261251028627</ele>
				<time>2026-03-02T16:14:20Z</time>
			</trkpt>
			<trkpt lat="59.79389841111808" lon="17.74164808820994">
				<ele>48.31241419259459</ele>
				<time>2026-03-02T16:14:46Z</time>
			</trkpt>
			<trkpt lat="59.79412349654203" lon="17.7418028251611">
				<ele>45.2732807258144</ele>
				<time>2026-03-02T16:15:14Z</time>
			</trkpt>
			<trkpt lat="59.79432532013447" lon="17.742012671765416">
				<ele>46.05413085781038</ele>
				<time>2026-03-02T16:15:45Z</time>
			</trkpt>
			<trkpt lat="59.79456004385518" lon="17.74203418845098">
				<ele>46.755108423531055</ele>
				<time>2026-03-02T16:16:11Z</time>
			</trkpt>
			<trkpt lat="59.79478136337136" lon="17.74216911190144">
				<ele>44.56382011342794</ele>
				<time>2026-03-02T16:16:34Z</time>
			</trkpt>
			<trkpt lat="59.794955745600724" lon="17.742452754612444">
				<ele>42.362628139555454</ele>
				<time>2026-03-02T16:17:00Z</time>
			</trkpt>
			<trkpt lat="59.79517617506665" lon="17.7426350622223">
				<ele>40.624736316502094</ele>
				<time>2026-03-02T16:17:25Z</time>
			</trkpt>
			<trkpt lat="59.79540417452399" lon="17.742738119482496">
				<ele>41.07932982221246</ele>
				<time>2026-03-02T16:17:47Z</time>
			</trkpt>
			<trkpt lat="59.79562853706635" lon="17.742746705569186">
				<ele>41.175982845947146</ele>
				<time>2026-03-02T16:18:12Z</time>
			</trkpt>
			<trkpt lat="59.7958514707447" lon="17.742680090746564">
				<ele>38.071213660761714</ele>
				<time>2026-03-02T16:18:38Z</time>
			</trkpt>
			<trkpt lat="59.7960749424796" lon="17.74262523737076">
				<ele>41.26599375717342</ele>
				<time>2026-03-02T16:19:03Z</time>
			</trkpt>
			<trkpt lat="59.79630462263872" lon="17.742606751607703">
				<ele>38.07447097543627</ele>
				<time>2026-03-02T16:19:30Z</time>
			</trkpt>
			<trkpt lat="59.796532632557216" lon="17.742607692352504">
				<ele>40.95190322957933</ele>
				<time>2026-03-02T16:19:59Z</time>
			</trkpt>
			<trkpt lat="59.79676115917483" lon="17.742625385314252">
				<ele>36.22287635039538</ele>
				<time>2026-03-02T16:20:23Z</time>
			</trkpt>
			<trkpt lat="59.79699421085985" lon="17.742650812364204">
				<ele>36.031125095672905</ele>
				<time>2026-03-02T16:20:46Z</time>
			</trkpt>
			<trkpt lat="59.797221393288254" lon="17.742670163345487">
				<ele>36.33887977153063</ele>
				<time>2026-03-02T16:21:11Z</time>
			</trkpt>
			<trkpt lat="59.797445109948754" lon="17.742708983031378">
				<ele>35.15296257380396</ele>
				<time>2026-03-02T16:21:39Z</time>
			</trkpt>
			<trkpt lat="59.797676478539195" lon="17.742732028697304">
				<ele>35.82731025479734</ele>
				<time>2026-03-02T16:22:04Z</time>
			</trkpt>
			<trkpt lat="59.797900709579494" lon="17.742770568613704">
				<ele>34.78304347768426</ele>
				<time>2026-03-02T16:22:28Z</time>
			</trkpt>
			<trkpt lat="59.797994037237835" lon="17.74320235663749">
				<ele>36.689835391938686</ele>
				<time>2026-03-02T16:23:16Z</time>
			</trkpt>
			<trkpt lat="59.798069900878225" lon="17.743633502784025">
				<ele>36.5228630611673</ele>
				<time>2026-03-02T16:23:43Z</time>
			</trkpt>
			<trkpt lat="59.79811478784625" lon="17.74407827642172">
				<ele>30.499918775632977</ele>
				<time>2026-03-02T16:24:12Z</time>
			</trkpt>
			<trkpt lat="59.79806758297314" lon="17.74422455907999">
				<ele>36.54342202283442</ele>
				<time>2026-03-02T16:25:53Z</time>
			</trkpt>
		</trkseg>
	</trk>
	<extensions>
	</extensions>
</gpx>
