<?xml version="1.0" encoding="UTF-8"?>
<gpx xmlns:xsi="http://www.w3.org/2001/XMLSchema-instance" xmlns="http://www.topografix.com/GPX/1/1" xsi:schemaLocation="http://www.topografix.com/GPX/1/1 http://www.topografix.com/GPX/1/1/gpx.xsd" version="1.1" creator="FootMark for iOS">
	<metadata>
		<link href="https://itunes.apple.com/us/app/footmark-route-recorder/id1451393033">
			<text>Download link</text>
		</link>
		<time>2026-05-01T23:07:28Z</time>
	</metadata>
	<wpt lat="59.84400237450393" lon="17.626062361539923">
		<ele>32.392196733504534</ele>
		<time>2026-03-24T09:38:20Z</time>
	</wpt>
	<wpt lat="59.84379292697755" lon="17.625892877038503">
		<ele>34.948630690574646</ele>
		<time>2026-03-24T09:38:39Z</time>
	</wpt>
	<wpt lat="59.843575622907814" lon="17.62575873055858">
		<ele>37.898575470782816</ele>
		<time>2026-03-24T09:38:55Z</time>
	</wpt>
	<wpt lat="59.843346061801604" lon="17.62576962852772">
		<ele>40.08468376100063</ele>
		<time>2026-03-24T09:39:17Z</time>
	</wpt>
	<wpt lat="59.84316402087776" lon="17.626054156262455">
		<ele>43.35382048692554</ele>
		<time>2026-03-24T09:39:42Z</time>
	</wpt>
	<wpt lat="59.8429722504567" lon="17.626345183511987">
		<ele>45.201672232709825</ele>
		<time>2026-03-24T09:40:07Z</time>
	</wpt>
	<wpt lat="59.842774226081" lon="17.626559333370302">
		<ele>46.07376661337912</ele>
		<time>2026-03-24T09:40:27Z</time>
	</wpt>
	<wpt lat="59.84282228280254" lon="17.627004260428166">
		<ele>44.442475537769496</ele>
		<time>2026-03-24T09:40:44Z</time>
	</wpt>
	<wpt lat="59.84284142542959" lon="17.627462613354634">
		<ele>41.96977079194039</ele>
		<time>2026-03-24T09:41:01Z</time>
	</wpt>
	<wpt lat="59.843050111509015" lon="17.627627959731573">
		<ele>39.918329370208085</ele>
		<time>2026-03-24T09:41:20Z</time>
	</wpt>
	<wpt lat="59.8432804096402" lon="17.6274605711707">
		<ele>36.81144742574543</ele>
		<time>2026-03-24T09:41:40Z</time>
	</wpt>
	<wpt lat="59.84335083590617" lon="17.627029136399358">
		<ele>35.91550755966455</ele>
		<time>2026-03-24T09:41:58Z</time>
	</wpt>
	<wpt lat="59.84319373890641" lon="17.626678429901553">
		<ele>39.79368697386235</ele>
		<time>2026-03-24T09:42:38Z</time>
	</wpt>
	<wpt lat="59.842969995769884" lon="17.62671524021039">
		<ele>42.051914057694376</ele>
		<time>2026-03-24T09:43:06Z</time>
	</wpt>
	<wpt lat="59.84275596947153" lon="17.626880864620187">
		<ele>43.16253495682031</ele>
		<time>2026-03-24T09:43:32Z</time>
	</wpt>
	<wpt lat="59.84259272247787" lon="17.62657162888326">
		<ele>48.51116299349815</ele>
		<time>2026-03-24T09:43:58Z</time>
	</wpt>
	<wpt lat="59.842393129121795" lon="17.62633710258517">
		<ele>51.865063013508916</ele>
		<time>2026-03-24T09:44:19Z</time>
	</wpt>
	<wpt lat="59.842171304230696" lon="17.626251586139233">
		<ele>51.17791244760156</ele>
		<time>2026-03-24T09:44:47Z</time>
	</wpt>
	<wpt lat="59.84194645756796" lon="17.626290486420793">
		<ele>50.57828463986516</ele>
		<time>2026-03-24T09:45:07Z</time>
	</wpt>
	<wpt lat="59.84172243176973" lon="17.626377407639957">
		<ele>51.33639874495566</ele>
		<time>2026-03-24T09:45:29Z</time>
	</wpt>
	<wpt lat="59.84149709700643" lon="17.62645840900477">
		<ele>53.09439140371978</ele>
		<time>2026-03-24T09:45:49Z</time>
	</wpt>
	<wpt lat="59.84126132916365" lon="17.626368453567473">
		<ele>53.968775673769414</ele>
		<time>2026-03-24T09:46:13Z</time>
	</wpt>
	<wpt lat="59.84103754964802" lon="17.626249388536127">
		<ele>54.746263545006514</ele>
		<time>2026-03-24T09:46:35Z</time>
	</wpt>
	<wpt lat="59.840834929720366" lon="17.62605652463803">
		<ele>55.18436417076737</ele>
		<time>2026-03-24T09:46:57Z</time>
	</wpt>
	<wpt lat="59.840630341599756" lon="17.625835996889425">
		<ele>55.16802243795246</ele>
		<time>2026-03-24T09:47:17Z</time>
	</wpt>
	<wpt lat="59.840457283316454" lon="17.62554674877841">
		<ele>56.083392328582704</ele>
		<time>2026-03-24T09:47:37Z</time>
	</wpt>
	<wpt lat="59.84041206908004" lon="17.625096978424857">
		<ele>58.43598301149905</ele>
		<time>2026-03-24T09:47:58Z</time>
	</wpt>
	<wpt lat="59.84028265543418" lon="17.624718319307043">
		<ele>58.97316160891205</ele>
		<time>2026-03-24T09:48:19Z</time>
	</wpt>
	<wpt lat="59.84013069465015" lon="17.624379479074367">
		<ele>58.40707749128342</ele>
		<time>2026-03-24T09:48:41Z</time>
	</wpt>
	<wpt lat="59.83995315475136" lon="17.624080012800434">
		<ele>58.14601331111044</ele>
		<time>2026-03-24T09:49:03Z</time>
	</wpt>
	<wpt lat="59.83975166850169" lon="17.6238725306777">
		<ele>57.10142037831247</ele>
		<time>2026-03-24T09:49:24Z</time>
	</wpt>
	<wpt lat="59.83952290612032" lon="17.62375446968675">
		<ele>57.25218689907342</ele>
		<time>2026-03-24T09:49:43Z</time>
	</wpt>
	<wpt lat="59.839319487102394" lon="17.623541057840036">
		<ele>56.489742814563215</ele>
		<time>2026-03-24T09:50:03Z</time>
	</wpt>
	<wpt lat="59.839195105701805" lon="17.623166425388202">
		<ele>54.925326554104686</ele>
		<time>2026-03-24T09:50:22Z</time>
	</wpt>
	<wpt lat="59.839011606317854" lon="17.622888271710945">
		<ele>53.98442481458187</ele>
		<time>2026-03-24T09:50:54Z</time>
	</wpt>
	<wpt lat="59.838996943316964" lon="17.622428130813418">
		<ele>53.9521060725674</ele>
		<time>2026-03-24T09:51:14Z</time>
	</wpt>
	<wpt lat="59.83898403958313" lon="17.62197906543171">
		<ele>55.134937345050275</ele>
		<time>2026-03-24T09:52:01Z</time>
	</wpt>
	<wpt lat="59.83889311691701" lon="17.621560058768214">
		<ele>55.42037909664214</ele>
		<time>2026-03-24T09:52:25Z</time>
	</wpt>
	<wpt lat="59.83877749167072" lon="17.621157368390758">
		<ele>56.25839032884687</ele>
		<time>2026-03-24T09:52:44Z</time>
	</wpt>
	<wpt lat="59.83866601248786" lon="17.620764545016602">
		<ele>55.88611051160842</ele>
		<time>2026-03-24T09:53:08Z</time>
	</wpt>
	<wpt lat="59.83889979916042" lon="17.62078785828875">
		<ele>55.81184749118984</ele>
		<time>2026-03-24T09:53:27Z</time>
	</wpt>
	<wpt lat="59.839105750633735" lon="17.620981468230674">
		<ele>56.63803810812533</ele>
		<time>2026-03-24T09:54:05Z</time>
	</wpt>
	<wpt lat="59.83931800390224" lon="17.62114302125239">
		<ele>55.18056280724704</ele>
		<time>2026-03-24T09:54:25Z</time>
	</wpt>
	<wpt lat="59.83948437547425" lon="17.621447857327443">
		<ele>56.38974965643138</ele>
		<time>2026-03-24T09:54:45Z</time>
	</wpt>
	<wpt lat="59.83958845994401" lon="17.621849164657846">
		<ele>57.02660165820271</ele>
		<time>2026-03-24T09:55:03Z</time>
	</wpt>
	<wpt lat="59.83965166260507" lon="17.622280149076786">
		<ele>58.05208025313914</ele>
		<time>2026-03-24T09:55:22Z</time>
	</wpt>
	<wpt lat="59.8397528060586" lon="17.62269515625111">
		<ele>56.3394544897601</ele>
		<time>2026-03-24T09:55:42Z</time>
	</wpt>
	<wpt lat="59.839866612340806" lon="17.623100701168088">
		<ele>57.07854534499347</ele>
		<time>2026-03-24T09:56:03Z</time>
	</wpt>
	<wpt lat="59.840022027505896" lon="17.6234277660849">
		<ele>55.48744083940983</ele>
		<time>2026-03-24T09:56:27Z</time>
	</wpt>
	<wpt lat="59.84021109175029" lon="17.623695800231367">
		<ele>57.01592807285488</ele>
		<time>2026-03-24T09:56:47Z</time>
	</wpt>
	<wpt lat="59.84040745161009" lon="17.62393950056491">
		<ele>57.0780362682417</ele>
		<time>2026-03-24T09:57:04Z</time>
	</wpt>
	<wpt lat="59.84044564205147" lon="17.624389489744267">
		<ele>57.894813653081656</ele>
		<time>2026-03-24T09:57:33Z</time>
	</wpt>
	<wpt lat="59.840473200996314" lon="17.62483572514277">
		<ele>57.58660260029137</ele>
		<time>2026-03-24T09:57:53Z</time>
	</wpt>
	<wpt lat="59.840502890950404" lon="17.62528280405817">
		<ele>53.78251457121223</ele>
		<time>2026-03-24T09:58:13Z</time>
	</wpt>
	<wpt lat="59.840689974122945" lon="17.625562447494612">
		<ele>52.76389804948121</ele>
		<time>2026-03-24T09:58:34Z</time>
	</wpt>
	<wpt lat="59.84088638733637" lon="17.62578348510658">
		<ele>53.70359843596816</ele>
		<time>2026-03-24T09:58:52Z</time>
	</wpt>
	<wpt lat="59.84111479240699" lon="17.625782866888635">
		<ele>54.88180928956717</ele>
		<time>2026-03-24T09:59:14Z</time>
	</wpt>
	<wpt lat="59.84135237946261" lon="17.62563928110045">
		<ele>56.37665550969541</ele>
		<time>2026-03-24T09:59:36Z</time>
	</wpt>
	<wpt lat="59.841576893729226" lon="17.625687325237315">
		<ele>54.95144518651068</ele>
		<time>2026-03-24T09:59:54Z</time>
	</wpt>
	<wpt lat="59.84180970641692" lon="17.625698026157732">
		<ele>53.58847302570939</ele>
		<time>2026-03-24T10:00:13Z</time>
	</wpt>
	<wpt lat="59.842044626499984" lon="17.625661603710974">
		<ele>52.63147822674364</ele>
		<time>2026-03-24T10:00:34Z</time>
	</wpt>
	<wpt lat="59.84226550742939" lon="17.62557392569984">
		<ele>52.06493226904422</ele>
		<time>2026-03-24T10:00:51Z</time>
	</wpt>
	<wpt lat="59.84248998334344" lon="17.62568428745988">
		<ele>50.19894009176642</ele>
		<time>2026-03-24T10:01:11Z</time>
	</wpt>
	<wpt lat="59.84271073584805" lon="17.625810750265742">
		<ele>47.87585180904716</ele>
		<time>2026-03-24T10:01:30Z</time>
	</wpt>
	<wpt lat="59.84284761700311" lon="17.626179780940575">
		<ele>44.391554679721594</ele>
		<time>2026-03-24T10:01:50Z</time>
	</wpt>
	<wpt lat="59.842963654388456" lon="17.626574425870025">
		<ele>43.31133019737899</ele>
		<time>2026-03-24T10:02:07Z</time>
	</wpt>
	<wpt lat="59.8430846139428" lon="17.626951639071002">
		<ele>40.396789661608636</ele>
		<time>2026-03-24T10:02:31Z</time>
	</wpt>
	<wpt lat="59.84319179591209" lon="17.627346143865683">
		<ele>37.83765969518572</ele>
		<time>2026-03-24T10:02:50Z</time>
	</wpt>
	<wpt lat="59.84334766050231" lon="17.627012210743775">
		<ele>36.30292142368853</ele>
		<time>2026-03-24T10:03:20Z</time>
	</wpt>
	<wpt lat="59.84354642842327" lon="17.62725902764671">
		<ele>35.62333333212882</ele>
		<time>2026-03-24T10:06:08Z</time>
	</wpt>
	<wpt lat="59.84370778927867" lon="17.6275908059476">
		<ele>33.80415922123939</ele>
		<time>2026-03-24T10:06:15Z</time>
	</wpt>
	<wpt lat="59.84388427283434" lon="17.627932547205027">
		<ele>32.48731858935207</ele>
		<time>2026-03-24T10:06:20Z</time>
	</wpt>
	<wpt lat="59.844068997119955" lon="17.628306677172578">
		<ele>31.42716441489756</ele>
		<time>2026-03-24T10:06:25Z</time>
	</wpt>
	<wpt lat="59.84423278887496" lon="17.628758163374187">
		<ele>30.167159283533692</ele>
		<time>2026-03-24T10:06:30Z</time>
	</wpt>
	<wpt lat="59.844367811154804" lon="17.629137065050163">
		<ele>29.319865407422185</ele>
		<time>2026-03-24T10:06:34Z</time>
	</wpt>
	<wpt lat="59.844501284899856" lon="17.62951353034773">
		<ele>29.07370681501925</ele>
		<time>2026-03-24T10:06:38Z</time>
	</wpt>
	<wpt lat="59.84465064779474" lon="17.629962043511668">
		<ele>28.772357133217156</ele>
		<time>2026-03-24T10:06:43Z</time>
	</wpt>
	<wpt lat="59.84479926318109" lon="17.630383093027373">
		<ele>28.02291969023645</ele>
		<time>2026-03-24T10:06:48Z</time>
	</wpt>
	<wpt lat="59.84493983682252" lon="17.630746222285502">
		<ele>28.126167133450508</ele>
		<time>2026-03-24T10:06:53Z</time>
	</wpt>
	<wpt lat="59.84508613554308" lon="17.631104627528117">
		<ele>27.74685784894973</ele>
		<time>2026-03-24T10:06:58Z</time>
	</wpt>
	<wpt lat="59.84520803293281" lon="17.631495058434204">
		<ele>27.573827031999826</ele>
		<time>2026-03-24T10:07:06Z</time>
	</wpt>
	<wpt lat="59.845425734444625" lon="17.63137826261316">
		<ele>27.47917847521603</ele>
		<time>2026-03-24T10:07:16Z</time>
	</wpt>
	<wpt lat="59.84564597926518" lon="17.631048727618257">
		<ele>27.556769631803036</ele>
		<time>2026-03-24T10:07:21Z</time>
	</wpt>
	<wpt lat="59.84583805597874" lon="17.63075896114625">
		<ele>27.527679587714374</ele>
		<time>2026-03-24T10:07:26Z</time>
	</wpt>
	<wpt lat="59.84605817367732" lon="17.63062410803208">
		<ele>27.063310757279396</ele>
		<time>2026-03-24T10:07:40Z</time>
	</wpt>
	<wpt lat="59.84630706201093" lon="17.63039253070877">
		<ele>26.69585407525301</ele>
		<time>2026-03-24T10:07:46Z</time>
	</wpt>
	<wpt lat="59.84653398217214" lon="17.630219070106033">
		<ele>26.35598498955369</ele>
		<time>2026-03-24T10:07:50Z</time>
	</wpt>
	<wpt lat="59.84677692937709" lon="17.630029635602206">
		<ele>26.085507832467556</ele>
		<time>2026-03-24T10:07:55Z</time>
	</wpt>
	<wpt lat="59.84702028922219" lon="17.629853710695347">
		<ele>25.641003548167646</ele>
		<time>2026-03-24T10:08:00Z</time>
	</wpt>
	<wpt lat="59.847234357388785" lon="17.629681189682316">
		<ele>25.302878267131746</ele>
		<time>2026-03-24T10:08:04Z</time>
	</wpt>
	<wpt lat="59.84744273176435" lon="17.62950578039506">
		<ele>25.274916561320424</ele>
		<time>2026-03-24T10:08:08Z</time>
	</wpt>
	<wpt lat="59.847656414162756" lon="17.62932233028918">
		<ele>25.299393139779568</ele>
		<time>2026-03-24T10:08:12Z</time>
	</wpt>
	<wpt lat="59.84786244512446" lon="17.62914152310088">
		<ele>25.420675325207412</ele>
		<time>2026-03-24T10:08:16Z</time>
	</wpt>
	<wpt lat="59.84808731305899" lon="17.628930128905413">
		<ele>25.650757264345884</ele>
		<time>2026-03-24T10:08:20Z</time>
	</wpt>
	<wpt lat="59.848342382164624" lon="17.628706758906">
		<ele>25.880381666123867</ele>
		<time>2026-03-24T10:08:24Z</time>
	</wpt>
	<wpt lat="59.84861232977597" lon="17.62847500396138">
		<ele>26.3522219248116</ele>
		<time>2026-03-24T10:08:28Z</time>
	</wpt>
	<wpt lat="59.848867042988076" lon="17.628242257794092">
		<ele>26.6163282180205</ele>
		<time>2026-03-24T10:08:32Z</time>
	</wpt>
	<wpt lat="59.84910863130496" lon="17.628017177615053">
		<ele>26.679894702509046</ele>
		<time>2026-03-24T10:08:36Z</time>
	</wpt>
	<wpt lat="59.84931476790689" lon="17.62783663088728">
		<ele>26.706129740923643</ele>
		<time>2026-03-24T10:08:39Z</time>
	</wpt>
	<wpt lat="59.849584027190744" lon="17.627593363007794">
		<ele>26.663994319736958</ele>
		<time>2026-03-24T10:08:43Z</time>
	</wpt>
	<wpt lat="59.849848903153" lon="17.62735268821832">
		<ele>26.622273669578135</ele>
		<time>2026-03-24T10:08:47Z</time>
	</wpt>
	<wpt lat="59.850106417060324" lon="17.627120282921457">
		<ele>26.56670726556331</ele>
		<time>2026-03-24T10:08:51Z</time>
	</wpt>
	<wpt lat="59.85037815283042" lon="17.626865842777377">
		<ele>26.932676527649164</ele>
		<time>2026-03-24T10:08:55Z</time>
	</wpt>
	<wpt lat="59.850589270534414" lon="17.62668037188359">
		<ele>26.978801547549665</ele>
		<time>2026-03-24T10:08:58Z</time>
	</wpt>
	<wpt lat="59.8508071584368" lon="17.626483400444283">
		<ele>26.91990095656365</ele>
		<time>2026-03-24T10:09:02Z</time>
	</wpt>
	<wpt lat="59.851023996794915" lon="17.626769215072873">
		<ele>26.0122250886634</ele>
		<time>2026-03-24T10:09:18Z</time>
	</wpt>
	<wpt lat="59.8511177449833" lon="17.62723802998102">
		<ele>25.384017176926136</ele>
		<time>2026-03-24T10:09:22Z</time>
	</wpt>
	<wpt lat="59.85122518503999" lon="17.627765687797186">
		<ele>24.785617015324533</ele>
		<time>2026-03-24T10:09:26Z</time>
	</wpt>
	<wpt lat="59.85131934654627" lon="17.62820518864756">
		<ele>24.528886180371046</ele>
		<time>2026-03-24T10:09:29Z</time>
	</wpt>
	<wpt lat="59.85141368498738" lon="17.628649445308653">
		<ele>24.650714779272676</ele>
		<time>2026-03-24T10:09:32Z</time>
	</wpt>
	<wpt lat="59.851504908452355" lon="17.629089236202688">
		<ele>24.78486759122461</ele>
		<time>2026-03-24T10:09:35Z</time>
	</wpt>
	<wpt lat="59.85159296061245" lon="17.629526847372233">
		<ele>24.77229904383421</ele>
		<time>2026-03-24T10:09:38Z</time>
	</wpt>
	<wpt lat="59.851703147338505" lon="17.630070150564936">
		<ele>25.417327805422246</ele>
		<time>2026-03-24T10:09:42Z</time>
	</wpt>
	<wpt lat="59.85179962484594" lon="17.630539148009255">
		<ele>25.86456022132188</ele>
		<time>2026-03-24T10:09:46Z</time>
	</wpt>
	<wpt lat="59.851903692347506" lon="17.63105621873746">
		<ele>26.169323854148388</ele>
		<time>2026-03-24T10:09:50Z</time>
	</wpt>
	<wpt lat="59.85199991886293" lon="17.631482991501432">
		<ele>26.484724823385477</ele>
		<time>2026-03-24T10:09:53Z</time>
	</wpt>
	<wpt lat="59.85208938804517" lon="17.631904667686094">
		<ele>27.05356978159398</ele>
		<time>2026-03-24T10:09:56Z</time>
	</wpt>
	<wpt lat="59.852192973912466" lon="17.632442390558033">
		<ele>28.143128154799342</ele>
		<time>2026-03-24T10:10:00Z</time>
	</wpt>
	<wpt lat="59.85228058799806" lon="17.632901620684493">
		<ele>29.208670914173126</ele>
		<time>2026-03-24T10:10:04Z</time>
	</wpt>
	<wpt lat="59.852363093859246" lon="17.63335748653921">
		<ele>31.57395704742521</ele>
		<time>2026-03-24T10:10:17Z</time>
	</wpt>
	<wpt lat="59.85254178181027" lon="17.63368824616601">
		<ele>32.09395077638328</ele>
		<time>2026-03-24T10:10:23Z</time>
	</wpt>
	<wpt lat="59.852810513971846" lon="17.63347985919228">
		<ele>32.61769074574113</ele>
		<time>2026-03-24T10:10:27Z</time>
	</wpt>
	<wpt lat="59.853074172774384" lon="17.63326904343094">
		<ele>32.84779029339552</ele>
		<time>2026-03-24T10:10:30Z</time>
	</wpt>
	<wpt lat="59.85333799609509" lon="17.63305955825128">
		<ele>32.220136064104736</ele>
		<time>2026-03-24T10:10:33Z</time>
	</wpt>
	<wpt lat="59.8535954830512" lon="17.632862381214164">
		<ele>31.854000739753246</ele>
		<time>2026-03-24T10:10:36Z</time>
	</wpt>
	<wpt lat="59.85385721431915" lon="17.632703107356555">
		<ele>31.375301161780953</ele>
		<time>2026-03-24T10:10:39Z</time>
	</wpt>
	<wpt lat="59.854131117081934" lon="17.632625775410723">
		<ele>30.71834728308022</ele>
		<time>2026-03-24T10:10:42Z</time>
	</wpt>
	<wpt lat="59.854409403060444" lon="17.632560251918978">
		<ele>29.758693332783878</ele>
		<time>2026-03-24T10:10:45Z</time>
	</wpt>
	<wpt lat="59.854690752122366" lon="17.632456624403986">
		<ele>28.6396081186831</ele>
		<time>2026-03-24T10:10:48Z</time>
	</wpt>
	<wpt lat="59.85494265044311" lon="17.63235143151396">
		<ele>27.93796165380627</ele>
		<time>2026-03-24T10:10:52Z</time>
	</wpt>
	<wpt lat="59.85521220673238" lon="17.632247519479744">
		<ele>27.37955655530095</ele>
		<time>2026-03-24T10:11:05Z</time>
	</wpt>
	<wpt lat="59.85545564060129" lon="17.63206561491847">
		<ele>26.34244563896209</ele>
		<time>2026-03-24T10:11:09Z</time>
	</wpt>
	<wpt lat="59.85562943014372" lon="17.631768626661263">
		<ele>26.95548990741372</ele>
		<time>2026-03-24T10:11:12Z</time>
	</wpt>
	<wpt lat="59.85584840538501" lon="17.6313864822697">
		<ele>27.117209662683308</ele>
		<time>2026-03-24T10:11:16Z</time>
	</wpt>
	<wpt lat="59.856067734495056" lon="17.630996651094573">
		<ele>27.459253277629614</ele>
		<time>2026-03-24T10:11:20Z</time>
	</wpt>
	<wpt lat="59.85628531133358" lon="17.630605424934448">
		<ele>27.27139506675303</ele>
		<time>2026-03-24T10:11:24Z</time>
	</wpt>
	<wpt lat="59.85649315254802" lon="17.63024772895343">
		<ele>26.830489998683333</ele>
		<time>2026-03-24T10:11:28Z</time>
	</wpt>
	<wpt lat="59.856694744644145" lon="17.62990528594644">
		<ele>26.70054691284895</ele>
		<time>2026-03-24T10:11:32Z</time>
	</wpt>
	<wpt lat="59.85690276072205" lon="17.62953777077427">
		<ele>26.695814756676555</ele>
		<time>2026-03-24T10:11:37Z</time>
	</wpt>
	<wpt lat="59.85710227048476" lon="17.629198621090694">
		<ele>26.206304410472512</ele>
		<time>2026-03-24T10:11:41Z</time>
	</wpt>
	<wpt lat="59.857300443969265" lon="17.628861464973212">
		<ele>25.99321326892823</ele>
		<time>2026-03-24T10:11:45Z</time>
	</wpt>
	<wpt lat="59.857476082713056" lon="17.62855810137465">
		<ele>25.754649800248444</ele>
		<time>2026-03-24T10:11:49Z</time>
	</wpt>
	<wpt lat="59.85765567547672" lon="17.628223610493222">
		<ele>25.106698253192008</ele>
		<time>2026-03-24T10:11:58Z</time>
	</wpt>
	<wpt lat="59.85754167998212" lon="17.6277989180742">
		<ele>24.899004677310586</ele>
		<time>2026-03-24T10:12:04Z</time>
	</wpt>
	<wpt lat="59.857386807369025" lon="17.62744224217116">
		<ele>25.07517487090081</ele>
		<time>2026-03-24T10:12:08Z</time>
	</wpt>
	<wpt lat="59.857226653097165" lon="17.627087080337187">
		<ele>25.503323908895254</ele>
		<time>2026-03-24T10:12:12Z</time>
	</wpt>
	<wpt lat="59.857105376388986" lon="17.626687896306485">
		<ele>25.016235682182014</ele>
		<time>2026-03-24T10:12:18Z</time>
	</wpt>
	<wpt lat="59.857310930966385" lon="17.626328034404395">
		<ele>23.660105112940073</ele>
		<time>2026-03-24T10:12:23Z</time>
	</wpt>
	<wpt lat="59.857510713622155" lon="17.625965529121068">
		<ele>23.08840831462294</ele>
		<time>2026-03-24T10:12:27Z</time>
	</wpt>
	<wpt lat="59.85769234059722" lon="17.62556590352565">
		<ele>22.605795281007886</ele>
		<time>2026-03-24T10:12:32Z</time>
	</wpt>
	<wpt lat="59.85785570282274" lon="17.62522278874884">
		<ele>22.413739778101444</ele>
		<time>2026-03-24T10:12:37Z</time>
	</wpt>
	<wpt lat="59.85802793788787" lon="17.62483784960078">
		<ele>22.11478268261999</ele>
		<time>2026-03-24T10:12:41Z</time>
	</wpt>
	<wpt lat="59.858221236567175" lon="17.624451210990866">
		<ele>21.079023206606507</ele>
		<time>2026-03-24T10:12:45Z</time>
	</wpt>
	<wpt lat="59.85840182675625" lon="17.62411236126787">
		<ele>19.628623127937317</ele>
		<time>2026-03-24T10:12:50Z</time>
	</wpt>
	<wpt lat="59.858625629229294" lon="17.62427308202184">
		<ele>18.48408546857536</ele>
		<time>2026-03-24T10:12:57Z</time>
	</wpt>
	<wpt lat="59.85879942855961" lon="17.624642954291158">
		<ele>18.29030134808272</ele>
		<time>2026-03-24T10:13:01Z</time>
	</wpt>
	<wpt lat="59.8589901420759" lon="17.62508533729052">
		<ele>17.656216459348798</ele>
		<time>2026-03-24T10:13:05Z</time>
	</wpt>
	<wpt lat="59.859148891511026" lon="17.625437814799426">
		<ele>18.05630440544337</ele>
		<time>2026-03-24T10:13:18Z</time>
	</wpt>
	<wpt lat="59.859309988313434" lon="17.625809469513037">
		<ele>16.99706090334803</ele>
		<time>2026-03-24T10:13:23Z</time>
	</wpt>
	<wpt lat="59.859484533756664" lon="17.626203603464678">
		<ele>15.863733805716038</ele>
		<time>2026-03-24T10:13:27Z</time>
	</wpt>
	<wpt lat="59.85964726180629" lon="17.62656901689806">
		<ele>15.317589345388114</ele>
		<time>2026-03-24T10:13:31Z</time>
	</wpt>
	<wpt lat="59.859834520963936" lon="17.626971586800263">
		<ele>14.637291468679905</ele>
		<time>2026-03-24T10:13:36Z</time>
	</wpt>
	<wpt lat="59.85999991843515" lon="17.62734378648682">
		<ele>14.515255763195455</ele>
		<time>2026-03-24T10:13:40Z</time>
	</wpt>
	<wpt lat="59.860166180556995" lon="17.62766243855515">
		<ele>14.244706392288208</ele>
		<time>2026-03-24T10:13:44Z</time>
	</wpt>
	<wpt lat="59.86033328689426" lon="17.62800160754848">
		<ele>13.765914192423224</ele>
		<time>2026-03-24T10:13:50Z</time>
	</wpt>
	<wpt lat="59.86049414975306" lon="17.62834800605721">
		<ele>13.24342573992908</ele>
		<time>2026-03-24T10:14:09Z</time>
	</wpt>
	<wpt lat="59.860676900858216" lon="17.628729728053894">
		<ele>12.868490843102336</ele>
		<time>2026-03-24T10:14:16Z</time>
	</wpt>
	<wpt lat="59.86084048565196" lon="17.629082133409558">
		<ele>12.679818359203637</ele>
		<time>2026-03-24T10:14:21Z</time>
	</wpt>
	<wpt lat="59.86100396331538" lon="17.629457979924453">
		<ele>12.466507765464485</ele>
		<time>2026-03-24T10:14:26Z</time>
	</wpt>
	<wpt lat="59.86117567193447" lon="17.629845047363684">
		<ele>12.944666896015406</ele>
		<time>2026-03-24T10:14:31Z</time>
	</wpt>
	<wpt lat="59.86133984312143" lon="17.63019444320821">
		<ele>12.68051961902529</ele>
		<time>2026-03-24T10:14:35Z</time>
	</wpt>
	<wpt lat="59.8615178731551" lon="17.63056008578949">
		<ele>11.93110085092485</ele>
		<time>2026-03-24T10:14:39Z</time>
	</wpt>
	<wpt lat="59.861678133224245" lon="17.630873723481034">
		<ele>11.36943616438657</ele>
		<time>2026-03-24T10:14:44Z</time>
	</wpt>
	<wpt lat="59.8618277995221" lon="17.63128929229754">
		<ele>14.174175742082298</ele>
		<time>2026-03-24T10:15:05Z</time>
	</wpt>
	<wpt lat="59.86198320069438" lon="17.63162354484558">
		<ele>12.820927689783275</ele>
		<time>2026-03-24T10:15:10Z</time>
	</wpt>
	<wpt lat="59.86213548944874" lon="17.63195648144148">
		<ele>11.803361386060715</ele>
		<time>2026-03-24T10:15:16Z</time>
	</wpt>
	<wpt lat="59.86229438719739" lon="17.632328130975516">
		<ele>10.021112065762281</ele>
		<time>2026-03-24T10:15:31Z</time>
	</wpt>
	<wpt lat="59.862471627861" lon="17.632662335857784">
		<ele>11.735610954463482</ele>
		<time>2026-03-24T10:15:37Z</time>
	</wpt>
	<wpt lat="59.862631757865124" lon="17.633047522079636">
		<ele>11.977204005233943</ele>
		<time>2026-03-24T10:15:42Z</time>
	</wpt>
	<wpt lat="59.862797343343814" lon="17.633417363967066">
		<ele>11.315715610980988</ele>
		<time>2026-03-24T10:15:46Z</time>
	</wpt>
	<wpt lat="59.862958045240994" lon="17.63378282018408">
		<ele>10.940468947403133</ele>
		<time>2026-03-24T10:15:50Z</time>
	</wpt>
	<wpt lat="59.86313515500031" lon="17.634159067941493">
		<ele>11.262870382517576</ele>
		<time>2026-03-24T10:15:54Z</time>
	</wpt>
	<wpt lat="59.863297095389406" lon="17.63448880908049">
		<ele>11.656866984441876</ele>
		<time>2026-03-24T10:15:58Z</time>
	</wpt>
	<wpt lat="59.8634479784864" lon="17.634864244208195">
		<ele>12.354712037369609</ele>
		<time>2026-03-24T10:16:24Z</time>
	</wpt>
	<wpt lat="59.863655162536425" lon="17.634685882416075">
		<ele>11.44543468952179</ele>
		<time>2026-03-24T10:16:31Z</time>
	</wpt>
	<wpt lat="59.8638470109048" lon="17.634367948575186">
		<ele>10.770504987798631</ele>
		<time>2026-03-24T10:16:38Z</time>
	</wpt>
	<wpt lat="59.86403541171378" lon="17.63401067853151">
		<ele>10.721482354216278</ele>
		<time>2026-03-24T10:16:44Z</time>
	</wpt>
	<wpt lat="59.86422989115867" lon="17.633674120856263">
		<ele>10.301915347576141</ele>
		<time>2026-03-24T10:16:49Z</time>
	</wpt>
	<wpt lat="59.86442297267838" lon="17.633328602354833">
		<ele>10.004410408437252</ele>
		<time>2026-03-24T10:16:54Z</time>
	</wpt>
	<wpt lat="59.864635696658" lon="17.633020660748734">
		<ele>9.47556905914098</ele>
		<time>2026-03-24T10:17:00Z</time>
	</wpt>
	<wpt lat="59.86490384130124" lon="17.633036852955083">
		<ele>8.965263028629124</ele>
		<time>2026-03-24T10:17:08Z</time>
	</wpt>
	<wpt lat="59.86500605760803" lon="17.6334976120304">
		<ele>7.980472137220204</ele>
		<time>2026-03-24T10:17:11Z</time>
	</wpt>
	<wpt lat="59.86508674145668" lon="17.634027092002675">
		<ele>7.04026641882956</ele>
		<time>2026-03-24T10:17:14Z</time>
	</wpt>
	<wpt lat="59.86512890650516" lon="17.634616060530853">
		<ele>6.936779569834471</ele>
		<time>2026-03-24T10:17:17Z</time>
	</wpt>
	<wpt lat="59.86515198506523" lon="17.635178190794488">
		<ele>7.494111589156091</ele>
		<time>2026-03-24T10:17:20Z</time>
	</wpt>
	<wpt lat="59.86518066387292" lon="17.63572658101381">
		<ele>7.691548731178045</ele>
		<time>2026-03-24T10:17:23Z</time>
	</wpt>
	<wpt lat="59.865208265183654" lon="17.636277615822706">
		<ele>7.926712196320295</ele>
		<time>2026-03-24T10:17:26Z</time>
	</wpt>
	<wpt lat="59.865264642418275" lon="17.63681479471713">
		<ele>8.869424016214907</ele>
		<time>2026-03-24T10:17:29Z</time>
	</wpt>
	<wpt lat="59.86529930764756" lon="17.637295273532434">
		<ele>9.8215689714998</ele>
		<time>2026-03-24T10:17:32Z</time>
	</wpt>
	<wpt lat="59.86536636982982" lon="17.637772940924243">
		<ele>10.266876513138413</ele>
		<time>2026-03-24T10:17:35Z</time>
	</wpt>
	<wpt lat="59.865450516607375" lon="17.638241912899513">
		<ele>10.564185759052634</ele>
		<time>2026-03-24T10:17:38Z</time>
	</wpt>
	<wpt lat="59.865551587378526" lon="17.638722528974643">
		<ele>10.788694295100868</ele>
		<time>2026-03-24T10:17:41Z</time>
	</wpt>
	<wpt lat="59.865664793994675" lon="17.639173322699122">
		<ele>11.002141579985619</ele>
		<time>2026-03-24T10:17:44Z</time>
	</wpt>
	<wpt lat="59.86577826161785" lon="17.63956704697703">
		<ele>11.280025699175894</ele>
		<time>2026-03-24T10:17:47Z</time>
	</wpt>
	<wpt lat="59.865922720272685" lon="17.63998825212504">
		<ele>12.024507563561201</ele>
		<time>2026-03-24T10:17:52Z</time>
	</wpt>
	<wpt lat="59.866086741895664" lon="17.64041389177979">
		<ele>13.91679559648037</ele>
		<time>2026-03-24T10:18:31Z</time>
	</wpt>
	<wpt lat="59.86623252644849" lon="17.64076245146172">
		<ele>13.634048825129867</ele>
		<time>2026-03-24T10:18:34Z</time>
	</wpt>
	<wpt lat="59.86639575909132" lon="17.64111921367705">
		<ele>13.098097294569016</ele>
		<time>2026-03-24T10:18:37Z</time>
	</wpt>
	<wpt lat="59.866595292376395" lon="17.64147768887215">
		<ele>12.516514762304723</ele>
		<time>2026-03-24T10:18:40Z</time>
	</wpt>
	<wpt lat="59.866784719389116" lon="17.641806248629006">
		<ele>12.192046787589788</ele>
		<time>2026-03-24T10:18:43Z</time>
	</wpt>
	<wpt lat="59.866978606653184" lon="17.642128131867263">
		<ele>11.902428550645709</ele>
		<time>2026-03-24T10:18:46Z</time>
	</wpt>
	<wpt lat="59.86716968914838" lon="17.64245378608918">
		<ele>12.304287245497108</ele>
		<time>2026-03-24T10:18:49Z</time>
	</wpt>
	<wpt lat="59.867370285559524" lon="17.64277241864639">
		<ele>12.518134345300496</ele>
		<time>2026-03-24T10:18:52Z</time>
	</wpt>
	<wpt lat="59.8675616797322" lon="17.64310001721303">
		<ele>12.596348355524242</ele>
		<time>2026-03-24T10:18:55Z</time>
	</wpt>
	<wpt lat="59.867736102267294" lon="17.643397963224764">
		<ele>12.802584535442293</ele>
		<time>2026-03-24T10:18:58Z</time>
	</wpt>
	<wpt lat="59.86794310432762" lon="17.643749451609732">
		<ele>13.015029072761536</ele>
		<time>2026-03-24T10:19:02Z</time>
	</wpt>
	<wpt lat="59.86812760977868" lon="17.64404797989975">
		<ele>13.364617450162768</ele>
		<time>2026-03-24T10:19:17Z</time>
	</wpt>
	<wpt lat="59.86836646327053" lon="17.64437400828398">
		<ele>12.914299119263887</ele>
		<time>2026-03-24T10:19:22Z</time>
	</wpt>
	<wpt lat="59.86856048329415" lon="17.64463814925903">
		<ele>12.851983417756855</ele>
		<time>2026-03-24T10:19:25Z</time>
	</wpt>
	<wpt lat="59.8687695233006" lon="17.64498977338775">
		<ele>13.00115176383406</ele>
		<time>2026-03-24T10:19:28Z</time>
	</wpt>
	<wpt lat="59.86898471617311" lon="17.64535937088017">
		<ele>12.810374890454113</ele>
		<time>2026-03-24T10:19:31Z</time>
	</wpt>
	<wpt lat="59.869184629151384" lon="17.645703534749483">
		<ele>12.754540355876088</ele>
		<time>2026-03-24T10:19:34Z</time>
	</wpt>
	<wpt lat="59.86937977659263" lon="17.646019403221878">
		<ele>12.046842759475112</ele>
		<time>2026-03-24T10:19:37Z</time>
	</wpt>
	<wpt lat="59.8695726693635" lon="17.64634592088009">
		<ele>12.043784354813397</ele>
		<time>2026-03-24T10:19:40Z</time>
	</wpt>
	<wpt lat="59.869762172493786" lon="17.646671430748288">
		<ele>12.166718495078385</ele>
		<time>2026-03-24T10:19:43Z</time>
	</wpt>
	<wpt lat="59.86993239945831" lon="17.646967266514483">
		<ele>12.027473725378513</ele>
		<time>2026-03-24T10:19:46Z</time>
	</wpt>
	<wpt lat="59.87011897447811" lon="17.647291750037382">
		<ele>12.202448700554669</ele>
		<time>2026-03-24T10:19:50Z</time>
	</wpt>
	<wpt lat="59.870297826514786" lon="17.647597756026666">
		<ele>12.194350191392004</ele>
		<time>2026-03-24T10:19:54Z</time>
	</wpt>
	<wpt lat="59.87052202075146" lon="17.647981893623058">
		<ele>12.407127578742802</ele>
		<time>2026-03-24T10:19:58Z</time>
	</wpt>
	<wpt lat="59.870700044116546" lon="17.648285053665237">
		<ele>12.323967242613435</ele>
		<time>2026-03-24T10:20:01Z</time>
	</wpt>
	<wpt lat="59.870892335147104" lon="17.64859400221003">
		<ele>12.612847181968391</ele>
		<time>2026-03-24T10:20:04Z</time>
	</wpt>
	<wpt lat="59.87107423025614" lon="17.648898506778277">
		<ele>12.757267850451171</ele>
		<time>2026-03-24T10:20:07Z</time>
	</wpt>
	<wpt lat="59.87127409200149" lon="17.649241674041242">
		<ele>12.682779459282756</ele>
		<time>2026-03-24T10:20:11Z</time>
	</wpt>
	<wpt lat="59.87146114038406" lon="17.64956827810031">
		<ele>13.55402763839811</ele>
		<time>2026-03-24T10:20:25Z</time>
	</wpt>
	<wpt lat="59.87164509472151" lon="17.64989472718851">
		<ele>13.747830079868436</ele>
		<time>2026-03-24T10:20:31Z</time>
	</wpt>
	<wpt lat="59.87182179275698" lon="17.65020401994437">
		<ele>13.53363692946732</ele>
		<time>2026-03-24T10:20:36Z</time>
	</wpt>
	<wpt lat="59.87199370747806" lon="17.650502196957028">
		<ele>13.426903162151575</ele>
		<time>2026-03-24T10:20:43Z</time>
	</wpt>
	<wpt lat="59.872199763830835" lon="17.650843809136255">
		<ele>13.239897327497602</ele>
		<time>2026-03-24T10:20:55Z</time>
	</wpt>
	<wpt lat="59.872006823729464" lon="17.651323282357968">
		<ele>13.301811918616295</ele>
		<time>2026-03-24T10:20:58Z</time>
	</wpt>
	<wpt lat="59.87181693691138" lon="17.651778489434523">
		<ele>13.093393369577825</ele>
		<time>2026-03-24T10:21:01Z</time>
	</wpt>
	<wpt lat="59.871664529672614" lon="17.65212755083255">
		<ele>13.026313656941056</ele>
		<time>2026-03-24T10:21:03Z</time>
	</wpt>
	<wpt lat="59.87150373418842" lon="17.6524917564731">
		<ele>12.823850432410836</ele>
		<time>2026-03-24T10:21:05Z</time>
	</wpt>
	<wpt lat="59.871327690575185" lon="17.65286059993518">
		<ele>12.680222921073437</ele>
		<time>2026-03-24T10:21:07Z</time>
	</wpt>
	<wpt lat="59.87115751601221" lon="17.653241008318176">
		<ele>12.552662496455014</ele>
		<time>2026-03-24T10:21:09Z</time>
	</wpt>
	<wpt lat="59.87098794190647" lon="17.653618735382462">
		<ele>12.4451835276559</ele>
		<time>2026-03-24T10:21:11Z</time>
	</wpt>
	<wpt lat="59.87081770205292" lon="17.653996832071158">
		<ele>12.330252070911229</ele>
		<time>2026-03-24T10:21:13Z</time>
	</wpt>
	<wpt lat="59.87064407301084" lon="17.65438232590603">
		<ele>12.32897702883929</ele>
		<time>2026-03-24T10:21:15Z</time>
	</wpt>
	<wpt lat="59.87047305726681" lon="17.654767184371124">
		<ele>12.412672396749258</ele>
		<time>2026-03-24T10:21:17Z</time>
	</wpt>
	<wpt lat="59.87030395850251" lon="17.655147722281978">
		<ele>12.45380643941462</ele>
		<time>2026-03-24T10:21:19Z</time>
	</wpt>
	<wpt lat="59.8701338697809" lon="17.655525758485545">
		<ele>12.621189661324024</ele>
		<time>2026-03-24T10:21:21Z</time>
	</wpt>
	<wpt lat="59.86996675853029" lon="17.655897078341557">
		<ele>12.614025452174246</ele>
		<time>2026-03-24T10:21:23Z</time>
	</wpt>
	<wpt lat="59.86979133818604" lon="17.65628484977427">
		<ele>12.568981683813035</ele>
		<time>2026-03-24T10:21:25Z</time>
	</wpt>
	<wpt lat="59.86961111346048" lon="17.656693172927255">
		<ele>12.220598729327321</ele>
		<time>2026-03-24T10:21:27Z</time>
	</wpt>
	<wpt lat="59.86943879333378" lon="17.65711640332721">
		<ele>12.033517348580062</ele>
		<time>2026-03-24T10:21:29Z</time>
	</wpt>
	<wpt lat="59.86923587150771" lon="17.657502297457444">
		<ele>12.208187764510512</ele>
		<time>2026-03-24T10:21:31Z</time>
	</wpt>
	<wpt lat="59.86903454488897" lon="17.657921705254086">
		<ele>12.395176370628178</ele>
		<time>2026-03-24T10:21:33Z</time>
	</wpt>
	<wpt lat="59.86884629647343" lon="17.658307246681442">
		<ele>12.555269094184041</ele>
		<time>2026-03-24T10:21:35Z</time>
	</wpt>
	<wpt lat="59.86866208647814" lon="17.658719688346174">
		<ele>12.658825361169875</ele>
		<time>2026-03-24T10:21:39Z</time>
	</wpt>
	<wpt lat="59.868499097955215" lon="17.659046907481944">
		<ele>12.788613805547357</ele>
		<time>2026-03-24T10:21:45Z</time>
	</wpt>
	<wpt lat="59.868304496291614" lon="17.659405481470234">
		<ele>13.05695328488946</ele>
		<time>2026-03-24T10:22:08Z</time>
	</wpt>
	<wpt lat="59.86809486270044" lon="17.659718555094923">
		<ele>12.907656100578606</ele>
		<time>2026-03-24T10:22:13Z</time>
	</wpt>
	<wpt lat="59.86823626203464" lon="17.66010499220393">
		<ele>12.786521341651678</ele>
		<time>2026-03-24T10:22:16Z</time>
	</wpt>
	<wpt lat="59.86839947755865" lon="17.66047367117986">
		<ele>12.802603712305427</ele>
		<time>2026-03-24T10:22:20Z</time>
	</wpt>
	<wpt lat="59.86857414568805" lon="17.66083503249288">
		<ele>12.881396364420652</ele>
		<time>2026-03-24T10:22:26Z</time>
	</wpt>
	<wpt lat="59.86874646197408" lon="17.661205175571695">
		<ele>12.651551011018455</ele>
		<time>2026-03-24T10:22:33Z</time>
	</wpt>
	<wpt lat="59.86873318483856" lon="17.66172864208368">
		<ele>12.437201209366322</ele>
		<time>2026-03-24T10:22:39Z</time>
	</wpt>
	<wpt lat="59.868502992116106" lon="17.66176252260253">
		<ele>12.73197941109538</ele>
		<time>2026-03-24T10:22:46Z</time>
	</wpt>
	<wpt lat="59.86845194174876" lon="17.662221777288323">
		<ele>12.850507633760571</ele>
		<time>2026-03-24T10:22:52Z</time>
	</wpt>
	<wpt lat="59.868550830864805" lon="17.662646105203002">
		<ele>12.837300473824143</ele>
		<time>2026-03-24T10:22:56Z</time>
	</wpt>
	<wpt lat="59.86874732527117" lon="17.66301326546778">
		<ele>12.837473533116281</ele>
		<time>2026-03-24T10:23:00Z</time>
	</wpt>
	<wpt lat="59.868930812803825" lon="17.66340857037246">
		<ele>13.64500676188618</ele>
		<time>2026-03-24T10:23:04Z</time>
	</wpt>
	<wpt lat="59.869109351717064" lon="17.663787485138542">
		<ele>14.0201899940148</ele>
		<time>2026-03-24T10:23:08Z</time>
	</wpt>
	<wpt lat="59.869301255049535" lon="17.66420374216776">
		<ele>14.73756657447666</ele>
		<time>2026-03-24T10:23:12Z</time>
	</wpt>
	<wpt lat="59.869454375749974" lon="17.66453489746314">
		<ele>14.927650435827672</ele>
		<time>2026-03-24T10:23:15Z</time>
	</wpt>
	<wpt lat="59.86965085663143" lon="17.664978825456323">
		<ele>15.064092786051333</ele>
		<time>2026-03-24T10:23:19Z</time>
	</wpt>
	<wpt lat="59.8698500917119" lon="17.665386678396466">
		<ele>15.483858318068087</ele>
		<time>2026-03-24T10:23:23Z</time>
	</wpt>
	<wpt lat="59.870007731014304" lon="17.665710791156908">
		<ele>16.531324637122452</ele>
		<time>2026-03-24T10:23:27Z</time>
	</wpt>
	<wpt lat="59.87019199133424" lon="17.66607346682003">
		<ele>16.9668978927657</ele>
		<time>2026-03-24T10:23:32Z</time>
	</wpt>
	<wpt lat="59.870337427935596" lon="17.666429910383954">
		<ele>17.092999383807182</ele>
		<time>2026-03-24T10:23:36Z</time>
	</wpt>
	<wpt lat="59.870511113566835" lon="17.666797121648553">
		<ele>17.32119008898735</ele>
		<time>2026-03-24T10:23:40Z</time>
	</wpt>
	<wpt lat="59.87068674808469" lon="17.667175959905887">
		<ele>18.051879917271435</ele>
		<time>2026-03-24T10:23:44Z</time>
	</wpt>
	<wpt lat="59.870850839150464" lon="17.66749799696504">
		<ele>18.361650212667882</ele>
		<time>2026-03-24T10:23:49Z</time>
	</wpt>
	<wpt lat="59.870716018357086" lon="17.667907340893773">
		<ele>18.66369854286313</ele>
		<time>2026-03-24T10:23:55Z</time>
	</wpt>
	<wpt lat="59.87051888961156" lon="17.668258670017888">
		<ele>18.64394970983267</ele>
		<time>2026-03-24T10:24:01Z</time>
	</wpt>
	<wpt lat="59.870348741823484" lon="17.668568102243025">
		<ele>18.767511378973722</ele>
		<time>2026-03-24T10:24:06Z</time>
	</wpt>
	<wpt lat="59.87012755176086" lon="17.668485333093656">
		<ele>18.108889950439334</ele>
		<time>2026-03-24T10:24:44Z</time>
	</wpt>
	<wpt lat="59.86995688783449" lon="17.668793476974184">
		<ele>17.581448663957417</ele>
		<time>2026-03-24T10:29:19Z</time>
	</wpt>
	<wpt lat="59.870006898187235" lon="17.66851217584606">
		<ele>17.37289140652865</ele>
		<time>2026-03-24T10:34:02Z</time>
	</wpt>
	<trk>
		<trkseg>
			<trkpt lat="59.84400237450393" lon="17.626062361539923">
				<ele>32.392196733504534</ele>
				<time>2026-03-24T09:38:20Z</time>
			</trkpt>
			<trkpt lat="59.84379292697755" lon="17.625892877038503">
				<ele>34.948630690574646</ele>
				<time>2026-03-24T09:38:39Z</time>
			</trkpt>
			<trkpt lat="59.843575622907814" lon="17.62575873055858">
				<ele>37.898575470782816</ele>
				<time>2026-03-24T09:38:55Z</time>
			</trkpt>
			<trkpt lat="59.843346061801604" lon="17.62576962852772">
				<ele>40.08468376100063</ele>
				<time>2026-03-24T09:39:17Z</time>
			</trkpt>
			<trkpt lat="59.84316402087776" lon="17.626054156262455">
				<ele>43.35382048692554</ele>
				<time>2026-03-24T09:39:42Z</time>
			</trkpt>
			<trkpt lat="59.8429722504567" lon="17.626345183511987">
				<ele>45.201672232709825</ele>
				<time>2026-03-24T09:40:07Z</time>
			</trkpt>
			<trkpt lat="59.842774226081" lon="17.626559333370302">
				<ele>46.07376661337912</ele>
				<time>2026-03-24T09:40:27Z</time>
			</trkpt>
			<trkpt lat="59.84282228280254" lon="17.627004260428166">
				<ele>44.442475537769496</ele>
				<time>2026-03-24T09:40:44Z</time>
			</trkpt>
			<trkpt lat="59.84284142542959" lon="17.627462613354634">
				<ele>41.96977079194039</ele>
				<time>2026-03-24T09:41:01Z</time>
			</trkpt>
			<trkpt lat="59.843050111509015" lon="17.627627959731573">
				<ele>39.918329370208085</ele>
				<time>2026-03-24T09:41:20Z</time>
			</trkpt>
			<trkpt lat="59.8432804096402" lon="17.6274605711707">
				<ele>36.81144742574543</ele>
				<time>2026-03-24T09:41:40Z</time>
			</trkpt>
			<trkpt lat="59.84335083590617" lon="17.627029136399358">
				<ele>35.91550755966455</ele>
				<time>2026-03-24T09:41:58Z</time>
			</trkpt>
			<trkpt lat="59.84319373890641" lon="17.626678429901553">
				<ele>39.79368697386235</ele>
				<time>2026-03-24T09:42:38Z</time>
			</trkpt>
			<trkpt lat="59.842969995769884" lon="17.62671524021039">
				<ele>42.051914057694376</ele>
				<time>2026-03-24T09:43:06Z</time>
			</trkpt>
			<trkpt lat="59.84275596947153" lon="17.626880864620187">
				<ele>43.16253495682031</ele>
				<time>2026-03-24T09:43:32Z</time>
			</trkpt>
			<trkpt lat="59.84259272247787" lon="17.62657162888326">
				<ele>48.51116299349815</ele>
				<time>2026-03-24T09:43:58Z</time>
			</trkpt>
			<trkpt lat="59.842393129121795" lon="17.62633710258517">
				<ele>51.865063013508916</ele>
				<time>2026-03-24T09:44:19Z</time>
			</trkpt>
			<trkpt lat="59.842171304230696" lon="17.626251586139233">
				<ele>51.17791244760156</ele>
				<time>2026-03-24T09:44:47Z</time>
			</trkpt>
			<trkpt lat="59.84194645756796" lon="17.626290486420793">
				<ele>50.57828463986516</ele>
				<time>2026-03-24T09:45:07Z</time>
			</trkpt>
			<trkpt lat="59.84172243176973" lon="17.626377407639957">
				<ele>51.33639874495566</ele>
				<time>2026-03-24T09:45:29Z</time>
			</trkpt>
			<trkpt lat="59.84149709700643" lon="17.62645840900477">
				<ele>53.09439140371978</ele>
				<time>2026-03-24T09:45:49Z</time>
			</trkpt>
			<trkpt lat="59.84126132916365" lon="17.626368453567473">
				<ele>53.968775673769414</ele>
				<time>2026-03-24T09:46:13Z</time>
			</trkpt>
			<trkpt lat="59.84103754964802" lon="17.626249388536127">
				<ele>54.746263545006514</ele>
				<time>2026-03-24T09:46:35Z</time>
			</trkpt>
			<trkpt lat="59.840834929720366" lon="17.62605652463803">
				<ele>55.18436417076737</ele>
				<time>2026-03-24T09:46:57Z</time>
			</trkpt>
			<trkpt lat="59.840630341599756" lon="17.625835996889425">
				<ele>55.16802243795246</ele>
				<time>2026-03-24T09:47:17Z</time>
			</trkpt>
			<trkpt lat="59.840457283316454" lon="17.62554674877841">
				<ele>56.083392328582704</ele>
				<time>2026-03-24T09:47:37Z</time>
			</trkpt>
			<trkpt lat="59.84041206908004" lon="17.625096978424857">
				<ele>58.43598301149905</ele>
				<time>2026-03-24T09:47:58Z</time>
			</trkpt>
			<trkpt lat="59.84028265543418" lon="17.624718319307043">
				<ele>58.97316160891205</ele>
				<time>2026-03-24T09:48:19Z</time>
			</trkpt>
			<trkpt lat="59.84013069465015" lon="17.624379479074367">
				<ele>58.40707749128342</ele>
				<time>2026-03-24T09:48:41Z</time>
			</trkpt>
			<trkpt lat="59.83995315475136" lon="17.624080012800434">
				<ele>58.14601331111044</ele>
				<time>2026-03-24T09:49:03Z</time>
			</trkpt>
			<trkpt lat="59.83975166850169" lon="17.6238725306777">
				<ele>57.10142037831247</ele>
				<time>2026-03-24T09:49:24Z</time>
			</trkpt>
			<trkpt lat="59.83952290612032" lon="17.62375446968675">
				<ele>57.25218689907342</ele>
				<time>2026-03-24T09:49:43Z</time>
			</trkpt>
			<trkpt lat="59.839319487102394" lon="17.623541057840036">
				<ele>56.489742814563215</ele>
				<time>2026-03-24T09:50:03Z</time>
			</trkpt>
			<trkpt lat="59.839195105701805" lon="17.623166425388202">
				<ele>54.925326554104686</ele>
				<time>2026-03-24T09:50:22Z</time>
			</trkpt>
			<trkpt lat="59.839011606317854" lon="17.622888271710945">
				<ele>53.98442481458187</ele>
				<time>2026-03-24T09:50:54Z</time>
			</trkpt>
			<trkpt lat="59.838996943316964" lon="17.622428130813418">
				<ele>53.9521060725674</ele>
				<time>2026-03-24T09:51:14Z</time>
			</trkpt>
			<trkpt lat="59.83898403958313" lon="17.62197906543171">
				<ele>55.134937345050275</ele>
				<time>2026-03-24T09:52:01Z</time>
			</trkpt>
			<trkpt lat="59.83889311691701" lon="17.621560058768214">
				<ele>55.42037909664214</ele>
				<time>2026-03-24T09:52:25Z</time>
			</trkpt>
			<trkpt lat="59.83877749167072" lon="17.621157368390758">
				<ele>56.25839032884687</ele>
				<time>2026-03-24T09:52:44Z</time>
			</trkpt>
			<trkpt lat="59.83866601248786" lon="17.620764545016602">
				<ele>55.88611051160842</ele>
				<time>2026-03-24T09:53:08Z</time>
			</trkpt>
			<trkpt lat="59.83889979916042" lon="17.62078785828875">
				<ele>55.81184749118984</ele>
				<time>2026-03-24T09:53:27Z</time>
			</trkpt>
			<trkpt lat="59.839105750633735" lon="17.620981468230674">
				<ele>56.63803810812533</ele>
				<time>2026-03-24T09:54:05Z</time>
			</trkpt>
			<trkpt lat="59.83931800390224" lon="17.62114302125239">
				<ele>55.18056280724704</ele>
				<time>2026-03-24T09:54:25Z</time>
			</trkpt>
			<trkpt lat="59.83948437547425" lon="17.621447857327443">
				<ele>56.38974965643138</ele>
				<time>2026-03-24T09:54:45Z</time>
			</trkpt>
			<trkpt lat="59.83958845994401" lon="17.621849164657846">
				<ele>57.02660165820271</ele>
				<time>2026-03-24T09:55:03Z</time>
			</trkpt>
			<trkpt lat="59.83965166260507" lon="17.622280149076786">
				<ele>58.05208025313914</ele>
				<time>2026-03-24T09:55:22Z</time>
			</trkpt>
			<trkpt lat="59.8397528060586" lon="17.62269515625111">
				<ele>56.3394544897601</ele>
				<time>2026-03-24T09:55:42Z</time>
			</trkpt>
			<trkpt lat="59.839866612340806" lon="17.623100701168088">
				<ele>57.07854534499347</ele>
				<time>2026-03-24T09:56:03Z</time>
			</trkpt>
			<trkpt lat="59.840022027505896" lon="17.6234277660849">
				<ele>55.48744083940983</ele>
				<time>2026-03-24T09:56:27Z</time>
			</trkpt>
			<trkpt lat="59.84021109175029" lon="17.623695800231367">
				<ele>57.01592807285488</ele>
				<time>2026-03-24T09:56:47Z</time>
			</trkpt>
			<trkpt lat="59.84040745161009" lon="17.62393950056491">
				<ele>57.0780362682417</ele>
				<time>2026-03-24T09:57:04Z</time>
			</trkpt>
			<trkpt lat="59.84044564205147" lon="17.624389489744267">
				<ele>57.894813653081656</ele>
				<time>2026-03-24T09:57:33Z</time>
			</trkpt>
			<trkpt lat="59.840473200996314" lon="17.62483572514277">
				<ele>57.58660260029137</ele>
				<time>2026-03-24T09:57:53Z</time>
			</trkpt>
			<trkpt lat="59.840502890950404" lon="17.62528280405817">
				<ele>53.78251457121223</ele>
				<time>2026-03-24T09:58:13Z</time>
			</trkpt>
			<trkpt lat="59.840689974122945" lon="17.625562447494612">
				<ele>52.76389804948121</ele>
				<time>2026-03-24T09:58:34Z</time>
			</trkpt>
			<trkpt lat="59.84088638733637" lon="17.62578348510658">
				<ele>53.70359843596816</ele>
				<time>2026-03-24T09:58:52Z</time>
			</trkpt>
			<trkpt lat="59.84111479240699" lon="17.625782866888635">
				<ele>54.88180928956717</ele>
				<time>2026-03-24T09:59:14Z</time>
			</trkpt>
			<trkpt lat="59.84135237946261" lon="17.62563928110045">
				<ele>56.37665550969541</ele>
				<time>2026-03-24T09:59:36Z</time>
			</trkpt>
			<trkpt lat="59.841576893729226" lon="17.625687325237315">
				<ele>54.95144518651068</ele>
				<time>2026-03-24T09:59:54Z</time>
			</trkpt>
			<trkpt lat="59.84180970641692" lon="17.625698026157732">
				<ele>53.58847302570939</ele>
				<time>2026-03-24T10:00:13Z</time>
			</trkpt>
			<trkpt lat="59.842044626499984" lon="17.625661603710974">
				<ele>52.63147822674364</ele>
				<time>2026-03-24T10:00:34Z</time>
			</trkpt>
			<trkpt lat="59.84226550742939" lon="17.62557392569984">
				<ele>52.06493226904422</ele>
				<time>2026-03-24T10:00:51Z</time>
			</trkpt>
			<trkpt lat="59.84248998334344" lon="17.62568428745988">
				<ele>50.19894009176642</ele>
				<time>2026-03-24T10:01:11Z</time>
			</trkpt>
			<trkpt lat="59.84271073584805" lon="17.625810750265742">
				<ele>47.87585180904716</ele>
				<time>2026-03-24T10:01:30Z</time>
			</trkpt>
			<trkpt lat="59.84284761700311" lon="17.626179780940575">
				<ele>44.391554679721594</ele>
				<time>2026-03-24T10:01:50Z</time>
			</trkpt>
			<trkpt lat="59.842963654388456" lon="17.626574425870025">
				<ele>43.31133019737899</ele>
				<time>2026-03-24T10:02:07Z</time>
			</trkpt>
			<trkpt lat="59.8430846139428" lon="17.626951639071002">
				<ele>40.396789661608636</ele>
				<time>2026-03-24T10:02:31Z</time>
			</trkpt>
			<trkpt lat="59.84319179591209" lon="17.627346143865683">
				<ele>37.83765969518572</ele>
				<time>2026-03-24T10:02:50Z</time>
			</trkpt>
			<trkpt lat="59.84334766050231" lon="17.627012210743775">
				<ele>36.30292142368853</ele>
				<time>2026-03-24T10:03:20Z</time>
			</trkpt>
			<trkpt lat="59.84354642842327" lon="17.62725902764671">
				<ele>35.62333333212882</ele>
				<time>2026-03-24T10:06:08Z</time>
			</trkpt>
			<trkpt lat="59.84370778927867" lon="17.6275908059476">
				<ele>33.80415922123939</ele>
				<time>2026-03-24T10:06:15Z</time>
			</trkpt>
			<trkpt lat="59.84388427283434" lon="17.627932547205027">
				<ele>32.48731858935207</ele>
				<time>2026-03-24T10:06:20Z</time>
			</trkpt>
			<trkpt lat="59.844068997119955" lon="17.628306677172578">
				<ele>31.42716441489756</ele>
				<time>2026-03-24T10:06:25Z</time>
			</trkpt>
			<trkpt lat="59.84423278887496" lon="17.628758163374187">
				<ele>30.167159283533692</ele>
				<time>2026-03-24T10:06:30Z</time>
			</trkpt>
			<trkpt lat="59.844367811154804" lon="17.629137065050163">
				<ele>29.319865407422185</ele>
				<time>2026-03-24T10:06:34Z</time>
			</trkpt>
			<trkpt lat="59.844501284899856" lon="17.62951353034773">
				<ele>29.07370681501925</ele>
				<time>2026-03-24T10:06:38Z</time>
			</trkpt>
			<trkpt lat="59.84465064779474" lon="17.629962043511668">
				<ele>28.772357133217156</ele>
				<time>2026-03-24T10:06:43Z</time>
			</trkpt>
			<trkpt lat="59.84479926318109" lon="17.630383093027373">
				<ele>28.02291969023645</ele>
				<time>2026-03-24T10:06:48Z</time>
			</trkpt>
			<trkpt lat="59.84493983682252" lon="17.630746222285502">
				<ele>28.126167133450508</ele>
				<time>2026-03-24T10:06:53Z</time>
			</trkpt>
			<trkpt lat="59.84508613554308" lon="17.631104627528117">
				<ele>27.74685784894973</ele>
				<time>2026-03-24T10:06:58Z</time>
			</trkpt>
			<trkpt lat="59.84520803293281" lon="17.631495058434204">
				<ele>27.573827031999826</ele>
				<time>2026-03-24T10:07:06Z</time>
			</trkpt>
			<trkpt lat="59.845425734444625" lon="17.63137826261316">
				<ele>27.47917847521603</ele>
				<time>2026-03-24T10:07:16Z</time>
			</trkpt>
			<trkpt lat="59.84564597926518" lon="17.631048727618257">
				<ele>27.556769631803036</ele>
				<time>2026-03-24T10:07:21Z</time>
			</trkpt>
			<trkpt lat="59.84583805597874" lon="17.63075896114625">
				<ele>27.527679587714374</ele>
				<time>2026-03-24T10:07:26Z</time>
			</trkpt>
			<trkpt lat="59.84605817367732" lon="17.63062410803208">
				<ele>27.063310757279396</ele>
				<time>2026-03-24T10:07:40Z</time>
			</trkpt>
			<trkpt lat="59.84630706201093" lon="17.63039253070877">
				<ele>26.69585407525301</ele>
				<time>2026-03-24T10:07:46Z</time>
			</trkpt>
			<trkpt lat="59.84653398217214" lon="17.630219070106033">
				<ele>26.35598498955369</ele>
				<time>2026-03-24T10:07:50Z</time>
			</trkpt>
			<trkpt lat="59.84677692937709" lon="17.630029635602206">
				<ele>26.085507832467556</ele>
				<time>2026-03-24T10:07:55Z</time>
			</trkpt>
			<trkpt lat="59.84702028922219" lon="17.629853710695347">
				<ele>25.641003548167646</ele>
				<time>2026-03-24T10:08:00Z</time>
			</trkpt>
			<trkpt lat="59.847234357388785" lon="17.629681189682316">
				<ele>25.302878267131746</ele>
				<time>2026-03-24T10:08:04Z</time>
			</trkpt>
			<trkpt lat="59.84744273176435" lon="17.62950578039506">
				<ele>25.274916561320424</ele>
				<time>2026-03-24T10:08:08Z</time>
			</trkpt>
			<trkpt lat="59.847656414162756" lon="17.62932233028918">
				<ele>25.299393139779568</ele>
				<time>2026-03-24T10:08:12Z</time>
			</trkpt>
			<trkpt lat="59.84786244512446" lon="17.62914152310088">
				<ele>25.420675325207412</ele>
				<time>2026-03-24T10:08:16Z</time>
			</trkpt>
			<trkpt lat="59.84808731305899" lon="17.628930128905413">
				<ele>25.650757264345884</ele>
				<time>2026-03-24T10:08:20Z</time>
			</trkpt>
			<trkpt lat="59.848342382164624" lon="17.628706758906">
				<ele>25.880381666123867</ele>
				<time>2026-03-24T10:08:24Z</time>
			</trkpt>
			<trkpt lat="59.84861232977597" lon="17.62847500396138">
				<ele>26.3522219248116</ele>
				<time>2026-03-24T10:08:28Z</time>
			</trkpt>
			<trkpt lat="59.848867042988076" lon="17.628242257794092">
				<ele>26.6163282180205</ele>
				<time>2026-03-24T10:08:32Z</time>
			</trkpt>
			<trkpt lat="59.84910863130496" lon="17.628017177615053">
				<ele>26.679894702509046</ele>
				<time>2026-03-24T10:08:36Z</time>
			</trkpt>
			<trkpt lat="59.84931476790689" lon="17.62783663088728">
				<ele>26.706129740923643</ele>
				<time>2026-03-24T10:08:39Z</time>
			</trkpt>
			<trkpt lat="59.849584027190744" lon="17.627593363007794">
				<ele>26.663994319736958</ele>
				<time>2026-03-24T10:08:43Z</time>
			</trkpt>
			<trkpt lat="59.849848903153" lon="17.62735268821832">
				<ele>26.622273669578135</ele>
				<time>2026-03-24T10:08:47Z</time>
			</trkpt>
			<trkpt lat="59.850106417060324" lon="17.627120282921457">
				<ele>26.56670726556331</ele>
				<time>2026-03-24T10:08:51Z</time>
			</trkpt>
			<trkpt lat="59.85037815283042" lon="17.626865842777377">
				<ele>26.932676527649164</ele>
				<time>2026-03-24T10:08:55Z</time>
			</trkpt>
			<trkpt lat="59.850589270534414" lon="17.62668037188359">
				<ele>26.978801547549665</ele>
				<time>2026-03-24T10:08:58Z</time>
			</trkpt>
			<trkpt lat="59.8508071584368" lon="17.626483400444283">
				<ele>26.91990095656365</ele>
				<time>2026-03-24T10:09:02Z</time>
			</trkpt>
			<trkpt lat="59.851023996794915" lon="17.626769215072873">
				<ele>26.0122250886634</ele>
				<time>2026-03-24T10:09:18Z</time>
			</trkpt>
			<trkpt lat="59.8511177449833" lon="17.62723802998102">
				<ele>25.384017176926136</ele>
				<time>2026-03-24T10:09:22Z</time>
			</trkpt>
			<trkpt lat="59.85122518503999" lon="17.627765687797186">
				<ele>24.785617015324533</ele>
				<time>2026-03-24T10:09:26Z</time>
			</trkpt>
			<trkpt lat="59.85131934654627" lon="17.62820518864756">
				<ele>24.528886180371046</ele>
				<time>2026-03-24T10:09:29Z</time>
			</trkpt>
			<trkpt lat="59.85141368498738" lon="17.628649445308653">
				<ele>24.650714779272676</ele>
				<time>2026-03-24T10:09:32Z</time>
			</trkpt>
			<trkpt lat="59.851504908452355" lon="17.629089236202688">
				<ele>24.78486759122461</ele>
				<time>2026-03-24T10:09:35Z</time>
			</trkpt>
			<trkpt lat="59.85159296061245" lon="17.629526847372233">
				<ele>24.77229904383421</ele>
				<time>2026-03-24T10:09:38Z</time>
			</trkpt>
			<trkpt lat="59.851703147338505" lon="17.630070150564936">
				<ele>25.417327805422246</ele>
				<time>2026-03-24T10:09:42Z</time>
			</trkpt>
			<trkpt lat="59.85179962484594" lon="17.630539148009255">
				<ele>25.86456022132188</ele>
				<time>2026-03-24T10:09:46Z</time>
			</trkpt>
			<trkpt lat="59.851903692347506" lon="17.63105621873746">
				<ele>26.169323854148388</ele>
				<time>2026-03-24T10:09:50Z</time>
			</trkpt>
			<trkpt lat="59.85199991886293" lon="17.631482991501432">
				<ele>26.484724823385477</ele>
				<time>2026-03-24T10:09:53Z</time>
			</trkpt>
			<trkpt lat="59.85208938804517" lon="17.631904667686094">
				<ele>27.05356978159398</ele>
				<time>2026-03-24T10:09:56Z</time>
			</trkpt>
			<trkpt lat="59.852192973912466" lon="17.632442390558033">
				<ele>28.143128154799342</ele>
				<time>2026-03-24T10:10:00Z</time>
			</trkpt>
			<trkpt lat="59.85228058799806" lon="17.632901620684493">
				<ele>29.208670914173126</ele>
				<time>2026-03-24T10:10:04Z</time>
			</trkpt>
			<trkpt lat="59.852363093859246" lon="17.63335748653921">
				<ele>31.57395704742521</ele>
				<time>2026-03-24T10:10:17Z</time>
			</trkpt>
			<trkpt lat="59.85254178181027" lon="17.63368824616601">
				<ele>32.09395077638328</ele>
				<time>2026-03-24T10:10:23Z</time>
			</trkpt>
			<trkpt lat="59.852810513971846" lon="17.63347985919228">
				<ele>32.61769074574113</ele>
				<time>2026-03-24T10:10:27Z</time>
			</trkpt>
			<trkpt lat="59.853074172774384" lon="17.63326904343094">
				<ele>32.84779029339552</ele>
				<time>2026-03-24T10:10:30Z</time>
			</trkpt>
			<trkpt lat="59.85333799609509" lon="17.63305955825128">
				<ele>32.220136064104736</ele>
				<time>2026-03-24T10:10:33Z</time>
			</trkpt>
			<trkpt lat="59.8535954830512" lon="17.632862381214164">
				<ele>31.854000739753246</ele>
				<time>2026-03-24T10:10:36Z</time>
			</trkpt>
			<trkpt lat="59.85385721431915" lon="17.632703107356555">
				<ele>31.375301161780953</ele>
				<time>2026-03-24T10:10:39Z</time>
			</trkpt>
			<trkpt lat="59.854131117081934" lon="17.632625775410723">
				<ele>30.71834728308022</ele>
				<time>2026-03-24T10:10:42Z</time>
			</trkpt>
			<trkpt lat="59.854409403060444" lon="17.632560251918978">
				<ele>29.758693332783878</ele>
				<time>2026-03-24T10:10:45Z</time>
			</trkpt>
			<trkpt lat="59.854690752122366" lon="17.632456624403986">
				<ele>28.6396081186831</ele>
				<time>2026-03-24T10:10:48Z</time>
			</trkpt>
			<trkpt lat="59.85494265044311" lon="17.63235143151396">
				<ele>27.93796165380627</ele>
				<time>2026-03-24T10:10:52Z</time>
			</trkpt>
			<trkpt lat="59.85521220673238" lon="17.632247519479744">
				<ele>27.37955655530095</ele>
				<time>2026-03-24T10:11:05Z</time>
			</trkpt>
			<trkpt lat="59.85545564060129" lon="17.63206561491847">
				<ele>26.34244563896209</ele>
				<time>2026-03-24T10:11:09Z</time>
			</trkpt>
			<trkpt lat="59.85562943014372" lon="17.631768626661263">
				<ele>26.95548990741372</ele>
				<time>2026-03-24T10:11:12Z</time>
			</trkpt>
			<trkpt lat="59.85584840538501" lon="17.6313864822697">
				<ele>27.117209662683308</ele>
				<time>2026-03-24T10:11:16Z</time>
			</trkpt>
			<trkpt lat="59.856067734495056" lon="17.630996651094573">
				<ele>27.459253277629614</ele>
				<time>2026-03-24T10:11:20Z</time>
			</trkpt>
			<trkpt lat="59.85628531133358" lon="17.630605424934448">
				<ele>27.27139506675303</ele>
				<time>2026-03-24T10:11:24Z</time>
			</trkpt>
			<trkpt lat="59.85649315254802" lon="17.63024772895343">
				<ele>26.830489998683333</ele>
				<time>2026-03-24T10:11:28Z</time>
			</trkpt>
			<trkpt lat="59.856694744644145" lon="17.62990528594644">
				<ele>26.70054691284895</ele>
				<time>2026-03-24T10:11:32Z</time>
			</trkpt>
			<trkpt lat="59.85690276072205" lon="17.62953777077427">
				<ele>26.695814756676555</ele>
				<time>2026-03-24T10:11:37Z</time>
			</trkpt>
			<trkpt lat="59.85710227048476" lon="17.629198621090694">
				<ele>26.206304410472512</ele>
				<time>2026-03-24T10:11:41Z</time>
			</trkpt>
			<trkpt lat="59.857300443969265" lon="17.628861464973212">
				<ele>25.99321326892823</ele>
				<time>2026-03-24T10:11:45Z</time>
			</trkpt>
			<trkpt lat="59.857476082713056" lon="17.62855810137465">
				<ele>25.754649800248444</ele>
				<time>2026-03-24T10:11:49Z</time>
			</trkpt>
			<trkpt lat="59.85765567547672" lon="17.628223610493222">
				<ele>25.106698253192008</ele>
				<time>2026-03-24T10:11:58Z</time>
			</trkpt>
			<trkpt lat="59.85754167998212" lon="17.6277989180742">
				<ele>24.899004677310586</ele>
				<time>2026-03-24T10:12:04Z</time>
			</trkpt>
			<trkpt lat="59.857386807369025" lon="17.62744224217116">
				<ele>25.07517487090081</ele>
				<time>2026-03-24T10:12:08Z</time>
			</trkpt>
			<trkpt lat="59.857226653097165" lon="17.627087080337187">
				<ele>25.503323908895254</ele>
				<time>2026-03-24T10:12:12Z</time>
			</trkpt>
			<trkpt lat="59.857105376388986" lon="17.626687896306485">
				<ele>25.016235682182014</ele>
				<time>2026-03-24T10:12:18Z</time>
			</trkpt>
			<trkpt lat="59.857310930966385" lon="17.626328034404395">
				<ele>23.660105112940073</ele>
				<time>2026-03-24T10:12:23Z</time>
			</trkpt>
			<trkpt lat="59.857510713622155" lon="17.625965529121068">
				<ele>23.08840831462294</ele>
				<time>2026-03-24T10:12:27Z</time>
			</trkpt>
			<trkpt lat="59.85769234059722" lon="17.62556590352565">
				<ele>22.605795281007886</ele>
				<time>2026-03-24T10:12:32Z</time>
			</trkpt>
			<trkpt lat="59.85785570282274" lon="17.62522278874884">
				<ele>22.413739778101444</ele>
				<time>2026-03-24T10:12:37Z</time>
			</trkpt>
			<trkpt lat="59.85802793788787" lon="17.62483784960078">
				<ele>22.11478268261999</ele>
				<time>2026-03-24T10:12:41Z</time>
			</trkpt>
			<trkpt lat="59.858221236567175" lon="17.624451210990866">
				<ele>21.079023206606507</ele>
				<time>2026-03-24T10:12:45Z</time>
			</trkpt>
			<trkpt lat="59.85840182675625" lon="17.62411236126787">
				<ele>19.628623127937317</ele>
				<time>2026-03-24T10:12:50Z</time>
			</trkpt>
			<trkpt lat="59.858625629229294" lon="17.62427308202184">
				<ele>18.48408546857536</ele>
				<time>2026-03-24T10:12:57Z</time>
			</trkpt>
			<trkpt lat="59.85879942855961" lon="17.624642954291158">
				<ele>18.29030134808272</ele>
				<time>2026-03-24T10:13:01Z</time>
			</trkpt>
			<trkpt lat="59.8589901420759" lon="17.62508533729052">
				<ele>17.656216459348798</ele>
				<time>2026-03-24T10:13:05Z</time>
			</trkpt>
			<trkpt lat="59.859148891511026" lon="17.625437814799426">
				<ele>18.05630440544337</ele>
				<time>2026-03-24T10:13:18Z</time>
			</trkpt>
			<trkpt lat="59.859309988313434" lon="17.625809469513037">
				<ele>16.99706090334803</ele>
				<time>2026-03-24T10:13:23Z</time>
			</trkpt>
			<trkpt lat="59.859484533756664" lon="17.626203603464678">
				<ele>15.863733805716038</ele>
				<time>2026-03-24T10:13:27Z</time>
			</trkpt>
			<trkpt lat="59.85964726180629" lon="17.62656901689806">
				<ele>15.317589345388114</ele>
				<time>2026-03-24T10:13:31Z</time>
			</trkpt>
			<trkpt lat="59.859834520963936" lon="17.626971586800263">
				<ele>14.637291468679905</ele>
				<time>2026-03-24T10:13:36Z</time>
			</trkpt>
			<trkpt lat="59.85999991843515" lon="17.62734378648682">
				<ele>14.515255763195455</ele>
				<time>2026-03-24T10:13:40Z</time>
			</trkpt>
			<trkpt lat="59.860166180556995" lon="17.62766243855515">
				<ele>14.244706392288208</ele>
				<time>2026-03-24T10:13:44Z</time>
			</trkpt>
			<trkpt lat="59.86033328689426" lon="17.62800160754848">
				<ele>13.765914192423224</ele>
				<time>2026-03-24T10:13:50Z</time>
			</trkpt>
			<trkpt lat="59.86049414975306" lon="17.62834800605721">
				<ele>13.24342573992908</ele>
				<time>2026-03-24T10:14:09Z</time>
			</trkpt>
			<trkpt lat="59.860676900858216" lon="17.628729728053894">
				<ele>12.868490843102336</ele>
				<time>2026-03-24T10:14:16Z</time>
			</trkpt>
			<trkpt lat="59.86084048565196" lon="17.629082133409558">
				<ele>12.679818359203637</ele>
				<time>2026-03-24T10:14:21Z</time>
			</trkpt>
			<trkpt lat="59.86100396331538" lon="17.629457979924453">
				<ele>12.466507765464485</ele>
				<time>2026-03-24T10:14:26Z</time>
			</trkpt>
			<trkpt lat="59.86117567193447" lon="17.629845047363684">
				<ele>12.944666896015406</ele>
				<time>2026-03-24T10:14:31Z</time>
			</trkpt>
			<trkpt lat="59.86133984312143" lon="17.63019444320821">
				<ele>12.68051961902529</ele>
				<time>2026-03-24T10:14:35Z</time>
			</trkpt>
			<trkpt lat="59.8615178731551" lon="17.63056008578949">
				<ele>11.93110085092485</ele>
				<time>2026-03-24T10:14:39Z</time>
			</trkpt>
			<trkpt lat="59.861678133224245" lon="17.630873723481034">
				<ele>11.36943616438657</ele>
				<time>2026-03-24T10:14:44Z</time>
			</trkpt>
			<trkpt lat="59.8618277995221" lon="17.63128929229754">
				<ele>14.174175742082298</ele>
				<time>2026-03-24T10:15:05Z</time>
			</trkpt>
			<trkpt lat="59.86198320069438" lon="17.63162354484558">
				<ele>12.820927689783275</ele>
				<time>2026-03-24T10:15:10Z</time>
			</trkpt>
			<trkpt lat="59.86213548944874" lon="17.63195648144148">
				<ele>11.803361386060715</ele>
				<time>2026-03-24T10:15:16Z</time>
			</trkpt>
			<trkpt lat="59.86229438719739" lon="17.632328130975516">
				<ele>10.021112065762281</ele>
				<time>2026-03-24T10:15:31Z</time>
			</trkpt>
			<trkpt lat="59.862471627861" lon="17.632662335857784">
				<ele>11.735610954463482</ele>
				<time>2026-03-24T10:15:37Z</time>
			</trkpt>
			<trkpt lat="59.862631757865124" lon="17.633047522079636">
				<ele>11.977204005233943</ele>
				<time>2026-03-24T10:15:42Z</time>
			</trkpt>
			<trkpt lat="59.862797343343814" lon="17.633417363967066">
				<ele>11.315715610980988</ele>
				<time>2026-03-24T10:15:46Z</time>
			</trkpt>
			<trkpt lat="59.862958045240994" lon="17.63378282018408">
				<ele>10.940468947403133</ele>
				<time>2026-03-24T10:15:50Z</time>
			</trkpt>
			<trkpt lat="59.86313515500031" lon="17.634159067941493">
				<ele>11.262870382517576</ele>
				<time>2026-03-24T10:15:54Z</time>
			</trkpt>
			<trkpt lat="59.863297095389406" lon="17.63448880908049">
				<ele>11.656866984441876</ele>
				<time>2026-03-24T10:15:58Z</time>
			</trkpt>
			<trkpt lat="59.8634479784864" lon="17.634864244208195">
				<ele>12.354712037369609</ele>
				<time>2026-03-24T10:16:24Z</time>
			</trkpt>
			<trkpt lat="59.863655162536425" lon="17.634685882416075">
				<ele>11.44543468952179</ele>
				<time>2026-03-24T10:16:31Z</time>
			</trkpt>
			<trkpt lat="59.8638470109048" lon="17.634367948575186">
				<ele>10.770504987798631</ele>
				<time>2026-03-24T10:16:38Z</time>
			</trkpt>
			<trkpt lat="59.86403541171378" lon="17.63401067853151">
				<ele>10.721482354216278</ele>
				<time>2026-03-24T10:16:44Z</time>
			</trkpt>
			<trkpt lat="59.86422989115867" lon="17.633674120856263">
				<ele>10.301915347576141</ele>
				<time>2026-03-24T10:16:49Z</time>
			</trkpt>
			<trkpt lat="59.86442297267838" lon="17.633328602354833">
				<ele>10.004410408437252</ele>
				<time>2026-03-24T10:16:54Z</time>
			</trkpt>
			<trkpt lat="59.864635696658" lon="17.633020660748734">
				<ele>9.47556905914098</ele>
				<time>2026-03-24T10:17:00Z</time>
			</trkpt>
			<trkpt lat="59.86490384130124" lon="17.633036852955083">
				<ele>8.965263028629124</ele>
				<time>2026-03-24T10:17:08Z</time>
			</trkpt>
			<trkpt lat="59.86500605760803" lon="17.6334976120304">
				<ele>7.980472137220204</ele>
				<time>2026-03-24T10:17:11Z</time>
			</trkpt>
			<trkpt lat="59.86508674145668" lon="17.634027092002675">
				<ele>7.04026641882956</ele>
				<time>2026-03-24T10:17:14Z</time>
			</trkpt>
			<trkpt lat="59.86512890650516" lon="17.634616060530853">
				<ele>6.936779569834471</ele>
				<time>2026-03-24T10:17:17Z</time>
			</trkpt>
			<trkpt lat="59.86515198506523" lon="17.635178190794488">
				<ele>7.494111589156091</ele>
				<time>2026-03-24T10:17:20Z</time>
			</trkpt>
			<trkpt lat="59.86518066387292" lon="17.63572658101381">
				<ele>7.691548731178045</ele>
				<time>2026-03-24T10:17:23Z</time>
			</trkpt>
			<trkpt lat="59.865208265183654" lon="17.636277615822706">
				<ele>7.926712196320295</ele>
				<time>2026-03-24T10:17:26Z</time>
			</trkpt>
			<trkpt lat="59.865264642418275" lon="17.63681479471713">
				<ele>8.869424016214907</ele>
				<time>2026-03-24T10:17:29Z</time>
			</trkpt>
			<trkpt lat="59.86529930764756" lon="17.637295273532434">
				<ele>9.8215689714998</ele>
				<time>2026-03-24T10:17:32Z</time>
			</trkpt>
			<trkpt lat="59.86536636982982" lon="17.637772940924243">
				<ele>10.266876513138413</ele>
				<time>2026-03-24T10:17:35Z</time>
			</trkpt>
			<trkpt lat="59.865450516607375" lon="17.638241912899513">
				<ele>10.564185759052634</ele>
				<time>2026-03-24T10:17:38Z</time>
			</trkpt>
			<trkpt lat="59.865551587378526" lon="17.638722528974643">
				<ele>10.788694295100868</ele>
				<time>2026-03-24T10:17:41Z</time>
			</trkpt>
			<trkpt lat="59.865664793994675" lon="17.639173322699122">
				<ele>11.002141579985619</ele>
				<time>2026-03-24T10:17:44Z</time>
			</trkpt>
			<trkpt lat="59.86577826161785" lon="17.63956704697703">
				<ele>11.280025699175894</ele>
				<time>2026-03-24T10:17:47Z</time>
			</trkpt>
			<trkpt lat="59.865922720272685" lon="17.63998825212504">
				<ele>12.024507563561201</ele>
				<time>2026-03-24T10:17:52Z</time>
			</trkpt>
			<trkpt lat="59.866086741895664" lon="17.64041389177979">
				<ele>13.91679559648037</ele>
				<time>2026-03-24T10:18:31Z</time>
			</trkpt>
			<trkpt lat="59.86623252644849" lon="17.64076245146172">
				<ele>13.634048825129867</ele>
				<time>2026-03-24T10:18:34Z</time>
			</trkpt>
			<trkpt lat="59.86639575909132" lon="17.64111921367705">
				<ele>13.098097294569016</ele>
				<time>2026-03-24T10:18:37Z</time>
			</trkpt>
			<trkpt lat="59.866595292376395" lon="17.64147768887215">
				<ele>12.516514762304723</ele>
				<time>2026-03-24T10:18:40Z</time>
			</trkpt>
			<trkpt lat="59.866784719389116" lon="17.641806248629006">
				<ele>12.192046787589788</ele>
				<time>2026-03-24T10:18:43Z</time>
			</trkpt>
			<trkpt lat="59.866978606653184" lon="17.642128131867263">
				<ele>11.902428550645709</ele>
				<time>2026-03-24T10:18:46Z</time>
			</trkpt>
			<trkpt lat="59.86716968914838" lon="17.64245378608918">
				<ele>12.304287245497108</ele>
				<time>2026-03-24T10:18:49Z</time>
			</trkpt>
			<trkpt lat="59.867370285559524" lon="17.64277241864639">
				<ele>12.518134345300496</ele>
				<time>2026-03-24T10:18:52Z</time>
			</trkpt>
			<trkpt lat="59.8675616797322" lon="17.64310001721303">
				<ele>12.596348355524242</ele>
				<time>2026-03-24T10:18:55Z</time>
			</trkpt>
			<trkpt lat="59.867736102267294" lon="17.643397963224764">
				<ele>12.802584535442293</ele>
				<time>2026-03-24T10:18:58Z</time>
			</trkpt>
			<trkpt lat="59.86794310432762" lon="17.643749451609732">
				<ele>13.015029072761536</ele>
				<time>2026-03-24T10:19:02Z</time>
			</trkpt>
			<trkpt lat="59.86812760977868" lon="17.64404797989975">
				<ele>13.364617450162768</ele>
				<time>2026-03-24T10:19:17Z</time>
			</trkpt>
			<trkpt lat="59.86836646327053" lon="17.64437400828398">
				<ele>12.914299119263887</ele>
				<time>2026-03-24T10:19:22Z</time>
			</trkpt>
			<trkpt lat="59.86856048329415" lon="17.64463814925903">
				<ele>12.851983417756855</ele>
				<time>2026-03-24T10:19:25Z</time>
			</trkpt>
			<trkpt lat="59.8687695233006" lon="17.64498977338775">
				<ele>13.00115176383406</ele>
				<time>2026-03-24T10:19:28Z</time>
			</trkpt>
			<trkpt lat="59.86898471617311" lon="17.64535937088017">
				<ele>12.810374890454113</ele>
				<time>2026-03-24T10:19:31Z</time>
			</trkpt>
			<trkpt lat="59.869184629151384" lon="17.645703534749483">
				<ele>12.754540355876088</ele>
				<time>2026-03-24T10:19:34Z</time>
			</trkpt>
			<trkpt lat="59.86937977659263" lon="17.646019403221878">
				<ele>12.046842759475112</ele>
				<time>2026-03-24T10:19:37Z</time>
			</trkpt>
			<trkpt lat="59.8695726693635" lon="17.64634592088009">
				<ele>12.043784354813397</ele>
				<time>2026-03-24T10:19:40Z</time>
			</trkpt>
			<trkpt lat="59.869762172493786" lon="17.646671430748288">
				<ele>12.166718495078385</ele>
				<time>2026-03-24T10:19:43Z</time>
			</trkpt>
			<trkpt lat="59.86993239945831" lon="17.646967266514483">
				<ele>12.027473725378513</ele>
				<time>2026-03-24T10:19:46Z</time>
			</trkpt>
			<trkpt lat="59.87011897447811" lon="17.647291750037382">
				<ele>12.202448700554669</ele>
				<time>2026-03-24T10:19:50Z</time>
			</trkpt>
			<trkpt lat="59.870297826514786" lon="17.647597756026666">
				<ele>12.194350191392004</ele>
				<time>2026-03-24T10:19:54Z</time>
			</trkpt>
			<trkpt lat="59.87052202075146" lon="17.647981893623058">
				<ele>12.407127578742802</ele>
				<time>2026-03-24T10:19:58Z</time>
			</trkpt>
			<trkpt lat="59.870700044116546" lon="17.648285053665237">
				<ele>12.323967242613435</ele>
				<time>2026-03-24T10:20:01Z</time>
			</trkpt>
			<trkpt lat="59.870892335147104" lon="17.64859400221003">
				<ele>12.612847181968391</ele>
				<time>2026-03-24T10:20:04Z</time>
			</trkpt>
			<trkpt lat="59.87107423025614" lon="17.648898506778277">
				<ele>12.757267850451171</ele>
				<time>2026-03-24T10:20:07Z</time>
			</trkpt>
			<trkpt lat="59.87127409200149" lon="17.649241674041242">
				<ele>12.682779459282756</ele>
				<time>2026-03-24T10:20:11Z</time>
			</trkpt>
			<trkpt lat="59.87146114038406" lon="17.64956827810031">
				<ele>13.55402763839811</ele>
				<time>2026-03-24T10:20:25Z</time>
			</trkpt>
			<trkpt lat="59.87164509472151" lon="17.64989472718851">
				<ele>13.747830079868436</ele>
				<time>2026-03-24T10:20:31Z</time>
			</trkpt>
			<trkpt lat="59.87182179275698" lon="17.65020401994437">
				<ele>13.53363692946732</ele>
				<time>2026-03-24T10:20:36Z</time>
			</trkpt>
			<trkpt lat="59.87199370747806" lon="17.650502196957028">
				<ele>13.426903162151575</ele>
				<time>2026-03-24T10:20:43Z</time>
			</trkpt>
			<trkpt lat="59.872199763830835" lon="17.650843809136255">
				<ele>13.239897327497602</ele>
				<time>2026-03-24T10:20:55Z</time>
			</trkpt>
			<trkpt lat="59.872006823729464" lon="17.651323282357968">
				<ele>13.301811918616295</ele>
				<time>2026-03-24T10:20:58Z</time>
			</trkpt>
			<trkpt lat="59.87181693691138" lon="17.651778489434523">
				<ele>13.093393369577825</ele>
				<time>2026-03-24T10:21:01Z</time>
			</trkpt>
			<trkpt lat="59.871664529672614" lon="17.65212755083255">
				<ele>13.026313656941056</ele>
				<time>2026-03-24T10:21:03Z</time>
			</trkpt>
			<trkpt lat="59.87150373418842" lon="17.6524917564731">
				<ele>12.823850432410836</ele>
				<time>2026-03-24T10:21:05Z</time>
			</trkpt>
			<trkpt lat="59.871327690575185" lon="17.65286059993518">
				<ele>12.680222921073437</ele>
				<time>2026-03-24T10:21:07Z</time>
			</trkpt>
			<trkpt lat="59.87115751601221" lon="17.653241008318176">
				<ele>12.552662496455014</ele>
				<time>2026-03-24T10:21:09Z</time>
			</trkpt>
			<trkpt lat="59.87098794190647" lon="17.653618735382462">
				<ele>12.4451835276559</ele>
				<time>2026-03-24T10:21:11Z</time>
			</trkpt>
			<trkpt lat="59.87081770205292" lon="17.653996832071158">
				<ele>12.330252070911229</ele>
				<time>2026-03-24T10:21:13Z</time>
			</trkpt>
			<trkpt lat="59.87064407301084" lon="17.65438232590603">
				<ele>12.32897702883929</ele>
				<time>2026-03-24T10:21:15Z</time>
			</trkpt>
			<trkpt lat="59.87047305726681" lon="17.654767184371124">
				<ele>12.412672396749258</ele>
				<time>2026-03-24T10:21:17Z</time>
			</trkpt>
			<trkpt lat="59.87030395850251" lon="17.655147722281978">
				<ele>12.45380643941462</ele>
				<time>2026-03-24T10:21:19Z</time>
			</trkpt>
			<trkpt lat="59.8701338697809" lon="17.655525758485545">
				<ele>12.621189661324024</ele>
				<time>2026-03-24T10:21:21Z</time>
			</trkpt>
			<trkpt lat="59.86996675853029" lon="17.655897078341557">
				<ele>12.614025452174246</ele>
				<time>2026-03-24T10:21:23Z</time>
			</trkpt>
			<trkpt lat="59.86979133818604" lon="17.65628484977427">
				<ele>12.568981683813035</ele>
				<time>2026-03-24T10:21:25Z</time>
			</trkpt>
			<trkpt lat="59.86961111346048" lon="17.656693172927255">
				<ele>12.220598729327321</ele>
				<time>2026-03-24T10:21:27Z</time>
			</trkpt>
			<trkpt lat="59.86943879333378" lon="17.65711640332721">
				<ele>12.033517348580062</ele>
				<time>2026-03-24T10:21:29Z</time>
			</trkpt>
			<trkpt lat="59.86923587150771" lon="17.657502297457444">
				<ele>12.208187764510512</ele>
				<time>2026-03-24T10:21:31Z</time>
			</trkpt>
			<trkpt lat="59.86903454488897" lon="17.657921705254086">
				<ele>12.395176370628178</ele>
				<time>2026-03-24T10:21:33Z</time>
			</trkpt>
			<trkpt lat="59.86884629647343" lon="17.658307246681442">
				<ele>12.555269094184041</ele>
				<time>2026-03-24T10:21:35Z</time>
			</trkpt>
			<trkpt lat="59.86866208647814" lon="17.658719688346174">
				<ele>12.658825361169875</ele>
				<time>2026-03-24T10:21:39Z</time>
			</trkpt>
			<trkpt lat="59.868499097955215" lon="17.659046907481944">
				<ele>12.788613805547357</ele>
				<time>2026-03-24T10:21:45Z</time>
			</trkpt>
			<trkpt lat="59.868304496291614" lon="17.659405481470234">
				<ele>13.05695328488946</ele>
				<time>2026-03-24T10:22:08Z</time>
			</trkpt>
			<trkpt lat="59.86809486270044" lon="17.659718555094923">
				<ele>12.907656100578606</ele>
				<time>2026-03-24T10:22:13Z</time>
			</trkpt>
			<trkpt lat="59.86823626203464" lon="17.66010499220393">
				<ele>12.786521341651678</ele>
				<time>2026-03-24T10:22:16Z</time>
			</trkpt>
			<trkpt lat="59.86839947755865" lon="17.66047367117986">
				<ele>12.802603712305427</ele>
				<time>2026-03-24T10:22:20Z</time>
			</trkpt>
			<trkpt lat="59.86857414568805" lon="17.66083503249288">
				<ele>12.881396364420652</ele>
				<time>2026-03-24T10:22:26Z</time>
			</trkpt>
			<trkpt lat="59.86874646197408" lon="17.661205175571695">
				<ele>12.651551011018455</ele>
				<time>2026-03-24T10:22:33Z</time>
			</trkpt>
			<trkpt lat="59.86873318483856" lon="17.66172864208368">
				<ele>12.437201209366322</ele>
				<time>2026-03-24T10:22:39Z</time>
			</trkpt>
			<trkpt lat="59.868502992116106" lon="17.66176252260253">
				<ele>12.73197941109538</ele>
				<time>2026-03-24T10:22:46Z</time>
			</trkpt>
			<trkpt lat="59.86845194174876" lon="17.662221777288323">
				<ele>12.850507633760571</ele>
				<time>2026-03-24T10:22:52Z</time>
			</trkpt>
			<trkpt lat="59.868550830864805" lon="17.662646105203002">
				<ele>12.837300473824143</ele>
				<time>2026-03-24T10:22:56Z</time>
			</trkpt>
			<trkpt lat="59.86874732527117" lon="17.66301326546778">
				<ele>12.837473533116281</ele>
				<time>2026-03-24T10:23:00Z</time>
			</trkpt>
			<trkpt lat="59.868930812803825" lon="17.66340857037246">
				<ele>13.64500676188618</ele>
				<time>2026-03-24T10:23:04Z</time>
			</trkpt>
			<trkpt lat="59.869109351717064" lon="17.663787485138542">
				<ele>14.0201899940148</ele>
				<time>2026-03-24T10:23:08Z</time>
			</trkpt>
			<trkpt lat="59.869301255049535" lon="17.66420374216776">
				<ele>14.73756657447666</ele>
				<time>2026-03-24T10:23:12Z</time>
			</trkpt>
			<trkpt lat="59.869454375749974" lon="17.66453489746314">
				<ele>14.927650435827672</ele>
				<time>2026-03-24T10:23:15Z</time>
			</trkpt>
			<trkpt lat="59.86965085663143" lon="17.664978825456323">
				<ele>15.064092786051333</ele>
				<time>2026-03-24T10:23:19Z</time>
			</trkpt>
			<trkpt lat="59.8698500917119" lon="17.665386678396466">
				<ele>15.483858318068087</ele>
				<time>2026-03-24T10:23:23Z</time>
			</trkpt>
			<trkpt lat="59.870007731014304" lon="17.665710791156908">
				<ele>16.531324637122452</ele>
				<time>2026-03-24T10:23:27Z</time>
			</trkpt>
			<trkpt lat="59.87019199133424" lon="17.66607346682003">
				<ele>16.9668978927657</ele>
				<time>2026-03-24T10:23:32Z</time>
			</trkpt>
			<trkpt lat="59.870337427935596" lon="17.666429910383954">
				<ele>17.092999383807182</ele>
				<time>2026-03-24T10:23:36Z</time>
			</trkpt>
			<trkpt lat="59.870511113566835" lon="17.666797121648553">
				<ele>17.32119008898735</ele>
				<time>2026-03-24T10:23:40Z</time>
			</trkpt>
			<trkpt lat="59.87068674808469" lon="17.667175959905887">
				<ele>18.051879917271435</ele>
				<time>2026-03-24T10:23:44Z</time>
			</trkpt>
			<trkpt lat="59.870850839150464" lon="17.66749799696504">
				<ele>18.361650212667882</ele>
				<time>2026-03-24T10:23:49Z</time>
			</trkpt>
			<trkpt lat="59.870716018357086" lon="17.667907340893773">
				<ele>18.66369854286313</ele>
				<time>2026-03-24T10:23:55Z</time>
			</trkpt>
			<trkpt lat="59.87051888961156" lon="17.668258670017888">
				<ele>18.64394970983267</ele>
				<time>2026-03-24T10:24:01Z</time>
			</trkpt>
			<trkpt lat="59.870348741823484" lon="17.668568102243025">
				<ele>18.767511378973722</ele>
				<time>2026-03-24T10:24:06Z</time>
			</trkpt>
			<trkpt lat="59.87012755176086" lon="17.668485333093656">
				<ele>18.108889950439334</ele>
				<time>2026-03-24T10:24:44Z</time>
			</trkpt>
			<trkpt lat="59.86995688783449" lon="17.668793476974184">
				<ele>17.581448663957417</ele>
				<time>2026-03-24T10:29:19Z</time>
			</trkpt>
			<trkpt lat="59.870006898187235" lon="17.66851217584606">
				<ele>17.37289140652865</ele>
				<time>2026-03-24T10:34:02Z</time>
			</trkpt>
		</trkseg>
	</trk>
	<extensions>
	</extensions>
</gpx>
