<?xml version="1.0" encoding="UTF-8"?>
<gpx xmlns:xsi="http://www.w3.org/2001/XMLSchema-instance" xmlns="http://www.topografix.com/GPX/1/1" xsi:schemaLocation="http://www.topografix.com/GPX/1/1 http://www.topografix.com/GPX/1/1/gpx.xsd" version="1.1" creator="FootMark for iOS">
	<metadata>
		<link href="https://itunes.apple.com/us/app/footmark-route-recorder/id1451393033">
			<text>Download link</text>
		</link>
		<time>2026-05-01T22:44:25Z</time>
	</metadata>
	<wpt lat="59.79325154101596" lon="17.684703322821793">
		<ele>64.45910453796387</ele>
		<time>2026-03-01T12:04:11Z</time>
	</wpt>
	<wpt lat="59.793141531767574" lon="17.68558399075312">
		<ele>63.13265188224614</ele>
		<time>2026-03-01T12:06:08Z</time>
	</wpt>
	<wpt lat="59.791022087781364" lon="17.68901542031964">
		<ele>64.82628589123487</ele>
		<time>2026-03-01T12:20:28Z</time>
	</wpt>
	<wpt lat="59.79057532515577" lon="17.68911717254477">
		<ele>65.31829128507525</ele>
		<time>2026-03-01T12:22:35Z</time>
	</wpt>
	<wpt lat="59.79036639222452" lon="17.688319206397654">
		<ele>64.27251550927758</ele>
		<time>2026-03-01T12:26:25Z</time>
	</wpt>
	<wpt lat="59.79008772605792" lon="17.68760766978528">
		<ele>70.06639087479562</ele>
		<time>2026-03-01T12:29:33Z</time>
	</wpt>
	<wpt lat="59.789644527471545" lon="17.687423955685407">
		<ele>68.52411388978362</ele>
		<time>2026-03-01T12:31:37Z</time>
	</wpt>
	<wpt lat="59.78929792285237" lon="17.68685583862636">
		<ele>66.49188566301018</ele>
		<time>2026-03-01T12:32:55Z</time>
	</wpt>
	<wpt lat="59.78895645132631" lon="17.686271549750494">
		<ele>65.56180622801185</ele>
		<time>2026-03-01T12:35:36Z</time>
	</wpt>
	<wpt lat="59.788783976529665" lon="17.685447529812254">
		<ele>66.96568402182311</ele>
		<time>2026-03-01T12:37:30Z</time>
	</wpt>
	<wpt lat="59.788799095232946" lon="17.684539920619592">
		<ele>68.71864570956677</ele>
		<time>2026-03-01T12:40:55Z</time>
	</wpt>
	<wpt lat="59.78852220436234" lon="17.683820385606424">
		<ele>68.20143469795585</ele>
		<time>2026-03-01T12:41:59Z</time>
	</wpt>
	<wpt lat="59.78827367870036" lon="17.68307877783598">
		<ele>67.94812080822885</ele>
		<time>2026-03-01T12:43:03Z</time>
	</wpt>
	<wpt lat="59.788402786942505" lon="17.682216721360017">
		<ele>66.68683288898319</ele>
		<time>2026-03-01T12:45:41Z</time>
	</wpt>
	<wpt lat="59.78838043033404" lon="17.681324490844265">
		<ele>67.66687301173806</ele>
		<time>2026-03-01T12:49:31Z</time>
	</wpt>
	<wpt lat="59.78820755644025" lon="17.680482906953184">
		<ele>65.4001110997051</ele>
		<time>2026-03-01T12:50:53Z</time>
	</wpt>
	<wpt lat="59.78814764590723" lon="17.679586153329783">
		<ele>64.91902840510011</ele>
		<time>2026-03-01T12:52:33Z</time>
	</wpt>
	<wpt lat="59.78840789443033" lon="17.67885190031757">
		<ele>65.03778865467757</ele>
		<time>2026-03-01T12:53:59Z</time>
	</wpt>
	<wpt lat="59.78878480342429" lon="17.678313764916997">
		<ele>62.48094953969121</ele>
		<time>2026-03-01T12:55:26Z</time>
	</wpt>
	<wpt lat="59.78922700967887" lon="17.678059109629285">
		<ele>62.91622731927782</ele>
		<time>2026-03-01T12:58:58Z</time>
	</wpt>
	<wpt lat="59.78958530280912" lon="17.6775019713102">
		<ele>62.77353482693434</ele>
		<time>2026-03-01T13:00:06Z</time>
	</wpt>
	<wpt lat="59.79003081971008" lon="17.677365516885242">
		<ele>63.68473702017218</ele>
		<time>2026-03-01T13:01:26Z</time>
	</wpt>
	<wpt lat="59.79048503128159" lon="17.67733985009206">
		<ele>63.32874755561352</ele>
		<time>2026-03-01T13:02:24Z</time>
	</wpt>
	<wpt lat="59.790934357879195" lon="17.677364634016712">
		<ele>60.887243976816535</ele>
		<time>2026-03-01T13:03:38Z</time>
	</wpt>
	<wpt lat="59.7912602120883" lon="17.676750435504676">
		<ele>59.93411805573851</ele>
		<time>2026-03-01T13:04:27Z</time>
	</wpt>
	<wpt lat="59.791571621537635" lon="17.676084497161746">
		<ele>59.14157342072576</ele>
		<time>2026-03-01T13:05:23Z</time>
	</wpt>
	<wpt lat="59.79182529887077" lon="17.67534033615486">
		<ele>57.67077859584242</ele>
		<time>2026-03-01T13:06:28Z</time>
	</wpt>
	<wpt lat="59.79203993097041" lon="17.674528122121245">
		<ele>52.85626269783825</ele>
		<time>2026-03-01T13:07:30Z</time>
	</wpt>
	<wpt lat="59.79180269377079" lon="17.675289091415692">
		<ele>57.16738160606474</ele>
		<time>2026-03-01T13:10:23Z</time>
	</wpt>
	<wpt lat="59.79165353333367" lon="17.67613499704175">
		<ele>58.54378887359053</ele>
		<time>2026-03-01T13:11:24Z</time>
	</wpt>
	<wpt lat="59.7919594746707" lon="17.676794033331667">
		<ele>58.868778745643795</ele>
		<time>2026-03-01T13:12:31Z</time>
	</wpt>
	<wpt lat="59.79224509527428" lon="17.677495745874978">
		<ele>58.66689659003168</ele>
		<time>2026-03-01T13:13:33Z</time>
	</wpt>
	<wpt lat="59.792358728322476" lon="17.678358766998432">
		<ele>60.73113619349897</ele>
		<time>2026-03-01T13:15:11Z</time>
	</wpt>
	<wpt lat="59.79276862580744" lon="17.678771253847554">
		<ele>59.43224066402763</ele>
		<time>2026-03-01T13:16:33Z</time>
	</wpt>
	<wpt lat="59.79316493850324" lon="17.679240194526347">
		<ele>53.19459042791277</ele>
		<time>2026-03-01T13:17:51Z</time>
	</wpt>
	<wpt lat="59.79303290451217" lon="17.679246463998325">
		<ele>55.68072977755219</ele>
		<time>2026-03-01T13:18:35Z</time>
	</wpt>
	<trk>
		<trkseg>
			<trkpt lat="59.79325154101596" lon="17.684703322821793">
				<ele>64.45910453796387</ele>
				<time>2026-03-01T12:04:11Z</time>
			</trkpt>
			<trkpt lat="59.793141531767574" lon="17.68558399075312">
				<ele>63.13265188224614</ele>
				<time>2026-03-01T12:06:08Z</time>
			</trkpt>
			<trkpt lat="59.791022087781364" lon="17.68901542031964">
				<ele>64.82628589123487</ele>
				<time>2026-03-01T12:20:28Z</time>
			</trkpt>
			<trkpt lat="59.79057532515577" lon="17.68911717254477">
				<ele>65.31829128507525</ele>
				<time>2026-03-01T12:22:35Z</time>
			</trkpt>
			<trkpt lat="59.79036639222452" lon="17.688319206397654">
				<ele>64.27251550927758</ele>
				<time>2026-03-01T12:26:25Z</time>
			</trkpt>
			<trkpt lat="59.79008772605792" lon="17.68760766978528">
				<ele>70.06639087479562</ele>
				<time>2026-03-01T12:29:33Z</time>
			</trkpt>
			<trkpt lat="59.789644527471545" lon="17.687423955685407">
				<ele>68.52411388978362</ele>
				<time>2026-03-01T12:31:37Z</time>
			</trkpt>
			<trkpt lat="59.78929792285237" lon="17.68685583862636">
				<ele>66.49188566301018</ele>
				<time>2026-03-01T12:32:55Z</time>
			</trkpt>
			<trkpt lat="59.78895645132631" lon="17.686271549750494">
				<ele>65.56180622801185</ele>
				<time>2026-03-01T12:35:36Z</time>
			</trkpt>
			<trkpt lat="59.788783976529665" lon="17.685447529812254">
				<ele>66.96568402182311</ele>
				<time>2026-03-01T12:37:30Z</time>
			</trkpt>
			<trkpt lat="59.788799095232946" lon="17.684539920619592">
				<ele>68.71864570956677</ele>
				<time>2026-03-01T12:40:55Z</time>
			</trkpt>
			<trkpt lat="59.78852220436234" lon="17.683820385606424">
				<ele>68.20143469795585</ele>
				<time>2026-03-01T12:41:59Z</time>
			</trkpt>
			<trkpt lat="59.78827367870036" lon="17.68307877783598">
				<ele>67.94812080822885</ele>
				<time>2026-03-01T12:43:03Z</time>
			</trkpt>
			<trkpt lat="59.788402786942505" lon="17.682216721360017">
				<ele>66.68683288898319</ele>
				<time>2026-03-01T12:45:41Z</time>
			</trkpt>
			<trkpt lat="59.78838043033404" lon="17.681324490844265">
				<ele>67.66687301173806</ele>
				<time>2026-03-01T12:49:31Z</time>
			</trkpt>
			<trkpt lat="59.78820755644025" lon="17.680482906953184">
				<ele>65.4001110997051</ele>
				<time>2026-03-01T12:50:53Z</time>
			</trkpt>
			<trkpt lat="59.78814764590723" lon="17.679586153329783">
				<ele>64.91902840510011</ele>
				<time>2026-03-01T12:52:33Z</time>
			</trkpt>
			<trkpt lat="59.78840789443033" lon="17.67885190031757">
				<ele>65.03778865467757</ele>
				<time>2026-03-01T12:53:59Z</time>
			</trkpt>
			<trkpt lat="59.78878480342429" lon="17.678313764916997">
				<ele>62.48094953969121</ele>
				<time>2026-03-01T12:55:26Z</time>
			</trkpt>
			<trkpt lat="59.78922700967887" lon="17.678059109629285">
				<ele>62.91622731927782</ele>
				<time>2026-03-01T12:58:58Z</time>
			</trkpt>
			<trkpt lat="59.78958530280912" lon="17.6775019713102">
				<ele>62.77353482693434</ele>
				<time>2026-03-01T13:00:06Z</time>
			</trkpt>
			<trkpt lat="59.79003081971008" lon="17.677365516885242">
				<ele>63.68473702017218</ele>
				<time>2026-03-01T13:01:26Z</time>
			</trkpt>
			<trkpt lat="59.79048503128159" lon="17.67733985009206">
				<ele>63.32874755561352</ele>
				<time>2026-03-01T13:02:24Z</time>
			</trkpt>
			<trkpt lat="59.790934357879195" lon="17.677364634016712">
				<ele>60.887243976816535</ele>
				<time>2026-03-01T13:03:38Z</time>
			</trkpt>
			<trkpt lat="59.7912602120883" lon="17.676750435504676">
				<ele>59.93411805573851</ele>
				<time>2026-03-01T13:04:27Z</time>
			</trkpt>
			<trkpt lat="59.791571621537635" lon="17.676084497161746">
				<ele>59.14157342072576</ele>
				<time>2026-03-01T13:05:23Z</time>
			</trkpt>
			<trkpt lat="59.79182529887077" lon="17.67534033615486">
				<ele>57.67077859584242</ele>
				<time>2026-03-01T13:06:28Z</time>
			</trkpt>
			<trkpt lat="59.79203993097041" lon="17.674528122121245">
				<ele>52.85626269783825</ele>
				<time>2026-03-01T13:07:30Z</time>
			</trkpt>
			<trkpt lat="59.79180269377079" lon="17.675289091415692">
				<ele>57.16738160606474</ele>
				<time>2026-03-01T13:10:23Z</time>
			</trkpt>
			<trkpt lat="59.79165353333367" lon="17.67613499704175">
				<ele>58.54378887359053</ele>
				<time>2026-03-01T13:11:24Z</time>
			</trkpt>
			<trkpt lat="59.7919594746707" lon="17.676794033331667">
				<ele>58.868778745643795</ele>
				<time>2026-03-01T13:12:31Z</time>
			</trkpt>
			<trkpt lat="59.79224509527428" lon="17.677495745874978">
				<ele>58.66689659003168</ele>
				<time>2026-03-01T13:13:33Z</time>
			</trkpt>
			<trkpt lat="59.792358728322476" lon="17.678358766998432">
				<ele>60.73113619349897</ele>
				<time>2026-03-01T13:15:11Z</time>
			</trkpt>
			<trkpt lat="59.79276862580744" lon="17.678771253847554">
				<ele>59.43224066402763</ele>
				<time>2026-03-01T13:16:33Z</time>
			</trkpt>
			<trkpt lat="59.79316493850324" lon="17.679240194526347">
				<ele>53.19459042791277</ele>
				<time>2026-03-01T13:17:51Z</time>
			</trkpt>
			<trkpt lat="59.79303290451217" lon="17.679246463998325">
				<ele>55.68072977755219</ele>
				<time>2026-03-01T13:18:35Z</time>
			</trkpt>
		</trkseg>
	</trk>
	<extensions>
	</extensions>
</gpx>
