<?xml version="1.0" encoding="UTF-8"?>
<gpx xmlns:xsi="http://www.w3.org/2001/XMLSchema-instance" xmlns="http://www.topografix.com/GPX/1/1" xsi:schemaLocation="http://www.topografix.com/GPX/1/1 http://www.topografix.com/GPX/1/1/gpx.xsd" version="1.1" creator="FootMark for iOS">
	<metadata>
		<link href="https://itunes.apple.com/us/app/footmark-route-recorder/id1451393033">
			<text>Download link</text>
		</link>
		<time>2026-05-01T23:07:40Z</time>
	</metadata>
	<wpt lat="59.84332290052473" lon="17.6273312452991">
		<ele>36.357460806146264</ele>
		<time>2026-03-27T15:39:50Z</time>
	</wpt>
	<wpt lat="59.84313135050531" lon="17.627613161995498">
		<ele>38.43881316669285</ele>
		<time>2026-03-27T15:40:15Z</time>
	</wpt>
	<wpt lat="59.842919084522165" lon="17.62746674179178">
		<ele>40.43324421159923</ele>
		<time>2026-03-27T15:40:39Z</time>
	</wpt>
	<wpt lat="59.84278157112008" lon="17.62710163017169">
		<ele>43.14986447803676</ele>
		<time>2026-03-27T15:40:56Z</time>
	</wpt>
	<wpt lat="59.8426098289018" lon="17.62680981080355">
		<ele>45.760005382820964</ele>
		<time>2026-03-27T15:41:15Z</time>
	</wpt>
	<wpt lat="59.84251682830877" lon="17.627235885308767">
		<ele>45.62629437632859</ele>
		<time>2026-03-27T15:41:33Z</time>
	</wpt>
	<wpt lat="59.84230070993749" lon="17.62709275790376">
		<ele>47.72295809909701</ele>
		<time>2026-03-27T15:41:52Z</time>
	</wpt>
	<wpt lat="59.842098284629905" lon="17.626870233535833">
		<ele>51.83651624713093</ele>
		<time>2026-03-27T15:42:13Z</time>
	</wpt>
	<wpt lat="59.84187351296994" lon="17.627000240750736">
		<ele>52.226899043656886</ele>
		<time>2026-03-27T15:42:35Z</time>
	</wpt>
	<wpt lat="59.841660601819775" lon="17.627153065546313">
		<ele>52.45228432957083</ele>
		<time>2026-03-27T15:42:56Z</time>
	</wpt>
	<wpt lat="59.841439868129505" lon="17.62731260832978">
		<ele>52.132674656808376</ele>
		<time>2026-03-27T15:43:17Z</time>
	</wpt>
	<wpt lat="59.84125256353926" lon="17.6275671377947">
		<ele>51.5606302767992</ele>
		<time>2026-03-27T15:43:35Z</time>
	</wpt>
	<wpt lat="59.841053381612326" lon="17.627774015192312">
		<ele>53.09677608590573</ele>
		<time>2026-03-27T15:43:54Z</time>
	</wpt>
	<wpt lat="59.840852906436055" lon="17.628043898680627">
		<ele>53.37473691627383</ele>
		<time>2026-03-27T15:44:15Z</time>
	</wpt>
	<wpt lat="59.84066944908625" lon="17.628317459508555">
		<ele>54.31509660370648</ele>
		<time>2026-03-27T15:44:33Z</time>
	</wpt>
	<wpt lat="59.84050949555022" lon="17.628641499881056">
		<ele>53.683844530023634</ele>
		<time>2026-03-27T15:44:49Z</time>
	</wpt>
	<wpt lat="59.84029416805547" lon="17.62878564958637">
		<ele>54.77355403173715</ele>
		<time>2026-03-27T15:45:11Z</time>
	</wpt>
	<wpt lat="59.84010621056108" lon="17.6285242734386">
		<ele>54.09050649404526</ele>
		<time>2026-03-27T15:45:30Z</time>
	</wpt>
	<wpt lat="59.839877121116686" lon="17.62855215478793">
		<ele>55.068146236240864</ele>
		<time>2026-03-27T15:45:51Z</time>
	</wpt>
	<wpt lat="59.83965028905159" lon="17.628619340317652">
		<ele>54.7246030094102</ele>
		<time>2026-03-27T15:46:09Z</time>
	</wpt>
	<wpt lat="59.83943733086093" lon="17.628800575754042">
		<ele>55.58796879276633</ele>
		<time>2026-03-27T15:46:25Z</time>
	</wpt>
	<wpt lat="59.839309677359125" lon="17.629188908649642">
		<ele>54.33070113044232</ele>
		<time>2026-03-27T15:46:44Z</time>
	</wpt>
	<wpt lat="59.83917125567344" lon="17.62954405291693">
		<ele>53.61700516846031</ele>
		<time>2026-03-27T15:47:02Z</time>
	</wpt>
	<wpt lat="59.83898388038073" lon="17.629802004260224">
		<ele>52.57163586746901</ele>
		<time>2026-03-27T15:47:22Z</time>
	</wpt>
	<wpt lat="59.838768200439375" lon="17.629966191558402">
		<ele>52.33198188431561</ele>
		<time>2026-03-27T15:47:40Z</time>
	</wpt>
	<wpt lat="59.83862347108471" lon="17.62960977045944">
		<ele>52.09082233905792</ele>
		<time>2026-03-27T15:48:27Z</time>
	</wpt>
	<wpt lat="59.83875666928059" lon="17.629242050709358">
		<ele>53.921469503082335</ele>
		<time>2026-03-27T15:48:55Z</time>
	</wpt>
	<wpt lat="59.838876139889344" lon="17.628837136335694">
		<ele>55.75994452275336</ele>
		<time>2026-03-27T15:49:23Z</time>
	</wpt>
	<wpt lat="59.838974711090714" lon="17.628415663474318">
		<ele>55.05381538067013</ele>
		<time>2026-03-27T15:49:47Z</time>
	</wpt>
	<wpt lat="59.838917785434376" lon="17.627974066851518">
		<ele>54.63736717123538</ele>
		<time>2026-03-27T15:50:08Z</time>
	</wpt>
	<wpt lat="59.838849176532754" lon="17.627549380450148">
		<ele>54.26524770259857</ele>
		<time>2026-03-27T15:50:29Z</time>
	</wpt>
	<wpt lat="59.838958783018704" lon="17.627151643292166">
		<ele>53.31779606919736</ele>
		<time>2026-03-27T15:50:51Z</time>
	</wpt>
	<wpt lat="59.83893458358133" lon="17.626697738217242">
		<ele>54.111343764699996</ele>
		<time>2026-03-27T15:51:14Z</time>
	</wpt>
	<wpt lat="59.838749429602274" lon="17.626436449182705">
		<ele>56.126231673173606</ele>
		<time>2026-03-27T15:51:57Z</time>
	</wpt>
	<wpt lat="59.8386041476224" lon="17.62608215808959">
		<ele>57.49361137393862</ele>
		<time>2026-03-27T15:52:18Z</time>
	</wpt>
	<wpt lat="59.83843807855728" lon="17.625759489100094">
		<ele>56.340150183066726</ele>
		<time>2026-03-27T15:52:41Z</time>
	</wpt>
	<wpt lat="59.83831312911692" lon="17.625386635895072">
		<ele>56.49473980348557</ele>
		<time>2026-03-27T15:53:03Z</time>
	</wpt>
	<wpt lat="59.838236804958456" lon="17.62496706386284">
		<ele>53.77940756082535</ele>
		<time>2026-03-27T15:53:23Z</time>
	</wpt>
	<wpt lat="59.83812997736664" lon="17.624566614510698">
		<ele>52.81293632183224</ele>
		<time>2026-03-27T15:54:56Z</time>
	</wpt>
	<wpt lat="59.83799653485829" lon="17.624203658618907">
		<ele>52.95680047478527</ele>
		<time>2026-03-27T15:55:16Z</time>
	</wpt>
	<wpt lat="59.83790801387132" lon="17.623749642890385">
		<ele>54.664065287448466</ele>
		<time>2026-03-27T15:55:40Z</time>
	</wpt>
	<wpt lat="59.83776028231082" lon="17.62340360991618">
		<ele>55.16383197810501</ele>
		<time>2026-03-27T15:56:03Z</time>
	</wpt>
	<wpt lat="59.837547227836424" lon="17.62323606848699">
		<ele>56.30348339769989</ele>
		<time>2026-03-27T15:56:24Z</time>
	</wpt>
	<wpt lat="59.83732764732847" lon="17.623343653982992">
		<ele>56.242559797130525</ele>
		<time>2026-03-27T15:56:49Z</time>
	</wpt>
	<wpt lat="59.83713614497729" lon="17.623599998891816">
		<ele>54.43512273952365</ele>
		<time>2026-03-27T15:57:10Z</time>
	</wpt>
	<wpt lat="59.83691002633549" lon="17.623543731246926">
		<ele>54.096459090709686</ele>
		<time>2026-03-27T15:57:33Z</time>
	</wpt>
	<wpt lat="59.83670626625063" lon="17.62373467913379">
		<ele>54.43787315580994</ele>
		<time>2026-03-27T15:57:52Z</time>
	</wpt>
	<wpt lat="59.836475306145616" lon="17.6237050168251">
		<ele>54.558785925619304</ele>
		<time>2026-03-27T15:58:14Z</time>
	</wpt>
	<wpt lat="59.836251005694955" lon="17.623653633608086">
		<ele>54.72822700999677</ele>
		<time>2026-03-27T15:58:35Z</time>
	</wpt>
	<wpt lat="59.83602802461828" lon="17.62360291332192">
		<ele>55.667747562751174</ele>
		<time>2026-03-27T15:58:52Z</time>
	</wpt>
	<wpt lat="59.83607640765738" lon="17.623161695631225">
		<ele>56.103043757379055</ele>
		<time>2026-03-27T16:00:21Z</time>
	</wpt>
	<wpt lat="59.836200869145934" lon="17.622783292277933">
		<ele>56.63642983324826</ele>
		<time>2026-03-27T16:00:43Z</time>
	</wpt>
	<wpt lat="59.83634816383043" lon="17.62242452149038">
		<ele>58.37366486899555</ele>
		<time>2026-03-27T16:00:59Z</time>
	</wpt>
	<wpt lat="59.83656106612326" lon="17.62222371592842">
		<ele>56.718681811355054</ele>
		<time>2026-03-27T16:01:24Z</time>
	</wpt>
	<wpt lat="59.83674310525962" lon="17.621960668632028">
		<ele>56.38600042555481</ele>
		<time>2026-03-27T16:01:55Z</time>
	</wpt>
	<wpt lat="59.83694270085027" lon="17.621756859497896">
		<ele>58.71417179517448</ele>
		<time>2026-03-27T16:03:22Z</time>
	</wpt>
	<wpt lat="59.83715237142189" lon="17.621549368977515">
		<ele>58.35578531771898</ele>
		<time>2026-03-27T16:03:44Z</time>
	</wpt>
	<wpt lat="59.837364181348306" lon="17.62135732231783">
		<ele>60.362473111599684</ele>
		<time>2026-03-27T16:04:07Z</time>
	</wpt>
	<wpt lat="59.83756852936349" lon="17.62111868637915">
		<ele>59.73608240392059</ele>
		<time>2026-03-27T16:04:28Z</time>
	</wpt>
	<wpt lat="59.83774510774309" lon="17.620798838705387">
		<ele>57.447856054641306</ele>
		<time>2026-03-27T16:04:50Z</time>
	</wpt>
	<wpt lat="59.83784958658392" lon="17.620373579570487">
		<ele>59.050869558006525</ele>
		<time>2026-03-27T16:05:10Z</time>
	</wpt>
	<wpt lat="59.83793170051804" lon="17.61994159427654">
		<ele>55.95443872176111</ele>
		<time>2026-03-27T16:05:32Z</time>
	</wpt>
	<wpt lat="59.83807237136471" lon="17.61958673493591">
		<ele>52.148528709076345</ele>
		<time>2026-03-27T16:05:52Z</time>
	</wpt>
	<wpt lat="59.83827515467722" lon="17.61934342238478">
		<ele>54.8717086892575</ele>
		<time>2026-03-27T16:06:39Z</time>
	</wpt>
	<wpt lat="59.83850916645539" lon="17.61928280738406">
		<ele>55.97905511409044</ele>
		<time>2026-03-27T16:07:08Z</time>
	</wpt>
	<wpt lat="59.838731084013205" lon="17.619177693018575">
		<ele>55.11723925732076</ele>
		<time>2026-03-27T16:07:30Z</time>
	</wpt>
	<wpt lat="59.838969013215205" lon="17.6192015669598">
		<ele>56.52259974554181</ele>
		<time>2026-03-27T16:07:51Z</time>
	</wpt>
	<wpt lat="59.83918862361559" lon="17.6193190660798">
		<ele>58.25302785541862</ele>
		<time>2026-03-27T16:08:23Z</time>
	</wpt>
	<wpt lat="59.83939204804134" lon="17.6195482722919">
		<ele>58.543623686768115</ele>
		<time>2026-03-27T16:08:48Z</time>
	</wpt>
	<wpt lat="59.83957618109803" lon="17.619806145729928">
		<ele>59.99691937677562</ele>
		<time>2026-03-27T16:09:06Z</time>
	</wpt>
	<wpt lat="59.83971935385116" lon="17.62015119567628">
		<ele>60.47987447679043</ele>
		<time>2026-03-27T16:09:27Z</time>
	</wpt>
	<wpt lat="59.839877112310326" lon="17.620477877922287">
		<ele>58.3335203519091</ele>
		<time>2026-03-27T16:09:47Z</time>
	</wpt>
	<wpt lat="59.84001943935247" lon="17.620824443943466">
		<ele>59.55526123289019</ele>
		<time>2026-03-27T16:10:07Z</time>
	</wpt>
	<wpt lat="59.840164189492874" lon="17.62117797120991">
		<ele>58.480744851753116</ele>
		<time>2026-03-27T16:10:29Z</time>
	</wpt>
	<wpt lat="59.84038748941201" lon="17.62128252151713">
		<ele>58.50231190212071</ele>
		<time>2026-03-27T16:10:51Z</time>
	</wpt>
	<wpt lat="59.84062249234527" lon="17.62125434946713">
		<ele>58.31679578591138</ele>
		<time>2026-03-27T16:12:45Z</time>
	</wpt>
	<wpt lat="59.84083768368933" lon="17.621415413682158">
		<ele>56.52377387229353</ele>
		<time>2026-03-27T16:13:10Z</time>
	</wpt>
	<wpt lat="59.8410645234672" lon="17.621423755356993">
		<ele>56.996541674248874</ele>
		<time>2026-03-27T16:13:32Z</time>
	</wpt>
	<wpt lat="59.84125894399945" lon="17.62119102708893">
		<ele>53.93166387081146</ele>
		<time>2026-03-27T16:14:17Z</time>
	</wpt>
	<wpt lat="59.84145880791082" lon="17.620917634362257">
		<ele>54.08271378092468</ele>
		<time>2026-03-27T16:15:10Z</time>
	</wpt>
	<wpt lat="59.84155925875096" lon="17.620517270181075">
		<ele>52.62063254136592</ele>
		<time>2026-03-27T16:15:34Z</time>
	</wpt>
	<wpt lat="59.841652458880354" lon="17.620107189370653">
		<ele>52.577929919585586</ele>
		<time>2026-03-27T16:15:56Z</time>
	</wpt>
	<wpt lat="59.84187363381879" lon="17.619966700589362">
		<ele>53.82216326892376</ele>
		<time>2026-03-27T16:16:16Z</time>
	</wpt>
	<wpt lat="59.84208382070417" lon="17.61976503973839">
		<ele>56.27823908161372</ele>
		<time>2026-03-27T16:16:38Z</time>
	</wpt>
	<wpt lat="59.84225873969776" lon="17.61945914381629">
		<ele>55.074774094857275</ele>
		<time>2026-03-27T16:16:58Z</time>
	</wpt>
	<wpt lat="59.84240324068593" lon="17.619112086950544">
		<ele>53.76805671863258</ele>
		<time>2026-03-27T16:17:18Z</time>
	</wpt>
	<wpt lat="59.84262574227772" lon="17.618958352511573">
		<ele>51.68902082927525</ele>
		<time>2026-03-27T16:17:40Z</time>
	</wpt>
	<wpt lat="59.8426906165226" lon="17.619399369984478">
		<ele>53.707170402631164</ele>
		<time>2026-03-27T16:18:02Z</time>
	</wpt>
	<wpt lat="59.842789791821886" lon="17.6198076745269">
		<ele>54.99440273270011</ele>
		<time>2026-03-27T16:18:22Z</time>
	</wpt>
	<wpt lat="59.84289397743212" lon="17.620216040574274">
		<ele>55.81556982640177</ele>
		<time>2026-03-27T16:18:41Z</time>
	</wpt>
	<wpt lat="59.84289219047149" lon="17.620682813043054">
		<ele>54.52808838430792</ele>
		<time>2026-03-27T16:18:59Z</time>
	</wpt>
	<wpt lat="59.84287243390108" lon="17.62113189466886">
		<ele>54.16779980715364</ele>
		<time>2026-03-27T16:19:17Z</time>
	</wpt>
	<wpt lat="59.842864628903605" lon="17.621590727147368">
		<ele>55.10120869614184</ele>
		<time>2026-03-27T16:19:35Z</time>
	</wpt>
	<wpt lat="59.84285450604309" lon="17.622040861316503">
		<ele>54.49695303756744</ele>
		<time>2026-03-27T16:19:53Z</time>
	</wpt>
	<wpt lat="59.84287379641042" lon="17.622499301893885">
		<ele>53.441956309601665</ele>
		<time>2026-03-27T16:20:22Z</time>
	</wpt>
	<wpt lat="59.842880078097366" lon="17.622947936389405">
		<ele>52.431448213756084</ele>
		<time>2026-03-27T16:20:39Z</time>
	</wpt>
	<wpt lat="59.84283624587905" lon="17.623401427646282">
		<ele>49.36445409990847</ele>
		<time>2026-03-27T16:20:55Z</time>
	</wpt>
	<wpt lat="59.84281125834353" lon="17.6238484700704">
		<ele>50.87023459468037</ele>
		<time>2026-03-27T16:21:15Z</time>
	</wpt>
	<wpt lat="59.84281867647507" lon="17.62430413012581">
		<ele>51.81881092116237</ele>
		<time>2026-03-27T16:21:34Z</time>
	</wpt>
	<wpt lat="59.84281064442521" lon="17.62478381817776">
		<ele>49.94085822161287</ele>
		<time>2026-03-27T16:21:52Z</time>
	</wpt>
	<wpt lat="59.842812333682545" lon="17.625249727083872">
		<ele>49.26514251064509</ele>
		<time>2026-03-27T16:22:13Z</time>
	</wpt>
	<wpt lat="59.842796045893515" lon="17.625711124887005">
		<ele>48.26018424425274</ele>
		<time>2026-03-27T16:22:32Z</time>
	</wpt>
	<wpt lat="59.842802148272625" lon="17.62616392005125">
		<ele>48.525052729062736</ele>
		<time>2026-03-27T16:22:51Z</time>
	</wpt>
	<wpt lat="59.84278347490102" lon="17.62662029146351">
		<ele>47.59282621741295</ele>
		<time>2026-03-27T16:23:10Z</time>
	</wpt>
	<wpt lat="59.84295784843093" lon="17.62693154746541">
		<ele>43.45581387821585</ele>
		<time>2026-03-27T16:23:35Z</time>
	</wpt>
	<wpt lat="59.843155768949885" lon="17.62718268629492">
		<ele>39.31018764153123</ele>
		<time>2026-03-27T16:24:01Z</time>
	</wpt>
	<wpt lat="59.84338511827674" lon="17.627148208448432">
		<ele>39.481419992633164</ele>
		<time>2026-03-27T16:24:26Z</time>
	</wpt>
	<wpt lat="59.84350900962081" lon="17.62675694110375">
		<ele>36.110807937569916</ele>
		<time>2026-03-27T16:24:45Z</time>
	</wpt>
	<wpt lat="59.843569871841396" lon="17.627209214426472">
		<ele>35.59876992274076</ele>
		<time>2026-03-27T16:26:18Z</time>
	</wpt>
	<wpt lat="59.843764756242564" lon="17.62757691822569">
		<ele>33.081861549057066</ele>
		<time>2026-03-27T16:26:25Z</time>
	</wpt>
	<wpt lat="59.84394360409253" lon="17.62797356169766">
		<ele>30.926486706361175</ele>
		<time>2026-03-27T16:26:30Z</time>
	</wpt>
	<wpt lat="59.84410893014038" lon="17.628362246480666">
		<ele>29.6234490852803</ele>
		<time>2026-03-27T16:26:34Z</time>
	</wpt>
	<wpt lat="59.84428072491916" lon="17.62880480366783">
		<ele>28.674184830859303</ele>
		<time>2026-03-27T16:26:38Z</time>
	</wpt>
	<wpt lat="59.844439508125674" lon="17.629250875171547">
		<ele>28.393673012033105</ele>
		<time>2026-03-27T16:26:42Z</time>
	</wpt>
	<wpt lat="59.844566782927494" lon="17.629650448127006">
		<ele>27.992130937986076</ele>
		<time>2026-03-27T16:26:46Z</time>
	</wpt>
	<wpt lat="59.84469442429615" lon="17.630085621167183">
		<ele>27.830245240591466</ele>
		<time>2026-03-27T16:26:50Z</time>
	</wpt>
	<wpt lat="59.844839874942444" lon="17.63046532851521">
		<ele>27.642466171644628</ele>
		<time>2026-03-27T16:26:54Z</time>
	</wpt>
	<wpt lat="59.844977188222686" lon="17.63092031142143">
		<ele>27.521233883686364</ele>
		<time>2026-03-27T16:26:58Z</time>
	</wpt>
	<wpt lat="59.8451447259156" lon="17.63131957793708">
		<ele>27.280923306941986</ele>
		<time>2026-03-27T16:27:04Z</time>
	</wpt>
	<wpt lat="59.84538335185707" lon="17.631428114962272">
		<ele>27.36523706652224</ele>
		<time>2026-03-27T16:27:16Z</time>
	</wpt>
	<wpt lat="59.84560229742272" lon="17.63111728358454">
		<ele>27.028926081955433</ele>
		<time>2026-03-27T16:27:20Z</time>
	</wpt>
	<wpt lat="59.84580161377911" lon="17.630851959084584">
		<ele>26.74230603966862</ele>
		<time>2026-03-27T16:27:24Z</time>
	</wpt>
	<wpt lat="59.846016362685724" lon="17.63066938451886">
		<ele>26.32124487310648</ele>
		<time>2026-03-27T16:27:32Z</time>
	</wpt>
	<wpt lat="59.846232492607356" lon="17.63044907869009">
		<ele>25.97134165186435</ele>
		<time>2026-03-27T16:27:38Z</time>
	</wpt>
	<wpt lat="59.84646901400042" lon="17.6302755572547">
		<ele>25.88219990581274</ele>
		<time>2026-03-27T16:27:42Z</time>
	</wpt>
	<wpt lat="59.8467327039573" lon="17.63008590931774">
		<ele>25.74477956444025</ele>
		<time>2026-03-27T16:27:46Z</time>
	</wpt>
	<wpt lat="59.846987091638574" lon="17.629891592042167">
		<ele>25.37563458736986</ele>
		<time>2026-03-27T16:27:50Z</time>
	</wpt>
	<wpt lat="59.84725531609825" lon="17.62969254288357">
		<ele>25.165305759757757</ele>
		<time>2026-03-27T16:27:54Z</time>
	</wpt>
	<wpt lat="59.847515970965674" lon="17.62947797297754">
		<ele>25.070142189972103</ele>
		<time>2026-03-27T16:27:58Z</time>
	</wpt>
	<wpt lat="59.847729615592485" lon="17.629338132909492">
		<ele>25.29794958885759</ele>
		<time>2026-03-27T16:28:01Z</time>
	</wpt>
	<wpt lat="59.84796671716423" lon="17.62914329426364">
		<ele>25.553785738535225</ele>
		<time>2026-03-27T16:28:05Z</time>
	</wpt>
	<wpt lat="59.84820652972554" lon="17.62890452827747">
		<ele>25.558276898227632</ele>
		<time>2026-03-27T16:28:09Z</time>
	</wpt>
	<wpt lat="59.84841851167516" lon="17.628680744393755">
		<ele>25.833193700760603</ele>
		<time>2026-03-27T16:28:13Z</time>
	</wpt>
	<wpt lat="59.848639529653006" lon="17.628435682307927">
		<ele>26.166557502932847</ele>
		<time>2026-03-27T16:28:17Z</time>
	</wpt>
	<wpt lat="59.84888343576378" lon="17.62817278763478">
		<ele>26.39572682417929</ele>
		<time>2026-03-27T16:28:21Z</time>
	</wpt>
	<wpt lat="59.849126469051456" lon="17.628018986874256">
		<ele>26.45638452656567</ele>
		<time>2026-03-27T16:28:24Z</time>
	</wpt>
	<wpt lat="59.84936441898693" lon="17.62772573911477">
		<ele>26.466712155379355</ele>
		<time>2026-03-27T16:28:28Z</time>
	</wpt>
	<wpt lat="59.849623568091786" lon="17.627537306733938">
		<ele>26.479830130934715</ele>
		<time>2026-03-27T16:28:31Z</time>
	</wpt>
	<wpt lat="59.84988565764063" lon="17.627280712496148">
		<ele>26.60837598890066</ele>
		<time>2026-03-27T16:28:35Z</time>
	</wpt>
	<wpt lat="59.85015344934821" lon="17.627041179705493">
		<ele>25.995072700083256</ele>
		<time>2026-03-27T16:28:39Z</time>
	</wpt>
	<wpt lat="59.85046089319619" lon="17.626757908258398">
		<ele>26.295242462307215</ele>
		<time>2026-03-27T16:28:43Z</time>
	</wpt>
	<wpt lat="59.85069860374978" lon="17.626559987048875">
		<ele>26.00415146537125</ele>
		<time>2026-03-27T16:28:47Z</time>
	</wpt>
	<wpt lat="59.850919997454845" lon="17.626416237762676">
		<ele>25.980456184595823</ele>
		<time>2026-03-27T16:28:53Z</time>
	</wpt>
	<wpt lat="59.851045634116645" lon="17.62684818935314">
		<ele>25.732810641638935</ele>
		<time>2026-03-27T16:29:02Z</time>
	</wpt>
	<wpt lat="59.851137362605186" lon="17.62726139148436">
		<ele>25.308686814270914</ele>
		<time>2026-03-27T16:29:05Z</time>
	</wpt>
	<wpt lat="59.85125156758187" lon="17.627849668973766">
		<ele>24.758794491179287</ele>
		<time>2026-03-27T16:29:09Z</time>
	</wpt>
	<wpt lat="59.85135883498805" lon="17.62831636552529">
		<ele>24.503626558929682</ele>
		<time>2026-03-27T16:29:12Z</time>
	</wpt>
	<wpt lat="59.8514576054902" lon="17.628823880136125">
		<ele>24.589275187812746</ele>
		<time>2026-03-27T16:29:15Z</time>
	</wpt>
	<wpt lat="59.851563408632146" lon="17.62930156501463">
		<ele>24.66304165031761</ele>
		<time>2026-03-27T16:29:18Z</time>
	</wpt>
	<wpt lat="59.85166015274474" lon="17.62979930018569">
		<ele>24.971586357802153</ele>
		<time>2026-03-27T16:29:21Z</time>
	</wpt>
	<wpt lat="59.85176363380608" lon="17.630254093667606">
		<ele>25.55252226255834</ele>
		<time>2026-03-27T16:29:24Z</time>
	</wpt>
	<wpt lat="59.85186337877212" lon="17.630722772239448">
		<ele>25.50258844345808</ele>
		<time>2026-03-27T16:29:27Z</time>
	</wpt>
	<wpt lat="59.85197886580465" lon="17.631225723623512">
		<ele>25.78829488903284</ele>
		<time>2026-03-27T16:29:30Z</time>
	</wpt>
	<wpt lat="59.85209357386822" lon="17.6317267881405">
		<ele>26.377116811461747</ele>
		<time>2026-03-27T16:29:33Z</time>
	</wpt>
	<wpt lat="59.8521946230977" lon="17.632249933439212">
		<ele>27.042000932618976</ele>
		<time>2026-03-27T16:29:36Z</time>
	</wpt>
	<wpt lat="59.85227516952015" lon="17.632719944457552">
		<ele>27.95427377615124</ele>
		<time>2026-03-27T16:29:39Z</time>
	</wpt>
	<wpt lat="59.852342896005986" lon="17.633259946260093">
		<ele>29.478433550335467</ele>
		<time>2026-03-27T16:29:43Z</time>
	</wpt>
	<wpt lat="59.8524920606909" lon="17.63370127288194">
		<ele>31.4371028682217</ele>
		<time>2026-03-27T16:30:01Z</time>
	</wpt>
	<wpt lat="59.85274803381149" lon="17.633528875645496">
		<ele>32.25978662353009</ele>
		<time>2026-03-27T16:30:05Z</time>
	</wpt>
	<wpt lat="59.85297979450288" lon="17.6333441794995">
		<ele>32.82375626266003</ele>
		<time>2026-03-27T16:30:08Z</time>
	</wpt>
	<wpt lat="59.85324033810557" lon="17.633129003630927">
		<ele>32.85622865334153</ele>
		<time>2026-03-27T16:30:11Z</time>
	</wpt>
	<wpt lat="59.85351837980709" lon="17.632929556135167">
		<ele>32.34310294594616</ele>
		<time>2026-03-27T16:30:14Z</time>
	</wpt>
	<wpt lat="59.85381723263504" lon="17.632722245798607">
		<ele>31.68094110582024</ele>
		<time>2026-03-27T16:30:17Z</time>
	</wpt>
	<wpt lat="59.85406685904623" lon="17.6326442057797">
		<ele>30.841189933009446</ele>
		<time>2026-03-27T16:30:20Z</time>
	</wpt>
	<wpt lat="59.85434201889013" lon="17.63259789835114">
		<ele>29.830201556906104</ele>
		<time>2026-03-27T16:30:23Z</time>
	</wpt>
	<wpt lat="59.85461178206485" lon="17.63248871658217">
		<ele>29.053146669641137</ele>
		<time>2026-03-27T16:30:26Z</time>
	</wpt>
	<wpt lat="59.85486791309538" lon="17.632402338827486">
		<ele>27.86883733700961</ele>
		<time>2026-03-27T16:30:29Z</time>
	</wpt>
	<wpt lat="59.85513183366437" lon="17.63226254389222">
		<ele>26.830151009373367</ele>
		<time>2026-03-27T16:30:33Z</time>
	</wpt>
	<wpt lat="59.855382794734815" lon="17.63211340443278">
		<ele>26.188542991876602</ele>
		<time>2026-03-27T16:30:48Z</time>
	</wpt>
	<wpt lat="59.85557034759327" lon="17.631858396049324">
		<ele>26.389285260811448</ele>
		<time>2026-03-27T16:30:52Z</time>
	</wpt>
	<wpt lat="59.855777011974865" lon="17.63147543606446">
		<ele>27.433388650417328</ele>
		<time>2026-03-27T16:30:56Z</time>
	</wpt>
	<wpt lat="59.85595025382658" lon="17.631159014971868">
		<ele>27.270671815611422</ele>
		<time>2026-03-27T16:30:59Z</time>
	</wpt>
	<wpt lat="59.85613041476145" lon="17.6308557337028">
		<ele>27.58709090668708</ele>
		<time>2026-03-27T16:31:02Z</time>
	</wpt>
	<wpt lat="59.8563264876447" lon="17.63053105464183">
		<ele>26.64161063171923</ele>
		<time>2026-03-27T16:31:06Z</time>
	</wpt>
	<wpt lat="59.85650888224391" lon="17.630245176744868">
		<ele>27.187638289295137</ele>
		<time>2026-03-27T16:31:18Z</time>
	</wpt>
	<wpt lat="59.856687185648575" lon="17.629883365594857">
		<ele>27.091024813242257</ele>
		<time>2026-03-27T16:31:24Z</time>
	</wpt>
	<wpt lat="59.856859281539826" lon="17.629581453913328">
		<ele>26.851053287275136</ele>
		<time>2026-03-27T16:31:28Z</time>
	</wpt>
	<wpt lat="59.857066977026584" lon="17.6292201387276">
		<ele>26.529594220221043</ele>
		<time>2026-03-27T16:31:32Z</time>
	</wpt>
	<wpt lat="59.8572809066759" lon="17.62889008272358">
		<ele>26.442100496031344</ele>
		<time>2026-03-27T16:31:36Z</time>
	</wpt>
	<wpt lat="59.857475592660954" lon="17.62854820042626">
		<ele>26.00831360463053</ele>
		<time>2026-03-27T16:31:41Z</time>
	</wpt>
	<wpt lat="59.857657023440844" lon="17.628261284974073">
		<ele>25.100815314799547</ele>
		<time>2026-03-27T16:31:52Z</time>
	</wpt>
	<wpt lat="59.85760097199095" lon="17.62782131820549">
		<ele>25.141349241137505</ele>
		<time>2026-03-27T16:32:05Z</time>
	</wpt>
	<wpt lat="59.857436095490286" lon="17.627405392862656">
		<ele>25.50278140977025</ele>
		<time>2026-03-27T16:32:11Z</time>
	</wpt>
	<wpt lat="59.857239145659854" lon="17.627034677947407">
		<ele>25.668219548650086</ele>
		<time>2026-03-27T16:32:16Z</time>
	</wpt>
	<wpt lat="59.857102427769874" lon="17.62664980602503">
		<ele>25.027602339163423</ele>
		<time>2026-03-27T16:32:26Z</time>
	</wpt>
	<wpt lat="59.857343773482015" lon="17.626235164117332">
		<ele>23.798905334435403</ele>
		<time>2026-03-27T16:32:30Z</time>
	</wpt>
	<wpt lat="59.8575464756375" lon="17.6258954515874">
		<ele>22.86055113468319</ele>
		<time>2026-03-27T16:32:34Z</time>
	</wpt>
	<wpt lat="59.85769042842551" lon="17.625550083229495">
		<ele>22.197213566862047</ele>
		<time>2026-03-27T16:32:41Z</time>
	</wpt>
	<wpt lat="59.85786099703784" lon="17.62520487273978">
		<ele>21.915061973966658</ele>
		<time>2026-03-27T16:32:47Z</time>
	</wpt>
	<wpt lat="59.85803388023444" lon="17.624817162127517">
		<ele>20.827335288748145</ele>
		<time>2026-03-27T16:32:51Z</time>
	</wpt>
	<wpt lat="59.85821768247761" lon="17.624446553077398">
		<ele>19.716867743991315</ele>
		<time>2026-03-27T16:32:55Z</time>
	</wpt>
	<wpt lat="59.858390741188586" lon="17.624116818365597">
		<ele>18.86660213023424</ele>
		<time>2026-03-27T16:32:59Z</time>
	</wpt>
	<wpt lat="59.85858725224874" lon="17.623717780676557">
		<ele>17.998449468053877</ele>
		<time>2026-03-27T16:33:03Z</time>
	</wpt>
	<wpt lat="59.85876168870401" lon="17.623347537299654">
		<ele>17.28407089971006</ele>
		<time>2026-03-27T16:33:06Z</time>
	</wpt>
	<wpt lat="59.85895369895979" lon="17.62297580105045">
		<ele>16.391920540481806</ele>
		<time>2026-03-27T16:33:09Z</time>
	</wpt>
	<wpt lat="59.85914989821515" lon="17.622614759523128">
		<ele>15.457438341341913</ele>
		<time>2026-03-27T16:33:12Z</time>
	</wpt>
	<wpt lat="59.859344673229415" lon="17.622247100849123">
		<ele>14.91204949002713</ele>
		<time>2026-03-27T16:33:15Z</time>
	</wpt>
	<wpt lat="59.859541543750574" lon="17.621870642795233">
		<ele>14.356776013039052</ele>
		<time>2026-03-27T16:33:18Z</time>
	</wpt>
	<wpt lat="59.859727677214984" lon="17.621539368641812">
		<ele>14.244621485471725</ele>
		<time>2026-03-27T16:33:21Z</time>
	</wpt>
	<wpt lat="59.85991076519123" lon="17.62119981836504">
		<ele>13.899957557208836</ele>
		<time>2026-03-27T16:33:25Z</time>
	</wpt>
	<wpt lat="59.86012383666504" lon="17.6208274921828">
		<ele>13.970716442912817</ele>
		<time>2026-03-27T16:33:31Z</time>
	</wpt>
	<wpt lat="59.860287163661454" lon="17.62051932769102">
		<ele>13.972346943803132</ele>
		<time>2026-03-27T16:33:34Z</time>
	</wpt>
	<wpt lat="59.860460201598904" lon="17.620223974014547">
		<ele>13.861446575261652</ele>
		<time>2026-03-27T16:33:37Z</time>
	</wpt>
	<wpt lat="59.86064632151124" lon="17.619924127178088">
		<ele>13.928197672590613</ele>
		<time>2026-03-27T16:33:41Z</time>
	</wpt>
	<wpt lat="59.86082591549591" lon="17.619653854382822">
		<ele>14.169769789092243</ele>
		<time>2026-03-27T16:34:18Z</time>
	</wpt>
	<wpt lat="59.86105015566288" lon="17.619856563619834">
		<ele>13.55468812957406</ele>
		<time>2026-03-27T16:34:24Z</time>
	</wpt>
	<wpt lat="59.86122223726812" lon="17.620244508307305">
		<ele>13.044929559342563</ele>
		<time>2026-03-27T16:34:27Z</time>
	</wpt>
	<wpt lat="59.861413850048216" lon="17.62070925975208">
		<ele>13.171841486357152</ele>
		<time>2026-03-27T16:34:30Z</time>
	</wpt>
	<wpt lat="59.86160434282742" lon="17.621136956627165">
		<ele>13.065667304210365</ele>
		<time>2026-03-27T16:34:33Z</time>
	</wpt>
	<wpt lat="59.86182627426803" lon="17.621559445163456">
		<ele>13.614232681691647</ele>
		<time>2026-03-27T16:34:36Z</time>
	</wpt>
	<wpt lat="59.86203731945146" lon="17.622031021649782">
		<ele>13.195222517475486</ele>
		<time>2026-03-27T16:34:39Z</time>
	</wpt>
	<trk>
		<trkseg>
			<trkpt lat="59.84332290052473" lon="17.6273312452991">
				<ele>36.357460806146264</ele>
				<time>2026-03-27T15:39:50Z</time>
			</trkpt>
			<trkpt lat="59.84313135050531" lon="17.627613161995498">
				<ele>38.43881316669285</ele>
				<time>2026-03-27T15:40:15Z</time>
			</trkpt>
			<trkpt lat="59.842919084522165" lon="17.62746674179178">
				<ele>40.43324421159923</ele>
				<time>2026-03-27T15:40:39Z</time>
			</trkpt>
			<trkpt lat="59.84278157112008" lon="17.62710163017169">
				<ele>43.14986447803676</ele>
				<time>2026-03-27T15:40:56Z</time>
			</trkpt>
			<trkpt lat="59.8426098289018" lon="17.62680981080355">
				<ele>45.760005382820964</ele>
				<time>2026-03-27T15:41:15Z</time>
			</trkpt>
			<trkpt lat="59.84251682830877" lon="17.627235885308767">
				<ele>45.62629437632859</ele>
				<time>2026-03-27T15:41:33Z</time>
			</trkpt>
			<trkpt lat="59.84230070993749" lon="17.62709275790376">
				<ele>47.72295809909701</ele>
				<time>2026-03-27T15:41:52Z</time>
			</trkpt>
			<trkpt lat="59.842098284629905" lon="17.626870233535833">
				<ele>51.83651624713093</ele>
				<time>2026-03-27T15:42:13Z</time>
			</trkpt>
			<trkpt lat="59.84187351296994" lon="17.627000240750736">
				<ele>52.226899043656886</ele>
				<time>2026-03-27T15:42:35Z</time>
			</trkpt>
			<trkpt lat="59.841660601819775" lon="17.627153065546313">
				<ele>52.45228432957083</ele>
				<time>2026-03-27T15:42:56Z</time>
			</trkpt>
			<trkpt lat="59.841439868129505" lon="17.62731260832978">
				<ele>52.132674656808376</ele>
				<time>2026-03-27T15:43:17Z</time>
			</trkpt>
			<trkpt lat="59.84125256353926" lon="17.6275671377947">
				<ele>51.5606302767992</ele>
				<time>2026-03-27T15:43:35Z</time>
			</trkpt>
			<trkpt lat="59.841053381612326" lon="17.627774015192312">
				<ele>53.09677608590573</ele>
				<time>2026-03-27T15:43:54Z</time>
			</trkpt>
			<trkpt lat="59.840852906436055" lon="17.628043898680627">
				<ele>53.37473691627383</ele>
				<time>2026-03-27T15:44:15Z</time>
			</trkpt>
			<trkpt lat="59.84066944908625" lon="17.628317459508555">
				<ele>54.31509660370648</ele>
				<time>2026-03-27T15:44:33Z</time>
			</trkpt>
			<trkpt lat="59.84050949555022" lon="17.628641499881056">
				<ele>53.683844530023634</ele>
				<time>2026-03-27T15:44:49Z</time>
			</trkpt>
			<trkpt lat="59.84029416805547" lon="17.62878564958637">
				<ele>54.77355403173715</ele>
				<time>2026-03-27T15:45:11Z</time>
			</trkpt>
			<trkpt lat="59.84010621056108" lon="17.6285242734386">
				<ele>54.09050649404526</ele>
				<time>2026-03-27T15:45:30Z</time>
			</trkpt>
			<trkpt lat="59.839877121116686" lon="17.62855215478793">
				<ele>55.068146236240864</ele>
				<time>2026-03-27T15:45:51Z</time>
			</trkpt>
			<trkpt lat="59.83965028905159" lon="17.628619340317652">
				<ele>54.7246030094102</ele>
				<time>2026-03-27T15:46:09Z</time>
			</trkpt>
			<trkpt lat="59.83943733086093" lon="17.628800575754042">
				<ele>55.58796879276633</ele>
				<time>2026-03-27T15:46:25Z</time>
			</trkpt>
			<trkpt lat="59.839309677359125" lon="17.629188908649642">
				<ele>54.33070113044232</ele>
				<time>2026-03-27T15:46:44Z</time>
			</trkpt>
			<trkpt lat="59.83917125567344" lon="17.62954405291693">
				<ele>53.61700516846031</ele>
				<time>2026-03-27T15:47:02Z</time>
			</trkpt>
			<trkpt lat="59.83898388038073" lon="17.629802004260224">
				<ele>52.57163586746901</ele>
				<time>2026-03-27T15:47:22Z</time>
			</trkpt>
			<trkpt lat="59.838768200439375" lon="17.629966191558402">
				<ele>52.33198188431561</ele>
				<time>2026-03-27T15:47:40Z</time>
			</trkpt>
			<trkpt lat="59.83862347108471" lon="17.62960977045944">
				<ele>52.09082233905792</ele>
				<time>2026-03-27T15:48:27Z</time>
			</trkpt>
			<trkpt lat="59.83875666928059" lon="17.629242050709358">
				<ele>53.921469503082335</ele>
				<time>2026-03-27T15:48:55Z</time>
			</trkpt>
			<trkpt lat="59.838876139889344" lon="17.628837136335694">
				<ele>55.75994452275336</ele>
				<time>2026-03-27T15:49:23Z</time>
			</trkpt>
			<trkpt lat="59.838974711090714" lon="17.628415663474318">
				<ele>55.05381538067013</ele>
				<time>2026-03-27T15:49:47Z</time>
			</trkpt>
			<trkpt lat="59.838917785434376" lon="17.627974066851518">
				<ele>54.63736717123538</ele>
				<time>2026-03-27T15:50:08Z</time>
			</trkpt>
			<trkpt lat="59.838849176532754" lon="17.627549380450148">
				<ele>54.26524770259857</ele>
				<time>2026-03-27T15:50:29Z</time>
			</trkpt>
			<trkpt lat="59.838958783018704" lon="17.627151643292166">
				<ele>53.31779606919736</ele>
				<time>2026-03-27T15:50:51Z</time>
			</trkpt>
			<trkpt lat="59.83893458358133" lon="17.626697738217242">
				<ele>54.111343764699996</ele>
				<time>2026-03-27T15:51:14Z</time>
			</trkpt>
			<trkpt lat="59.838749429602274" lon="17.626436449182705">
				<ele>56.126231673173606</ele>
				<time>2026-03-27T15:51:57Z</time>
			</trkpt>
			<trkpt lat="59.8386041476224" lon="17.62608215808959">
				<ele>57.49361137393862</ele>
				<time>2026-03-27T15:52:18Z</time>
			</trkpt>
			<trkpt lat="59.83843807855728" lon="17.625759489100094">
				<ele>56.340150183066726</ele>
				<time>2026-03-27T15:52:41Z</time>
			</trkpt>
			<trkpt lat="59.83831312911692" lon="17.625386635895072">
				<ele>56.49473980348557</ele>
				<time>2026-03-27T15:53:03Z</time>
			</trkpt>
			<trkpt lat="59.838236804958456" lon="17.62496706386284">
				<ele>53.77940756082535</ele>
				<time>2026-03-27T15:53:23Z</time>
			</trkpt>
			<trkpt lat="59.83812997736664" lon="17.624566614510698">
				<ele>52.81293632183224</ele>
				<time>2026-03-27T15:54:56Z</time>
			</trkpt>
			<trkpt lat="59.83799653485829" lon="17.624203658618907">
				<ele>52.95680047478527</ele>
				<time>2026-03-27T15:55:16Z</time>
			</trkpt>
			<trkpt lat="59.83790801387132" lon="17.623749642890385">
				<ele>54.664065287448466</ele>
				<time>2026-03-27T15:55:40Z</time>
			</trkpt>
			<trkpt lat="59.83776028231082" lon="17.62340360991618">
				<ele>55.16383197810501</ele>
				<time>2026-03-27T15:56:03Z</time>
			</trkpt>
			<trkpt lat="59.837547227836424" lon="17.62323606848699">
				<ele>56.30348339769989</ele>
				<time>2026-03-27T15:56:24Z</time>
			</trkpt>
			<trkpt lat="59.83732764732847" lon="17.623343653982992">
				<ele>56.242559797130525</ele>
				<time>2026-03-27T15:56:49Z</time>
			</trkpt>
			<trkpt lat="59.83713614497729" lon="17.623599998891816">
				<ele>54.43512273952365</ele>
				<time>2026-03-27T15:57:10Z</time>
			</trkpt>
			<trkpt lat="59.83691002633549" lon="17.623543731246926">
				<ele>54.096459090709686</ele>
				<time>2026-03-27T15:57:33Z</time>
			</trkpt>
			<trkpt lat="59.83670626625063" lon="17.62373467913379">
				<ele>54.43787315580994</ele>
				<time>2026-03-27T15:57:52Z</time>
			</trkpt>
			<trkpt lat="59.836475306145616" lon="17.6237050168251">
				<ele>54.558785925619304</ele>
				<time>2026-03-27T15:58:14Z</time>
			</trkpt>
			<trkpt lat="59.836251005694955" lon="17.623653633608086">
				<ele>54.72822700999677</ele>
				<time>2026-03-27T15:58:35Z</time>
			</trkpt>
			<trkpt lat="59.83602802461828" lon="17.62360291332192">
				<ele>55.667747562751174</ele>
				<time>2026-03-27T15:58:52Z</time>
			</trkpt>
			<trkpt lat="59.83607640765738" lon="17.623161695631225">
				<ele>56.103043757379055</ele>
				<time>2026-03-27T16:00:21Z</time>
			</trkpt>
			<trkpt lat="59.836200869145934" lon="17.622783292277933">
				<ele>56.63642983324826</ele>
				<time>2026-03-27T16:00:43Z</time>
			</trkpt>
			<trkpt lat="59.83634816383043" lon="17.62242452149038">
				<ele>58.37366486899555</ele>
				<time>2026-03-27T16:00:59Z</time>
			</trkpt>
			<trkpt lat="59.83656106612326" lon="17.62222371592842">
				<ele>56.718681811355054</ele>
				<time>2026-03-27T16:01:24Z</time>
			</trkpt>
			<trkpt lat="59.83674310525962" lon="17.621960668632028">
				<ele>56.38600042555481</ele>
				<time>2026-03-27T16:01:55Z</time>
			</trkpt>
			<trkpt lat="59.83694270085027" lon="17.621756859497896">
				<ele>58.71417179517448</ele>
				<time>2026-03-27T16:03:22Z</time>
			</trkpt>
			<trkpt lat="59.83715237142189" lon="17.621549368977515">
				<ele>58.35578531771898</ele>
				<time>2026-03-27T16:03:44Z</time>
			</trkpt>
			<trkpt lat="59.837364181348306" lon="17.62135732231783">
				<ele>60.362473111599684</ele>
				<time>2026-03-27T16:04:07Z</time>
			</trkpt>
			<trkpt lat="59.83756852936349" lon="17.62111868637915">
				<ele>59.73608240392059</ele>
				<time>2026-03-27T16:04:28Z</time>
			</trkpt>
			<trkpt lat="59.83774510774309" lon="17.620798838705387">
				<ele>57.447856054641306</ele>
				<time>2026-03-27T16:04:50Z</time>
			</trkpt>
			<trkpt lat="59.83784958658392" lon="17.620373579570487">
				<ele>59.050869558006525</ele>
				<time>2026-03-27T16:05:10Z</time>
			</trkpt>
			<trkpt lat="59.83793170051804" lon="17.61994159427654">
				<ele>55.95443872176111</ele>
				<time>2026-03-27T16:05:32Z</time>
			</trkpt>
			<trkpt lat="59.83807237136471" lon="17.61958673493591">
				<ele>52.148528709076345</ele>
				<time>2026-03-27T16:05:52Z</time>
			</trkpt>
			<trkpt lat="59.83827515467722" lon="17.61934342238478">
				<ele>54.8717086892575</ele>
				<time>2026-03-27T16:06:39Z</time>
			</trkpt>
			<trkpt lat="59.83850916645539" lon="17.61928280738406">
				<ele>55.97905511409044</ele>
				<time>2026-03-27T16:07:08Z</time>
			</trkpt>
			<trkpt lat="59.838731084013205" lon="17.619177693018575">
				<ele>55.11723925732076</ele>
				<time>2026-03-27T16:07:30Z</time>
			</trkpt>
			<trkpt lat="59.838969013215205" lon="17.6192015669598">
				<ele>56.52259974554181</ele>
				<time>2026-03-27T16:07:51Z</time>
			</trkpt>
			<trkpt lat="59.83918862361559" lon="17.6193190660798">
				<ele>58.25302785541862</ele>
				<time>2026-03-27T16:08:23Z</time>
			</trkpt>
			<trkpt lat="59.83939204804134" lon="17.6195482722919">
				<ele>58.543623686768115</ele>
				<time>2026-03-27T16:08:48Z</time>
			</trkpt>
			<trkpt lat="59.83957618109803" lon="17.619806145729928">
				<ele>59.99691937677562</ele>
				<time>2026-03-27T16:09:06Z</time>
			</trkpt>
			<trkpt lat="59.83971935385116" lon="17.62015119567628">
				<ele>60.47987447679043</ele>
				<time>2026-03-27T16:09:27Z</time>
			</trkpt>
			<trkpt lat="59.839877112310326" lon="17.620477877922287">
				<ele>58.3335203519091</ele>
				<time>2026-03-27T16:09:47Z</time>
			</trkpt>
			<trkpt lat="59.84001943935247" lon="17.620824443943466">
				<ele>59.55526123289019</ele>
				<time>2026-03-27T16:10:07Z</time>
			</trkpt>
			<trkpt lat="59.840164189492874" lon="17.62117797120991">
				<ele>58.480744851753116</ele>
				<time>2026-03-27T16:10:29Z</time>
			</trkpt>
			<trkpt lat="59.84038748941201" lon="17.62128252151713">
				<ele>58.50231190212071</ele>
				<time>2026-03-27T16:10:51Z</time>
			</trkpt>
			<trkpt lat="59.84062249234527" lon="17.62125434946713">
				<ele>58.31679578591138</ele>
				<time>2026-03-27T16:12:45Z</time>
			</trkpt>
			<trkpt lat="59.84083768368933" lon="17.621415413682158">
				<ele>56.52377387229353</ele>
				<time>2026-03-27T16:13:10Z</time>
			</trkpt>
			<trkpt lat="59.8410645234672" lon="17.621423755356993">
				<ele>56.996541674248874</ele>
				<time>2026-03-27T16:13:32Z</time>
			</trkpt>
			<trkpt lat="59.84125894399945" lon="17.62119102708893">
				<ele>53.93166387081146</ele>
				<time>2026-03-27T16:14:17Z</time>
			</trkpt>
			<trkpt lat="59.84145880791082" lon="17.620917634362257">
				<ele>54.08271378092468</ele>
				<time>2026-03-27T16:15:10Z</time>
			</trkpt>
			<trkpt lat="59.84155925875096" lon="17.620517270181075">
				<ele>52.62063254136592</ele>
				<time>2026-03-27T16:15:34Z</time>
			</trkpt>
			<trkpt lat="59.841652458880354" lon="17.620107189370653">
				<ele>52.577929919585586</ele>
				<time>2026-03-27T16:15:56Z</time>
			</trkpt>
			<trkpt lat="59.84187363381879" lon="17.619966700589362">
				<ele>53.82216326892376</ele>
				<time>2026-03-27T16:16:16Z</time>
			</trkpt>
			<trkpt lat="59.84208382070417" lon="17.61976503973839">
				<ele>56.27823908161372</ele>
				<time>2026-03-27T16:16:38Z</time>
			</trkpt>
			<trkpt lat="59.84225873969776" lon="17.61945914381629">
				<ele>55.074774094857275</ele>
				<time>2026-03-27T16:16:58Z</time>
			</trkpt>
			<trkpt lat="59.84240324068593" lon="17.619112086950544">
				<ele>53.76805671863258</ele>
				<time>2026-03-27T16:17:18Z</time>
			</trkpt>
			<trkpt lat="59.84262574227772" lon="17.618958352511573">
				<ele>51.68902082927525</ele>
				<time>2026-03-27T16:17:40Z</time>
			</trkpt>
			<trkpt lat="59.8426906165226" lon="17.619399369984478">
				<ele>53.707170402631164</ele>
				<time>2026-03-27T16:18:02Z</time>
			</trkpt>
			<trkpt lat="59.842789791821886" lon="17.6198076745269">
				<ele>54.99440273270011</ele>
				<time>2026-03-27T16:18:22Z</time>
			</trkpt>
			<trkpt lat="59.84289397743212" lon="17.620216040574274">
				<ele>55.81556982640177</ele>
				<time>2026-03-27T16:18:41Z</time>
			</trkpt>
			<trkpt lat="59.84289219047149" lon="17.620682813043054">
				<ele>54.52808838430792</ele>
				<time>2026-03-27T16:18:59Z</time>
			</trkpt>
			<trkpt lat="59.84287243390108" lon="17.62113189466886">
				<ele>54.16779980715364</ele>
				<time>2026-03-27T16:19:17Z</time>
			</trkpt>
			<trkpt lat="59.842864628903605" lon="17.621590727147368">
				<ele>55.10120869614184</ele>
				<time>2026-03-27T16:19:35Z</time>
			</trkpt>
			<trkpt lat="59.84285450604309" lon="17.622040861316503">
				<ele>54.49695303756744</ele>
				<time>2026-03-27T16:19:53Z</time>
			</trkpt>
			<trkpt lat="59.84287379641042" lon="17.622499301893885">
				<ele>53.441956309601665</ele>
				<time>2026-03-27T16:20:22Z</time>
			</trkpt>
			<trkpt lat="59.842880078097366" lon="17.622947936389405">
				<ele>52.431448213756084</ele>
				<time>2026-03-27T16:20:39Z</time>
			</trkpt>
			<trkpt lat="59.84283624587905" lon="17.623401427646282">
				<ele>49.36445409990847</ele>
				<time>2026-03-27T16:20:55Z</time>
			</trkpt>
			<trkpt lat="59.84281125834353" lon="17.6238484700704">
				<ele>50.87023459468037</ele>
				<time>2026-03-27T16:21:15Z</time>
			</trkpt>
			<trkpt lat="59.84281867647507" lon="17.62430413012581">
				<ele>51.81881092116237</ele>
				<time>2026-03-27T16:21:34Z</time>
			</trkpt>
			<trkpt lat="59.84281064442521" lon="17.62478381817776">
				<ele>49.94085822161287</ele>
				<time>2026-03-27T16:21:52Z</time>
			</trkpt>
			<trkpt lat="59.842812333682545" lon="17.625249727083872">
				<ele>49.26514251064509</ele>
				<time>2026-03-27T16:22:13Z</time>
			</trkpt>
			<trkpt lat="59.842796045893515" lon="17.625711124887005">
				<ele>48.26018424425274</ele>
				<time>2026-03-27T16:22:32Z</time>
			</trkpt>
			<trkpt lat="59.842802148272625" lon="17.62616392005125">
				<ele>48.525052729062736</ele>
				<time>2026-03-27T16:22:51Z</time>
			</trkpt>
			<trkpt lat="59.84278347490102" lon="17.62662029146351">
				<ele>47.59282621741295</ele>
				<time>2026-03-27T16:23:10Z</time>
			</trkpt>
			<trkpt lat="59.84295784843093" lon="17.62693154746541">
				<ele>43.45581387821585</ele>
				<time>2026-03-27T16:23:35Z</time>
			</trkpt>
			<trkpt lat="59.843155768949885" lon="17.62718268629492">
				<ele>39.31018764153123</ele>
				<time>2026-03-27T16:24:01Z</time>
			</trkpt>
			<trkpt lat="59.84338511827674" lon="17.627148208448432">
				<ele>39.481419992633164</ele>
				<time>2026-03-27T16:24:26Z</time>
			</trkpt>
			<trkpt lat="59.84350900962081" lon="17.62675694110375">
				<ele>36.110807937569916</ele>
				<time>2026-03-27T16:24:45Z</time>
			</trkpt>
			<trkpt lat="59.843569871841396" lon="17.627209214426472">
				<ele>35.59876992274076</ele>
				<time>2026-03-27T16:26:18Z</time>
			</trkpt>
			<trkpt lat="59.843764756242564" lon="17.62757691822569">
				<ele>33.081861549057066</ele>
				<time>2026-03-27T16:26:25Z</time>
			</trkpt>
			<trkpt lat="59.84394360409253" lon="17.62797356169766">
				<ele>30.926486706361175</ele>
				<time>2026-03-27T16:26:30Z</time>
			</trkpt>
			<trkpt lat="59.84410893014038" lon="17.628362246480666">
				<ele>29.6234490852803</ele>
				<time>2026-03-27T16:26:34Z</time>
			</trkpt>
			<trkpt lat="59.84428072491916" lon="17.62880480366783">
				<ele>28.674184830859303</ele>
				<time>2026-03-27T16:26:38Z</time>
			</trkpt>
			<trkpt lat="59.844439508125674" lon="17.629250875171547">
				<ele>28.393673012033105</ele>
				<time>2026-03-27T16:26:42Z</time>
			</trkpt>
			<trkpt lat="59.844566782927494" lon="17.629650448127006">
				<ele>27.992130937986076</ele>
				<time>2026-03-27T16:26:46Z</time>
			</trkpt>
			<trkpt lat="59.84469442429615" lon="17.630085621167183">
				<ele>27.830245240591466</ele>
				<time>2026-03-27T16:26:50Z</time>
			</trkpt>
			<trkpt lat="59.844839874942444" lon="17.63046532851521">
				<ele>27.642466171644628</ele>
				<time>2026-03-27T16:26:54Z</time>
			</trkpt>
			<trkpt lat="59.844977188222686" lon="17.63092031142143">
				<ele>27.521233883686364</ele>
				<time>2026-03-27T16:26:58Z</time>
			</trkpt>
			<trkpt lat="59.8451447259156" lon="17.63131957793708">
				<ele>27.280923306941986</ele>
				<time>2026-03-27T16:27:04Z</time>
			</trkpt>
			<trkpt lat="59.84538335185707" lon="17.631428114962272">
				<ele>27.36523706652224</ele>
				<time>2026-03-27T16:27:16Z</time>
			</trkpt>
			<trkpt lat="59.84560229742272" lon="17.63111728358454">
				<ele>27.028926081955433</ele>
				<time>2026-03-27T16:27:20Z</time>
			</trkpt>
			<trkpt lat="59.84580161377911" lon="17.630851959084584">
				<ele>26.74230603966862</ele>
				<time>2026-03-27T16:27:24Z</time>
			</trkpt>
			<trkpt lat="59.846016362685724" lon="17.63066938451886">
				<ele>26.32124487310648</ele>
				<time>2026-03-27T16:27:32Z</time>
			</trkpt>
			<trkpt lat="59.846232492607356" lon="17.63044907869009">
				<ele>25.97134165186435</ele>
				<time>2026-03-27T16:27:38Z</time>
			</trkpt>
			<trkpt lat="59.84646901400042" lon="17.6302755572547">
				<ele>25.88219990581274</ele>
				<time>2026-03-27T16:27:42Z</time>
			</trkpt>
			<trkpt lat="59.8467327039573" lon="17.63008590931774">
				<ele>25.74477956444025</ele>
				<time>2026-03-27T16:27:46Z</time>
			</trkpt>
			<trkpt lat="59.846987091638574" lon="17.629891592042167">
				<ele>25.37563458736986</ele>
				<time>2026-03-27T16:27:50Z</time>
			</trkpt>
			<trkpt lat="59.84725531609825" lon="17.62969254288357">
				<ele>25.165305759757757</ele>
				<time>2026-03-27T16:27:54Z</time>
			</trkpt>
			<trkpt lat="59.847515970965674" lon="17.62947797297754">
				<ele>25.070142189972103</ele>
				<time>2026-03-27T16:27:58Z</time>
			</trkpt>
			<trkpt lat="59.847729615592485" lon="17.629338132909492">
				<ele>25.29794958885759</ele>
				<time>2026-03-27T16:28:01Z</time>
			</trkpt>
			<trkpt lat="59.84796671716423" lon="17.62914329426364">
				<ele>25.553785738535225</ele>
				<time>2026-03-27T16:28:05Z</time>
			</trkpt>
			<trkpt lat="59.84820652972554" lon="17.62890452827747">
				<ele>25.558276898227632</ele>
				<time>2026-03-27T16:28:09Z</time>
			</trkpt>
			<trkpt lat="59.84841851167516" lon="17.628680744393755">
				<ele>25.833193700760603</ele>
				<time>2026-03-27T16:28:13Z</time>
			</trkpt>
			<trkpt lat="59.848639529653006" lon="17.628435682307927">
				<ele>26.166557502932847</ele>
				<time>2026-03-27T16:28:17Z</time>
			</trkpt>
			<trkpt lat="59.84888343576378" lon="17.62817278763478">
				<ele>26.39572682417929</ele>
				<time>2026-03-27T16:28:21Z</time>
			</trkpt>
			<trkpt lat="59.849126469051456" lon="17.628018986874256">
				<ele>26.45638452656567</ele>
				<time>2026-03-27T16:28:24Z</time>
			</trkpt>
			<trkpt lat="59.84936441898693" lon="17.62772573911477">
				<ele>26.466712155379355</ele>
				<time>2026-03-27T16:28:28Z</time>
			</trkpt>
			<trkpt lat="59.849623568091786" lon="17.627537306733938">
				<ele>26.479830130934715</ele>
				<time>2026-03-27T16:28:31Z</time>
			</trkpt>
			<trkpt lat="59.84988565764063" lon="17.627280712496148">
				<ele>26.60837598890066</ele>
				<time>2026-03-27T16:28:35Z</time>
			</trkpt>
			<trkpt lat="59.85015344934821" lon="17.627041179705493">
				<ele>25.995072700083256</ele>
				<time>2026-03-27T16:28:39Z</time>
			</trkpt>
			<trkpt lat="59.85046089319619" lon="17.626757908258398">
				<ele>26.295242462307215</ele>
				<time>2026-03-27T16:28:43Z</time>
			</trkpt>
			<trkpt lat="59.85069860374978" lon="17.626559987048875">
				<ele>26.00415146537125</ele>
				<time>2026-03-27T16:28:47Z</time>
			</trkpt>
			<trkpt lat="59.850919997454845" lon="17.626416237762676">
				<ele>25.980456184595823</ele>
				<time>2026-03-27T16:28:53Z</time>
			</trkpt>
			<trkpt lat="59.851045634116645" lon="17.62684818935314">
				<ele>25.732810641638935</ele>
				<time>2026-03-27T16:29:02Z</time>
			</trkpt>
			<trkpt lat="59.851137362605186" lon="17.62726139148436">
				<ele>25.308686814270914</ele>
				<time>2026-03-27T16:29:05Z</time>
			</trkpt>
			<trkpt lat="59.85125156758187" lon="17.627849668973766">
				<ele>24.758794491179287</ele>
				<time>2026-03-27T16:29:09Z</time>
			</trkpt>
			<trkpt lat="59.85135883498805" lon="17.62831636552529">
				<ele>24.503626558929682</ele>
				<time>2026-03-27T16:29:12Z</time>
			</trkpt>
			<trkpt lat="59.8514576054902" lon="17.628823880136125">
				<ele>24.589275187812746</ele>
				<time>2026-03-27T16:29:15Z</time>
			</trkpt>
			<trkpt lat="59.851563408632146" lon="17.62930156501463">
				<ele>24.66304165031761</ele>
				<time>2026-03-27T16:29:18Z</time>
			</trkpt>
			<trkpt lat="59.85166015274474" lon="17.62979930018569">
				<ele>24.971586357802153</ele>
				<time>2026-03-27T16:29:21Z</time>
			</trkpt>
			<trkpt lat="59.85176363380608" lon="17.630254093667606">
				<ele>25.55252226255834</ele>
				<time>2026-03-27T16:29:24Z</time>
			</trkpt>
			<trkpt lat="59.85186337877212" lon="17.630722772239448">
				<ele>25.50258844345808</ele>
				<time>2026-03-27T16:29:27Z</time>
			</trkpt>
			<trkpt lat="59.85197886580465" lon="17.631225723623512">
				<ele>25.78829488903284</ele>
				<time>2026-03-27T16:29:30Z</time>
			</trkpt>
			<trkpt lat="59.85209357386822" lon="17.6317267881405">
				<ele>26.377116811461747</ele>
				<time>2026-03-27T16:29:33Z</time>
			</trkpt>
			<trkpt lat="59.8521946230977" lon="17.632249933439212">
				<ele>27.042000932618976</ele>
				<time>2026-03-27T16:29:36Z</time>
			</trkpt>
			<trkpt lat="59.85227516952015" lon="17.632719944457552">
				<ele>27.95427377615124</ele>
				<time>2026-03-27T16:29:39Z</time>
			</trkpt>
			<trkpt lat="59.852342896005986" lon="17.633259946260093">
				<ele>29.478433550335467</ele>
				<time>2026-03-27T16:29:43Z</time>
			</trkpt>
			<trkpt lat="59.8524920606909" lon="17.63370127288194">
				<ele>31.4371028682217</ele>
				<time>2026-03-27T16:30:01Z</time>
			</trkpt>
			<trkpt lat="59.85274803381149" lon="17.633528875645496">
				<ele>32.25978662353009</ele>
				<time>2026-03-27T16:30:05Z</time>
			</trkpt>
			<trkpt lat="59.85297979450288" lon="17.6333441794995">
				<ele>32.82375626266003</ele>
				<time>2026-03-27T16:30:08Z</time>
			</trkpt>
			<trkpt lat="59.85324033810557" lon="17.633129003630927">
				<ele>32.85622865334153</ele>
				<time>2026-03-27T16:30:11Z</time>
			</trkpt>
			<trkpt lat="59.85351837980709" lon="17.632929556135167">
				<ele>32.34310294594616</ele>
				<time>2026-03-27T16:30:14Z</time>
			</trkpt>
			<trkpt lat="59.85381723263504" lon="17.632722245798607">
				<ele>31.68094110582024</ele>
				<time>2026-03-27T16:30:17Z</time>
			</trkpt>
			<trkpt lat="59.85406685904623" lon="17.6326442057797">
				<ele>30.841189933009446</ele>
				<time>2026-03-27T16:30:20Z</time>
			</trkpt>
			<trkpt lat="59.85434201889013" lon="17.63259789835114">
				<ele>29.830201556906104</ele>
				<time>2026-03-27T16:30:23Z</time>
			</trkpt>
			<trkpt lat="59.85461178206485" lon="17.63248871658217">
				<ele>29.053146669641137</ele>
				<time>2026-03-27T16:30:26Z</time>
			</trkpt>
			<trkpt lat="59.85486791309538" lon="17.632402338827486">
				<ele>27.86883733700961</ele>
				<time>2026-03-27T16:30:29Z</time>
			</trkpt>
			<trkpt lat="59.85513183366437" lon="17.63226254389222">
				<ele>26.830151009373367</ele>
				<time>2026-03-27T16:30:33Z</time>
			</trkpt>
			<trkpt lat="59.855382794734815" lon="17.63211340443278">
				<ele>26.188542991876602</ele>
				<time>2026-03-27T16:30:48Z</time>
			</trkpt>
			<trkpt lat="59.85557034759327" lon="17.631858396049324">
				<ele>26.389285260811448</ele>
				<time>2026-03-27T16:30:52Z</time>
			</trkpt>
			<trkpt lat="59.855777011974865" lon="17.63147543606446">
				<ele>27.433388650417328</ele>
				<time>2026-03-27T16:30:56Z</time>
			</trkpt>
			<trkpt lat="59.85595025382658" lon="17.631159014971868">
				<ele>27.270671815611422</ele>
				<time>2026-03-27T16:30:59Z</time>
			</trkpt>
			<trkpt lat="59.85613041476145" lon="17.6308557337028">
				<ele>27.58709090668708</ele>
				<time>2026-03-27T16:31:02Z</time>
			</trkpt>
			<trkpt lat="59.8563264876447" lon="17.63053105464183">
				<ele>26.64161063171923</ele>
				<time>2026-03-27T16:31:06Z</time>
			</trkpt>
			<trkpt lat="59.85650888224391" lon="17.630245176744868">
				<ele>27.187638289295137</ele>
				<time>2026-03-27T16:31:18Z</time>
			</trkpt>
			<trkpt lat="59.856687185648575" lon="17.629883365594857">
				<ele>27.091024813242257</ele>
				<time>2026-03-27T16:31:24Z</time>
			</trkpt>
			<trkpt lat="59.856859281539826" lon="17.629581453913328">
				<ele>26.851053287275136</ele>
				<time>2026-03-27T16:31:28Z</time>
			</trkpt>
			<trkpt lat="59.857066977026584" lon="17.6292201387276">
				<ele>26.529594220221043</ele>
				<time>2026-03-27T16:31:32Z</time>
			</trkpt>
			<trkpt lat="59.8572809066759" lon="17.62889008272358">
				<ele>26.442100496031344</ele>
				<time>2026-03-27T16:31:36Z</time>
			</trkpt>
			<trkpt lat="59.857475592660954" lon="17.62854820042626">
				<ele>26.00831360463053</ele>
				<time>2026-03-27T16:31:41Z</time>
			</trkpt>
			<trkpt lat="59.857657023440844" lon="17.628261284974073">
				<ele>25.100815314799547</ele>
				<time>2026-03-27T16:31:52Z</time>
			</trkpt>
			<trkpt lat="59.85760097199095" lon="17.62782131820549">
				<ele>25.141349241137505</ele>
				<time>2026-03-27T16:32:05Z</time>
			</trkpt>
			<trkpt lat="59.857436095490286" lon="17.627405392862656">
				<ele>25.50278140977025</ele>
				<time>2026-03-27T16:32:11Z</time>
			</trkpt>
			<trkpt lat="59.857239145659854" lon="17.627034677947407">
				<ele>25.668219548650086</ele>
				<time>2026-03-27T16:32:16Z</time>
			</trkpt>
			<trkpt lat="59.857102427769874" lon="17.62664980602503">
				<ele>25.027602339163423</ele>
				<time>2026-03-27T16:32:26Z</time>
			</trkpt>
			<trkpt lat="59.857343773482015" lon="17.626235164117332">
				<ele>23.798905334435403</ele>
				<time>2026-03-27T16:32:30Z</time>
			</trkpt>
			<trkpt lat="59.8575464756375" lon="17.6258954515874">
				<ele>22.86055113468319</ele>
				<time>2026-03-27T16:32:34Z</time>
			</trkpt>
			<trkpt lat="59.85769042842551" lon="17.625550083229495">
				<ele>22.197213566862047</ele>
				<time>2026-03-27T16:32:41Z</time>
			</trkpt>
			<trkpt lat="59.85786099703784" lon="17.62520487273978">
				<ele>21.915061973966658</ele>
				<time>2026-03-27T16:32:47Z</time>
			</trkpt>
			<trkpt lat="59.85803388023444" lon="17.624817162127517">
				<ele>20.827335288748145</ele>
				<time>2026-03-27T16:32:51Z</time>
			</trkpt>
			<trkpt lat="59.85821768247761" lon="17.624446553077398">
				<ele>19.716867743991315</ele>
				<time>2026-03-27T16:32:55Z</time>
			</trkpt>
			<trkpt lat="59.858390741188586" lon="17.624116818365597">
				<ele>18.86660213023424</ele>
				<time>2026-03-27T16:32:59Z</time>
			</trkpt>
			<trkpt lat="59.85858725224874" lon="17.623717780676557">
				<ele>17.998449468053877</ele>
				<time>2026-03-27T16:33:03Z</time>
			</trkpt>
			<trkpt lat="59.85876168870401" lon="17.623347537299654">
				<ele>17.28407089971006</ele>
				<time>2026-03-27T16:33:06Z</time>
			</trkpt>
			<trkpt lat="59.85895369895979" lon="17.62297580105045">
				<ele>16.391920540481806</ele>
				<time>2026-03-27T16:33:09Z</time>
			</trkpt>
			<trkpt lat="59.85914989821515" lon="17.622614759523128">
				<ele>15.457438341341913</ele>
				<time>2026-03-27T16:33:12Z</time>
			</trkpt>
			<trkpt lat="59.859344673229415" lon="17.622247100849123">
				<ele>14.91204949002713</ele>
				<time>2026-03-27T16:33:15Z</time>
			</trkpt>
			<trkpt lat="59.859541543750574" lon="17.621870642795233">
				<ele>14.356776013039052</ele>
				<time>2026-03-27T16:33:18Z</time>
			</trkpt>
			<trkpt lat="59.859727677214984" lon="17.621539368641812">
				<ele>14.244621485471725</ele>
				<time>2026-03-27T16:33:21Z</time>
			</trkpt>
			<trkpt lat="59.85991076519123" lon="17.62119981836504">
				<ele>13.899957557208836</ele>
				<time>2026-03-27T16:33:25Z</time>
			</trkpt>
			<trkpt lat="59.86012383666504" lon="17.6208274921828">
				<ele>13.970716442912817</ele>
				<time>2026-03-27T16:33:31Z</time>
			</trkpt>
			<trkpt lat="59.860287163661454" lon="17.62051932769102">
				<ele>13.972346943803132</ele>
				<time>2026-03-27T16:33:34Z</time>
			</trkpt>
			<trkpt lat="59.860460201598904" lon="17.620223974014547">
				<ele>13.861446575261652</ele>
				<time>2026-03-27T16:33:37Z</time>
			</trkpt>
			<trkpt lat="59.86064632151124" lon="17.619924127178088">
				<ele>13.928197672590613</ele>
				<time>2026-03-27T16:33:41Z</time>
			</trkpt>
			<trkpt lat="59.86082591549591" lon="17.619653854382822">
				<ele>14.169769789092243</ele>
				<time>2026-03-27T16:34:18Z</time>
			</trkpt>
			<trkpt lat="59.86105015566288" lon="17.619856563619834">
				<ele>13.55468812957406</ele>
				<time>2026-03-27T16:34:24Z</time>
			</trkpt>
			<trkpt lat="59.86122223726812" lon="17.620244508307305">
				<ele>13.044929559342563</ele>
				<time>2026-03-27T16:34:27Z</time>
			</trkpt>
			<trkpt lat="59.861413850048216" lon="17.62070925975208">
				<ele>13.171841486357152</ele>
				<time>2026-03-27T16:34:30Z</time>
			</trkpt>
			<trkpt lat="59.86160434282742" lon="17.621136956627165">
				<ele>13.065667304210365</ele>
				<time>2026-03-27T16:34:33Z</time>
			</trkpt>
			<trkpt lat="59.86182627426803" lon="17.621559445163456">
				<ele>13.614232681691647</ele>
				<time>2026-03-27T16:34:36Z</time>
			</trkpt>
			<trkpt lat="59.86203731945146" lon="17.622031021649782">
				<ele>13.195222517475486</ele>
				<time>2026-03-27T16:34:39Z</time>
			</trkpt>
		</trkseg>
	</trk>
	<extensions>
	</extensions>
</gpx>
