<?xml version="1.0" encoding="UTF-8"?>
<gpx xmlns:xsi="http://www.w3.org/2001/XMLSchema-instance" xmlns="http://www.topografix.com/GPX/1/1" xsi:schemaLocation="http://www.topografix.com/GPX/1/1 http://www.topografix.com/GPX/1/1/gpx.xsd" version="1.1" creator="FootMark for iOS">
	<metadata>
		<link href="https://itunes.apple.com/us/app/footmark-route-recorder/id1451393033">
			<text>Download link</text>
		</link>
		<time>2026-05-01T23:08:27Z</time>
	</metadata>
	<wpt lat="59.84286348341018" lon="17.627589125202622">
		<ele>44.84397888183594</ele>
		<time>2026-04-12T14:10:29Z</time>
	</wpt>
	<wpt lat="59.84284524217425" lon="17.627029113155913">
		<ele>42.87294654734433</ele>
		<time>2026-04-12T14:10:51Z</time>
	</wpt>
	<wpt lat="59.84283435271783" lon="17.626582524692292">
		<ele>45.482305717654526</ele>
		<time>2026-04-12T14:11:15Z</time>
	</wpt>
	<wpt lat="59.84285830110485" lon="17.626136630658763">
		<ele>45.992917163297534</ele>
		<time>2026-04-12T14:11:35Z</time>
	</wpt>
	<wpt lat="59.84280823615902" lon="17.625698684702545">
		<ele>46.48404701240361</ele>
		<time>2026-04-12T14:11:57Z</time>
	</wpt>
	<wpt lat="59.84284627455353" lon="17.625256004067303">
		<ele>46.20051671564579</ele>
		<time>2026-04-12T14:12:18Z</time>
	</wpt>
	<wpt lat="59.84284190222112" lon="17.62479899762775">
		<ele>49.518586550839245</ele>
		<time>2026-04-12T14:12:39Z</time>
	</wpt>
	<wpt lat="59.842878694973955" lon="17.624356844344632">
		<ele>48.68357429932803</ele>
		<time>2026-04-12T14:13:04Z</time>
	</wpt>
	<wpt lat="59.84290147414591" lon="17.623904749709197">
		<ele>48.57721985690296</ele>
		<time>2026-04-12T14:13:26Z</time>
	</wpt>
	<wpt lat="59.84291158560088" lon="17.62343641021714">
		<ele>48.25513468217105</ele>
		<time>2026-04-12T14:13:48Z</time>
	</wpt>
	<wpt lat="59.84290120323904" lon="17.622983288581747">
		<ele>49.050847738049924</ele>
		<time>2026-04-12T14:14:10Z</time>
	</wpt>
	<wpt lat="59.842931488391656" lon="17.622532461521796">
		<ele>50.17829793971032</ele>
		<time>2026-04-12T14:14:30Z</time>
	</wpt>
	<wpt lat="59.843037904270325" lon="17.622122020559747">
		<ele>51.657557575032115</ele>
		<time>2026-04-12T14:14:58Z</time>
	</wpt>
	<wpt lat="59.84324511784947" lon="17.62191589390766">
		<ele>50.76221136935055</ele>
		<time>2026-04-12T14:15:20Z</time>
	</wpt>
	<wpt lat="59.843439778684136" lon="17.62166496044859">
		<ele>51.067134300246835</ele>
		<time>2026-04-12T14:15:42Z</time>
	</wpt>
	<wpt lat="59.84365242910547" lon="17.62151041497016">
		<ele>50.7205482814461</ele>
		<time>2026-04-12T14:16:20Z</time>
	</wpt>
	<wpt lat="59.84379820923453" lon="17.621163771695908">
		<ele>49.62495329696685</ele>
		<time>2026-04-12T14:17:04Z</time>
	</wpt>
	<wpt lat="59.84401163898497" lon="17.62098854830662">
		<ele>50.419274885207415</ele>
		<time>2026-04-12T14:17:27Z</time>
	</wpt>
	<wpt lat="59.84422998144171" lon="17.620865084943855">
		<ele>50.43621886987239</ele>
		<time>2026-04-12T14:17:49Z</time>
	</wpt>
	<wpt lat="59.844461780811706" lon="17.62084908463451">
		<ele>50.58405330311507</ele>
		<time>2026-04-12T14:18:11Z</time>
	</wpt>
	<wpt lat="59.84432814496133" lon="17.62048828184985">
		<ele>53.17837997060269</ele>
		<time>2026-04-12T14:18:52Z</time>
	</wpt>
	<wpt lat="59.84417366135681" lon="17.620129253009686">
		<ele>52.35829935502261</ele>
		<time>2026-04-12T14:19:15Z</time>
	</wpt>
	<wpt lat="59.84396042300565" lon="17.619904245105396">
		<ele>53.021317259408534</ele>
		<time>2026-04-12T14:19:39Z</time>
	</wpt>
	<wpt lat="59.84373390712155" lon="17.619758960665163">
		<ele>53.77168868947774</ele>
		<time>2026-04-12T14:20:03Z</time>
	</wpt>
	<wpt lat="59.843846605654946" lon="17.61937319665891">
		<ele>51.40910551697016</ele>
		<time>2026-04-12T14:20:48Z</time>
	</wpt>
	<wpt lat="59.844026412959536" lon="17.619101281939553">
		<ele>50.48192329611629</ele>
		<time>2026-04-12T14:22:50Z</time>
	</wpt>
	<wpt lat="59.84425325856713" lon="17.619100927742117">
		<ele>49.82215574383736</ele>
		<time>2026-04-12T14:23:09Z</time>
	</wpt>
	<wpt lat="59.84448557288772" lon="17.61899286754142">
		<ele>48.10661272704601</ele>
		<time>2026-04-12T14:23:33Z</time>
	</wpt>
	<wpt lat="59.84470886571343" lon="17.618903804158553">
		<ele>50.60168949980289</ele>
		<time>2026-04-12T14:23:55Z</time>
	</wpt>
	<wpt lat="59.844938338303976" lon="17.618898229865497">
		<ele>49.665888361632824</ele>
		<time>2026-04-12T14:24:17Z</time>
	</wpt>
	<wpt lat="59.84516440517308" lon="17.618889008412314">
		<ele>48.391713578253984</ele>
		<time>2026-04-12T14:24:42Z</time>
	</wpt>
	<wpt lat="59.845293633859505" lon="17.618507715530114">
		<ele>45.86031189188361</ele>
		<time>2026-04-12T14:25:04Z</time>
	</wpt>
	<wpt lat="59.845527463495706" lon="17.618484539835272">
		<ele>41.26665120758116</ele>
		<time>2026-04-12T14:25:47Z</time>
	</wpt>
	<wpt lat="59.845726789952685" lon="17.6187295107234">
		<ele>41.39182794652879</ele>
		<time>2026-04-12T14:26:09Z</time>
	</wpt>
	<wpt lat="59.8459203410376" lon="17.618996803261727">
		<ele>44.40271780267358</ele>
		<time>2026-04-12T14:26:42Z</time>
	</wpt>
	<wpt lat="59.846068319261846" lon="17.619345462673433">
		<ele>42.04948097001761</ele>
		<time>2026-04-12T14:27:05Z</time>
	</wpt>
	<wpt lat="59.846151161826434" lon="17.619762542505573">
		<ele>43.365352113731205</ele>
		<time>2026-04-12T14:27:27Z</time>
	</wpt>
	<wpt lat="59.84621633155605" lon="17.620189368376852">
		<ele>46.38434794358909</ele>
		<time>2026-04-12T14:27:47Z</time>
	</wpt>
	<wpt lat="59.846075777430315" lon="17.620537061350007">
		<ele>49.03212648164481</ele>
		<time>2026-04-12T14:28:18Z</time>
	</wpt>
	<wpt lat="59.846067070426145" lon="17.620984086940272">
		<ele>50.783695155754685</ele>
		<time>2026-04-12T14:28:50Z</time>
	</wpt>
	<wpt lat="59.84611270017428" lon="17.62143090737114">
		<ele>45.17638515587896</ele>
		<time>2026-04-12T14:29:16Z</time>
	</wpt>
	<wpt lat="59.84622820173243" lon="17.621849714167542">
		<ele>42.65276041161269</ele>
		<time>2026-04-12T14:29:43Z</time>
	</wpt>
	<wpt lat="59.84631512736894" lon="17.622263907723685">
		<ele>41.95252812374383</ele>
		<time>2026-04-12T14:30:02Z</time>
	</wpt>
	<wpt lat="59.846379039628665" lon="17.62269767282147">
		<ele>39.436981942504644</ele>
		<time>2026-04-12T14:30:23Z</time>
	</wpt>
	<wpt lat="59.84642015795834" lon="17.623142218155966">
		<ele>37.821622321382165</ele>
		<time>2026-04-12T14:30:46Z</time>
	</wpt>
	<wpt lat="59.846424978538025" lon="17.623590231620163">
		<ele>34.14521277882159</ele>
		<time>2026-04-12T14:31:07Z</time>
	</wpt>
	<wpt lat="59.84661391400346" lon="17.623834391717228">
		<ele>32.981917577795684</ele>
		<time>2026-04-12T14:31:38Z</time>
	</wpt>
	<wpt lat="59.84681463585156" lon="17.623620415478275">
		<ele>32.57819047290832</ele>
		<time>2026-04-12T14:32:04Z</time>
	</wpt>
	<wpt lat="59.846976512064906" lon="17.623310655381793">
		<ele>34.13861212786287</ele>
		<time>2026-04-12T14:32:27Z</time>
	</wpt>
	<wpt lat="59.84676000683867" lon="17.62315446307706">
		<ele>37.19626972172409</ele>
		<time>2026-04-12T14:33:07Z</time>
	</wpt>
	<wpt lat="59.846623730088716" lon="17.622787619891497">
		<ele>41.43951341509819</ele>
		<time>2026-04-12T14:33:39Z</time>
	</wpt>
	<wpt lat="59.846720604818756" lon="17.62236927566109">
		<ele>44.66696370951831</ele>
		<time>2026-04-12T14:34:26Z</time>
	</wpt>
	<wpt lat="59.84689629615004" lon="17.622086175354653">
		<ele>42.43404834344983</ele>
		<time>2026-04-12T14:34:53Z</time>
	</wpt>
	<wpt lat="59.847127351348476" lon="17.622041821391743">
		<ele>37.072818766348064</ele>
		<time>2026-04-12T14:36:15Z</time>
	</wpt>
	<wpt lat="59.84724973906807" lon="17.621658787135953">
		<ele>35.85688915569335</ele>
		<time>2026-04-12T14:36:57Z</time>
	</wpt>
	<wpt lat="59.84730546183389" lon="17.62122388681282">
		<ele>34.17757687345147</ele>
		<time>2026-04-12T14:37:23Z</time>
	</wpt>
	<wpt lat="59.847247955396604" lon="17.62078903397976">
		<ele>34.41944605950266</ele>
		<time>2026-04-12T14:37:46Z</time>
	</wpt>
	<wpt lat="59.847220552425014" lon="17.620345194334472">
		<ele>33.64472888875753</ele>
		<time>2026-04-12T14:38:08Z</time>
	</wpt>
	<wpt lat="59.84714236312293" lon="17.619908124410095">
		<ele>30.559854805469513</ele>
		<time>2026-04-12T14:38:30Z</time>
	</wpt>
	<wpt lat="59.8470453418542" lon="17.619487553384833">
		<ele>30.308863583020866</ele>
		<time>2026-04-12T14:38:52Z</time>
	</wpt>
	<wpt lat="59.846975245498086" lon="17.619062282847487">
		<ele>31.48174891807139</ele>
		<time>2026-04-12T14:39:12Z</time>
	</wpt>
	<wpt lat="59.84690629560711" lon="17.61863299143666">
		<ele>29.517782145179808</ele>
		<time>2026-04-12T14:39:33Z</time>
	</wpt>
	<wpt lat="59.846689991664206" lon="17.61848699151461">
		<ele>30.62162411119789</ele>
		<time>2026-04-12T14:40:20Z</time>
	</wpt>
	<wpt lat="59.846522081000934" lon="17.618784179187948">
		<ele>35.97329365927726</ele>
		<time>2026-04-12T14:40:52Z</time>
	</wpt>
	<wpt lat="59.84633868802707" lon="17.619060322959065">
		<ele>40.42478327546269</ele>
		<time>2026-04-12T14:41:30Z</time>
	</wpt>
	<wpt lat="59.84611909719629" lon="17.619195541029633">
		<ele>42.57865077909082</ele>
		<time>2026-04-12T14:41:55Z</time>
	</wpt>
	<wpt lat="59.84590256026332" lon="17.61931794038356">
		<ele>42.32091092970222</ele>
		<time>2026-04-12T14:42:33Z</time>
	</wpt>
	<wpt lat="59.845769055257286" lon="17.619678661169285">
		<ele>46.40088375471532</ele>
		<time>2026-04-12T14:43:00Z</time>
	</wpt>
	<wpt lat="59.84558353538753" lon="17.61995515883231">
		<ele>49.42102878820151</ele>
		<time>2026-04-12T14:43:29Z</time>
	</wpt>
	<wpt lat="59.84541625186201" lon="17.620265826988167">
		<ele>50.88199108466506</ele>
		<time>2026-04-12T14:43:57Z</time>
	</wpt>
	<wpt lat="59.84521315679246" lon="17.620467825892025">
		<ele>51.73196902871132</ele>
		<time>2026-04-12T14:44:24Z</time>
	</wpt>
	<wpt lat="59.8449914094358" lon="17.62067987204778">
		<ele>50.762199161574244</ele>
		<time>2026-04-12T14:45:08Z</time>
	</wpt>
	<wpt lat="59.84479410608987" lon="17.620894999424124">
		<ele>50.5549159841612</ele>
		<time>2026-04-12T14:46:20Z</time>
	</wpt>
	<wpt lat="59.844570790189536" lon="17.620987445952743">
		<ele>51.802770239301026</ele>
		<time>2026-04-12T14:50:41Z</time>
	</wpt>
	<wpt lat="59.84433758084532" lon="17.62101647077506">
		<ele>52.395963803865016</ele>
		<time>2026-04-12T14:51:13Z</time>
	</wpt>
	<wpt lat="59.844113293426155" lon="17.6210816942486">
		<ele>51.350956005975604</ele>
		<time>2026-04-12T14:51:39Z</time>
	</wpt>
	<wpt lat="59.843902506969805" lon="17.621277685635352">
		<ele>50.56033587735146</ele>
		<time>2026-04-12T14:52:06Z</time>
	</wpt>
	<wpt lat="59.84368476626555" lon="17.62144639379629">
		<ele>49.98819385562092</ele>
		<time>2026-04-12T14:52:29Z</time>
	</wpt>
	<wpt lat="59.84347936739638" lon="17.621635568679416">
		<ele>50.94376855995506</ele>
		<time>2026-04-12T14:55:17Z</time>
	</wpt>
	<wpt lat="59.84326235409478" lon="17.621781788410665">
		<ele>52.435902698896825</ele>
		<time>2026-04-12T14:55:43Z</time>
	</wpt>
	<wpt lat="59.843053552165095" lon="17.621993940103724">
		<ele>53.81947389245033</ele>
		<time>2026-04-12T14:56:07Z</time>
	</wpt>
	<wpt lat="59.842835127391766" lon="17.622164726437656">
		<ele>54.80681750457734</ele>
		<time>2026-04-12T14:56:31Z</time>
	</wpt>
	<wpt lat="59.842624890304684" lon="17.622341949205115">
		<ele>54.069751465693116</ele>
		<time>2026-04-12T14:56:55Z</time>
	</wpt>
	<wpt lat="59.842423486064575" lon="17.62255823953928">
		<ele>56.2989086676389</ele>
		<time>2026-04-12T14:57:20Z</time>
	</wpt>
	<wpt lat="59.84222415099885" lon="17.62279438554244">
		<ele>54.507958815433085</ele>
		<time>2026-04-12T14:57:45Z</time>
	</wpt>
	<wpt lat="59.84201665932491" lon="17.62301314687613">
		<ele>54.936923595145345</ele>
		<time>2026-04-12T14:58:10Z</time>
	</wpt>
	<wpt lat="59.84179934928257" lon="17.623155523244968">
		<ele>54.42343712039292</ele>
		<time>2026-04-12T14:58:32Z</time>
	</wpt>
	<wpt lat="59.84157425491545" lon="17.623265475508436">
		<ele>56.70857298094779</ele>
		<time>2026-04-12T14:59:03Z</time>
	</wpt>
	<wpt lat="59.84139891245837" lon="17.623565736867576">
		<ele>55.73758838046342</ele>
		<time>2026-04-12T14:59:37Z</time>
	</wpt>
	<wpt lat="59.84121425027549" lon="17.62385015884011">
		<ele>56.970653379336</ele>
		<time>2026-04-12T15:00:03Z</time>
	</wpt>
	<wpt lat="59.8410738222237" lon="17.624222408411708">
		<ele>58.6782492659986</ele>
		<time>2026-04-12T15:00:30Z</time>
	</wpt>
	<wpt lat="59.841019070507976" lon="17.624666206465875">
		<ele>58.606283134780824</ele>
		<time>2026-04-12T15:01:11Z</time>
	</wpt>
	<wpt lat="59.84100809831663" lon="17.62513515442487">
		<ele>58.48836470860988</ele>
		<time>2026-04-12T15:01:34Z</time>
	</wpt>
	<wpt lat="59.84103977369947" lon="17.625593625543484">
		<ele>57.687029821798205</ele>
		<time>2026-04-12T15:01:56Z</time>
	</wpt>
	<wpt lat="59.841273176979726" lon="17.625513239330566">
		<ele>56.24962676875293</ele>
		<time>2026-04-12T15:02:45Z</time>
	</wpt>
	<wpt lat="59.84149492978053" lon="17.625589458310333">
		<ele>58.86331383790821</ele>
		<time>2026-04-12T15:03:32Z</time>
	</wpt>
	<wpt lat="59.84171908218605" lon="17.625547700323345">
		<ele>57.535226742736995</ele>
		<time>2026-04-12T15:04:04Z</time>
	</wpt>
	<wpt lat="59.84194919321245" lon="17.625519480671446">
		<ele>54.405257465317845</ele>
		<time>2026-04-12T15:04:24Z</time>
	</wpt>
	<wpt lat="59.8421743134221" lon="17.62548091280454">
		<ele>52.93386250641197</ele>
		<time>2026-04-12T15:04:44Z</time>
	</wpt>
	<wpt lat="59.842405899307316" lon="17.625451111840533">
		<ele>52.844915956258774</ele>
		<time>2026-04-12T15:05:06Z</time>
	</wpt>
	<wpt lat="59.84259434540331" lon="17.62571316261715">
		<ele>50.598301568068564</ele>
		<time>2026-04-12T15:05:23Z</time>
	</wpt>
	<wpt lat="59.842740182039044" lon="17.626072241065906">
		<ele>48.815798100084066</ele>
		<time>2026-04-12T15:05:43Z</time>
	</wpt>
	<wpt lat="59.842837346499834" lon="17.626475559548908">
		<ele>46.119139335118234</ele>
		<time>2026-04-12T15:06:12Z</time>
	</wpt>
	<wpt lat="59.84286651704783" lon="17.626924548022803">
		<ele>43.49297774396837</ele>
		<time>2026-04-12T15:06:30Z</time>
	</wpt>
	<wpt lat="59.84294142445939" lon="17.627353825418254">
		<ele>39.41366898454726</ele>
		<time>2026-04-12T15:06:52Z</time>
	</wpt>
	<wpt lat="59.84315769511259" lon="17.627498782303807">
		<ele>38.258975526317954</ele>
		<time>2026-04-12T15:07:16Z</time>
	</wpt>
	<wpt lat="59.84333193954179" lon="17.62721690599762">
		<ele>36.18123659864068</ele>
		<time>2026-04-12T15:07:34Z</time>
	</wpt>
	<wpt lat="59.843426440650724" lon="17.626805099038325">
		<ele>36.632062803953886</ele>
		<time>2026-04-12T15:07:54Z</time>
	</wpt>
	<wpt lat="59.84349844890863" lon="17.626975751044483">
		<ele>36.75232200790197</ele>
		<time>2026-04-12T15:09:24Z</time>
	</wpt>
	<trk>
		<trkseg>
			<trkpt lat="59.84286348341018" lon="17.627589125202622">
				<ele>44.84397888183594</ele>
				<time>2026-04-12T14:10:29Z</time>
			</trkpt>
			<trkpt lat="59.84284524217425" lon="17.627029113155913">
				<ele>42.87294654734433</ele>
				<time>2026-04-12T14:10:51Z</time>
			</trkpt>
			<trkpt lat="59.84283435271783" lon="17.626582524692292">
				<ele>45.482305717654526</ele>
				<time>2026-04-12T14:11:15Z</time>
			</trkpt>
			<trkpt lat="59.84285830110485" lon="17.626136630658763">
				<ele>45.992917163297534</ele>
				<time>2026-04-12T14:11:35Z</time>
			</trkpt>
			<trkpt lat="59.84280823615902" lon="17.625698684702545">
				<ele>46.48404701240361</ele>
				<time>2026-04-12T14:11:57Z</time>
			</trkpt>
			<trkpt lat="59.84284627455353" lon="17.625256004067303">
				<ele>46.20051671564579</ele>
				<time>2026-04-12T14:12:18Z</time>
			</trkpt>
			<trkpt lat="59.84284190222112" lon="17.62479899762775">
				<ele>49.518586550839245</ele>
				<time>2026-04-12T14:12:39Z</time>
			</trkpt>
			<trkpt lat="59.842878694973955" lon="17.624356844344632">
				<ele>48.68357429932803</ele>
				<time>2026-04-12T14:13:04Z</time>
			</trkpt>
			<trkpt lat="59.84290147414591" lon="17.623904749709197">
				<ele>48.57721985690296</ele>
				<time>2026-04-12T14:13:26Z</time>
			</trkpt>
			<trkpt lat="59.84291158560088" lon="17.62343641021714">
				<ele>48.25513468217105</ele>
				<time>2026-04-12T14:13:48Z</time>
			</trkpt>
			<trkpt lat="59.84290120323904" lon="17.622983288581747">
				<ele>49.050847738049924</ele>
				<time>2026-04-12T14:14:10Z</time>
			</trkpt>
			<trkpt lat="59.842931488391656" lon="17.622532461521796">
				<ele>50.17829793971032</ele>
				<time>2026-04-12T14:14:30Z</time>
			</trkpt>
			<trkpt lat="59.843037904270325" lon="17.622122020559747">
				<ele>51.657557575032115</ele>
				<time>2026-04-12T14:14:58Z</time>
			</trkpt>
			<trkpt lat="59.84324511784947" lon="17.62191589390766">
				<ele>50.76221136935055</ele>
				<time>2026-04-12T14:15:20Z</time>
			</trkpt>
			<trkpt lat="59.843439778684136" lon="17.62166496044859">
				<ele>51.067134300246835</ele>
				<time>2026-04-12T14:15:42Z</time>
			</trkpt>
			<trkpt lat="59.84365242910547" lon="17.62151041497016">
				<ele>50.7205482814461</ele>
				<time>2026-04-12T14:16:20Z</time>
			</trkpt>
			<trkpt lat="59.84379820923453" lon="17.621163771695908">
				<ele>49.62495329696685</ele>
				<time>2026-04-12T14:17:04Z</time>
			</trkpt>
			<trkpt lat="59.84401163898497" lon="17.62098854830662">
				<ele>50.419274885207415</ele>
				<time>2026-04-12T14:17:27Z</time>
			</trkpt>
			<trkpt lat="59.84422998144171" lon="17.620865084943855">
				<ele>50.43621886987239</ele>
				<time>2026-04-12T14:17:49Z</time>
			</trkpt>
			<trkpt lat="59.844461780811706" lon="17.62084908463451">
				<ele>50.58405330311507</ele>
				<time>2026-04-12T14:18:11Z</time>
			</trkpt>
			<trkpt lat="59.84432814496133" lon="17.62048828184985">
				<ele>53.17837997060269</ele>
				<time>2026-04-12T14:18:52Z</time>
			</trkpt>
			<trkpt lat="59.84417366135681" lon="17.620129253009686">
				<ele>52.35829935502261</ele>
				<time>2026-04-12T14:19:15Z</time>
			</trkpt>
			<trkpt lat="59.84396042300565" lon="17.619904245105396">
				<ele>53.021317259408534</ele>
				<time>2026-04-12T14:19:39Z</time>
			</trkpt>
			<trkpt lat="59.84373390712155" lon="17.619758960665163">
				<ele>53.77168868947774</ele>
				<time>2026-04-12T14:20:03Z</time>
			</trkpt>
			<trkpt lat="59.843846605654946" lon="17.61937319665891">
				<ele>51.40910551697016</ele>
				<time>2026-04-12T14:20:48Z</time>
			</trkpt>
			<trkpt lat="59.844026412959536" lon="17.619101281939553">
				<ele>50.48192329611629</ele>
				<time>2026-04-12T14:22:50Z</time>
			</trkpt>
			<trkpt lat="59.84425325856713" lon="17.619100927742117">
				<ele>49.82215574383736</ele>
				<time>2026-04-12T14:23:09Z</time>
			</trkpt>
			<trkpt lat="59.84448557288772" lon="17.61899286754142">
				<ele>48.10661272704601</ele>
				<time>2026-04-12T14:23:33Z</time>
			</trkpt>
			<trkpt lat="59.84470886571343" lon="17.618903804158553">
				<ele>50.60168949980289</ele>
				<time>2026-04-12T14:23:55Z</time>
			</trkpt>
			<trkpt lat="59.844938338303976" lon="17.618898229865497">
				<ele>49.665888361632824</ele>
				<time>2026-04-12T14:24:17Z</time>
			</trkpt>
			<trkpt lat="59.84516440517308" lon="17.618889008412314">
				<ele>48.391713578253984</ele>
				<time>2026-04-12T14:24:42Z</time>
			</trkpt>
			<trkpt lat="59.845293633859505" lon="17.618507715530114">
				<ele>45.86031189188361</ele>
				<time>2026-04-12T14:25:04Z</time>
			</trkpt>
			<trkpt lat="59.845527463495706" lon="17.618484539835272">
				<ele>41.26665120758116</ele>
				<time>2026-04-12T14:25:47Z</time>
			</trkpt>
			<trkpt lat="59.845726789952685" lon="17.6187295107234">
				<ele>41.39182794652879</ele>
				<time>2026-04-12T14:26:09Z</time>
			</trkpt>
			<trkpt lat="59.8459203410376" lon="17.618996803261727">
				<ele>44.40271780267358</ele>
				<time>2026-04-12T14:26:42Z</time>
			</trkpt>
			<trkpt lat="59.846068319261846" lon="17.619345462673433">
				<ele>42.04948097001761</ele>
				<time>2026-04-12T14:27:05Z</time>
			</trkpt>
			<trkpt lat="59.846151161826434" lon="17.619762542505573">
				<ele>43.365352113731205</ele>
				<time>2026-04-12T14:27:27Z</time>
			</trkpt>
			<trkpt lat="59.84621633155605" lon="17.620189368376852">
				<ele>46.38434794358909</ele>
				<time>2026-04-12T14:27:47Z</time>
			</trkpt>
			<trkpt lat="59.846075777430315" lon="17.620537061350007">
				<ele>49.03212648164481</ele>
				<time>2026-04-12T14:28:18Z</time>
			</trkpt>
			<trkpt lat="59.846067070426145" lon="17.620984086940272">
				<ele>50.783695155754685</ele>
				<time>2026-04-12T14:28:50Z</time>
			</trkpt>
			<trkpt lat="59.84611270017428" lon="17.62143090737114">
				<ele>45.17638515587896</ele>
				<time>2026-04-12T14:29:16Z</time>
			</trkpt>
			<trkpt lat="59.84622820173243" lon="17.621849714167542">
				<ele>42.65276041161269</ele>
				<time>2026-04-12T14:29:43Z</time>
			</trkpt>
			<trkpt lat="59.84631512736894" lon="17.622263907723685">
				<ele>41.95252812374383</ele>
				<time>2026-04-12T14:30:02Z</time>
			</trkpt>
			<trkpt lat="59.846379039628665" lon="17.62269767282147">
				<ele>39.436981942504644</ele>
				<time>2026-04-12T14:30:23Z</time>
			</trkpt>
			<trkpt lat="59.84642015795834" lon="17.623142218155966">
				<ele>37.821622321382165</ele>
				<time>2026-04-12T14:30:46Z</time>
			</trkpt>
			<trkpt lat="59.846424978538025" lon="17.623590231620163">
				<ele>34.14521277882159</ele>
				<time>2026-04-12T14:31:07Z</time>
			</trkpt>
			<trkpt lat="59.84661391400346" lon="17.623834391717228">
				<ele>32.981917577795684</ele>
				<time>2026-04-12T14:31:38Z</time>
			</trkpt>
			<trkpt lat="59.84681463585156" lon="17.623620415478275">
				<ele>32.57819047290832</ele>
				<time>2026-04-12T14:32:04Z</time>
			</trkpt>
			<trkpt lat="59.846976512064906" lon="17.623310655381793">
				<ele>34.13861212786287</ele>
				<time>2026-04-12T14:32:27Z</time>
			</trkpt>
			<trkpt lat="59.84676000683867" lon="17.62315446307706">
				<ele>37.19626972172409</ele>
				<time>2026-04-12T14:33:07Z</time>
			</trkpt>
			<trkpt lat="59.846623730088716" lon="17.622787619891497">
				<ele>41.43951341509819</ele>
				<time>2026-04-12T14:33:39Z</time>
			</trkpt>
			<trkpt lat="59.846720604818756" lon="17.62236927566109">
				<ele>44.66696370951831</ele>
				<time>2026-04-12T14:34:26Z</time>
			</trkpt>
			<trkpt lat="59.84689629615004" lon="17.622086175354653">
				<ele>42.43404834344983</ele>
				<time>2026-04-12T14:34:53Z</time>
			</trkpt>
			<trkpt lat="59.847127351348476" lon="17.622041821391743">
				<ele>37.072818766348064</ele>
				<time>2026-04-12T14:36:15Z</time>
			</trkpt>
			<trkpt lat="59.84724973906807" lon="17.621658787135953">
				<ele>35.85688915569335</ele>
				<time>2026-04-12T14:36:57Z</time>
			</trkpt>
			<trkpt lat="59.84730546183389" lon="17.62122388681282">
				<ele>34.17757687345147</ele>
				<time>2026-04-12T14:37:23Z</time>
			</trkpt>
			<trkpt lat="59.847247955396604" lon="17.62078903397976">
				<ele>34.41944605950266</ele>
				<time>2026-04-12T14:37:46Z</time>
			</trkpt>
			<trkpt lat="59.847220552425014" lon="17.620345194334472">
				<ele>33.64472888875753</ele>
				<time>2026-04-12T14:38:08Z</time>
			</trkpt>
			<trkpt lat="59.84714236312293" lon="17.619908124410095">
				<ele>30.559854805469513</ele>
				<time>2026-04-12T14:38:30Z</time>
			</trkpt>
			<trkpt lat="59.8470453418542" lon="17.619487553384833">
				<ele>30.308863583020866</ele>
				<time>2026-04-12T14:38:52Z</time>
			</trkpt>
			<trkpt lat="59.846975245498086" lon="17.619062282847487">
				<ele>31.48174891807139</ele>
				<time>2026-04-12T14:39:12Z</time>
			</trkpt>
			<trkpt lat="59.84690629560711" lon="17.61863299143666">
				<ele>29.517782145179808</ele>
				<time>2026-04-12T14:39:33Z</time>
			</trkpt>
			<trkpt lat="59.846689991664206" lon="17.61848699151461">
				<ele>30.62162411119789</ele>
				<time>2026-04-12T14:40:20Z</time>
			</trkpt>
			<trkpt lat="59.846522081000934" lon="17.618784179187948">
				<ele>35.97329365927726</ele>
				<time>2026-04-12T14:40:52Z</time>
			</trkpt>
			<trkpt lat="59.84633868802707" lon="17.619060322959065">
				<ele>40.42478327546269</ele>
				<time>2026-04-12T14:41:30Z</time>
			</trkpt>
			<trkpt lat="59.84611909719629" lon="17.619195541029633">
				<ele>42.57865077909082</ele>
				<time>2026-04-12T14:41:55Z</time>
			</trkpt>
			<trkpt lat="59.84590256026332" lon="17.61931794038356">
				<ele>42.32091092970222</ele>
				<time>2026-04-12T14:42:33Z</time>
			</trkpt>
			<trkpt lat="59.845769055257286" lon="17.619678661169285">
				<ele>46.40088375471532</ele>
				<time>2026-04-12T14:43:00Z</time>
			</trkpt>
			<trkpt lat="59.84558353538753" lon="17.61995515883231">
				<ele>49.42102878820151</ele>
				<time>2026-04-12T14:43:29Z</time>
			</trkpt>
			<trkpt lat="59.84541625186201" lon="17.620265826988167">
				<ele>50.88199108466506</ele>
				<time>2026-04-12T14:43:57Z</time>
			</trkpt>
			<trkpt lat="59.84521315679246" lon="17.620467825892025">
				<ele>51.73196902871132</ele>
				<time>2026-04-12T14:44:24Z</time>
			</trkpt>
			<trkpt lat="59.8449914094358" lon="17.62067987204778">
				<ele>50.762199161574244</ele>
				<time>2026-04-12T14:45:08Z</time>
			</trkpt>
			<trkpt lat="59.84479410608987" lon="17.620894999424124">
				<ele>50.5549159841612</ele>
				<time>2026-04-12T14:46:20Z</time>
			</trkpt>
			<trkpt lat="59.844570790189536" lon="17.620987445952743">
				<ele>51.802770239301026</ele>
				<time>2026-04-12T14:50:41Z</time>
			</trkpt>
			<trkpt lat="59.84433758084532" lon="17.62101647077506">
				<ele>52.395963803865016</ele>
				<time>2026-04-12T14:51:13Z</time>
			</trkpt>
			<trkpt lat="59.844113293426155" lon="17.6210816942486">
				<ele>51.350956005975604</ele>
				<time>2026-04-12T14:51:39Z</time>
			</trkpt>
			<trkpt lat="59.843902506969805" lon="17.621277685635352">
				<ele>50.56033587735146</ele>
				<time>2026-04-12T14:52:06Z</time>
			</trkpt>
			<trkpt lat="59.84368476626555" lon="17.62144639379629">
				<ele>49.98819385562092</ele>
				<time>2026-04-12T14:52:29Z</time>
			</trkpt>
			<trkpt lat="59.84347936739638" lon="17.621635568679416">
				<ele>50.94376855995506</ele>
				<time>2026-04-12T14:55:17Z</time>
			</trkpt>
			<trkpt lat="59.84326235409478" lon="17.621781788410665">
				<ele>52.435902698896825</ele>
				<time>2026-04-12T14:55:43Z</time>
			</trkpt>
			<trkpt lat="59.843053552165095" lon="17.621993940103724">
				<ele>53.81947389245033</ele>
				<time>2026-04-12T14:56:07Z</time>
			</trkpt>
			<trkpt lat="59.842835127391766" lon="17.622164726437656">
				<ele>54.80681750457734</ele>
				<time>2026-04-12T14:56:31Z</time>
			</trkpt>
			<trkpt lat="59.842624890304684" lon="17.622341949205115">
				<ele>54.069751465693116</ele>
				<time>2026-04-12T14:56:55Z</time>
			</trkpt>
			<trkpt lat="59.842423486064575" lon="17.62255823953928">
				<ele>56.2989086676389</ele>
				<time>2026-04-12T14:57:20Z</time>
			</trkpt>
			<trkpt lat="59.84222415099885" lon="17.62279438554244">
				<ele>54.507958815433085</ele>
				<time>2026-04-12T14:57:45Z</time>
			</trkpt>
			<trkpt lat="59.84201665932491" lon="17.62301314687613">
				<ele>54.936923595145345</ele>
				<time>2026-04-12T14:58:10Z</time>
			</trkpt>
			<trkpt lat="59.84179934928257" lon="17.623155523244968">
				<ele>54.42343712039292</ele>
				<time>2026-04-12T14:58:32Z</time>
			</trkpt>
			<trkpt lat="59.84157425491545" lon="17.623265475508436">
				<ele>56.70857298094779</ele>
				<time>2026-04-12T14:59:03Z</time>
			</trkpt>
			<trkpt lat="59.84139891245837" lon="17.623565736867576">
				<ele>55.73758838046342</ele>
				<time>2026-04-12T14:59:37Z</time>
			</trkpt>
			<trkpt lat="59.84121425027549" lon="17.62385015884011">
				<ele>56.970653379336</ele>
				<time>2026-04-12T15:00:03Z</time>
			</trkpt>
			<trkpt lat="59.8410738222237" lon="17.624222408411708">
				<ele>58.6782492659986</ele>
				<time>2026-04-12T15:00:30Z</time>
			</trkpt>
			<trkpt lat="59.841019070507976" lon="17.624666206465875">
				<ele>58.606283134780824</ele>
				<time>2026-04-12T15:01:11Z</time>
			</trkpt>
			<trkpt lat="59.84100809831663" lon="17.62513515442487">
				<ele>58.48836470860988</ele>
				<time>2026-04-12T15:01:34Z</time>
			</trkpt>
			<trkpt lat="59.84103977369947" lon="17.625593625543484">
				<ele>57.687029821798205</ele>
				<time>2026-04-12T15:01:56Z</time>
			</trkpt>
			<trkpt lat="59.841273176979726" lon="17.625513239330566">
				<ele>56.24962676875293</ele>
				<time>2026-04-12T15:02:45Z</time>
			</trkpt>
			<trkpt lat="59.84149492978053" lon="17.625589458310333">
				<ele>58.86331383790821</ele>
				<time>2026-04-12T15:03:32Z</time>
			</trkpt>
			<trkpt lat="59.84171908218605" lon="17.625547700323345">
				<ele>57.535226742736995</ele>
				<time>2026-04-12T15:04:04Z</time>
			</trkpt>
			<trkpt lat="59.84194919321245" lon="17.625519480671446">
				<ele>54.405257465317845</ele>
				<time>2026-04-12T15:04:24Z</time>
			</trkpt>
			<trkpt lat="59.8421743134221" lon="17.62548091280454">
				<ele>52.93386250641197</ele>
				<time>2026-04-12T15:04:44Z</time>
			</trkpt>
			<trkpt lat="59.842405899307316" lon="17.625451111840533">
				<ele>52.844915956258774</ele>
				<time>2026-04-12T15:05:06Z</time>
			</trkpt>
			<trkpt lat="59.84259434540331" lon="17.62571316261715">
				<ele>50.598301568068564</ele>
				<time>2026-04-12T15:05:23Z</time>
			</trkpt>
			<trkpt lat="59.842740182039044" lon="17.626072241065906">
				<ele>48.815798100084066</ele>
				<time>2026-04-12T15:05:43Z</time>
			</trkpt>
			<trkpt lat="59.842837346499834" lon="17.626475559548908">
				<ele>46.119139335118234</ele>
				<time>2026-04-12T15:06:12Z</time>
			</trkpt>
			<trkpt lat="59.84286651704783" lon="17.626924548022803">
				<ele>43.49297774396837</ele>
				<time>2026-04-12T15:06:30Z</time>
			</trkpt>
			<trkpt lat="59.84294142445939" lon="17.627353825418254">
				<ele>39.41366898454726</ele>
				<time>2026-04-12T15:06:52Z</time>
			</trkpt>
			<trkpt lat="59.84315769511259" lon="17.627498782303807">
				<ele>38.258975526317954</ele>
				<time>2026-04-12T15:07:16Z</time>
			</trkpt>
			<trkpt lat="59.84333193954179" lon="17.62721690599762">
				<ele>36.18123659864068</ele>
				<time>2026-04-12T15:07:34Z</time>
			</trkpt>
			<trkpt lat="59.843426440650724" lon="17.626805099038325">
				<ele>36.632062803953886</ele>
				<time>2026-04-12T15:07:54Z</time>
			</trkpt>
			<trkpt lat="59.84349844890863" lon="17.626975751044483">
				<ele>36.75232200790197</ele>
				<time>2026-04-12T15:09:24Z</time>
			</trkpt>
		</trkseg>
	</trk>
	<extensions>
	</extensions>
</gpx>
